station,valid,lon,lat,elevation,tmpf,dwpf,relh,drct,sknt,p01i,alti,mslp,vsby,gust,skyc1,skyc2,skyc3,skyc4,skyl1,skyl2,skyl3,skyl4,wxcodes,ice_accretion_1hr,ice_accretion_3hr,ice_accretion_6hr,peak_wind_gust,peak_wind_drct,peak_wind_time,feel,metar,snowdepth
LGA,2026-01-09 00:00,-73.8803,40.7794,9.0,,,,70.0,7.0,,30.28,,10.0,,CLR,,,,,,,,,,,,,,,,KLGA 090500Z AUTO 07007KT 10SM CLR 03/M02 A3028 RMK T00301020 MADISHF,
LGA,2026-01-09 00:05,-73.8803,40.7794,9.0,,,,60.0,6.0,,30.27,,10.0,,CLR,,,,,,,,,,,,,,,,KLGA 090505Z AUTO 06006KT 10SM CLR 03/M01 A3027 RMK T00301010 MADISHF,
LGA,2026-01-09 00:10,-73.8803,40.7794,9.0,,,,50.0,5.0,,30.28,,10.0,,,,,,,,,,,,,,,,,,KLGA 090510Z AUTO 05005KT 10SM 03/M01 A3028 RMK T00301010 MADISHF,
LGA,2026-01-09 00:15,-73.8803,40.7794,9.0,,,,50.0,4.0,,30.28,,10.0,,,,,,,,,,,,,,,,,,KLGA 090515Z AUTO 05004KT 10SM 03/M01 A3028 RMK T00301010 MADISHF,
LGA,2026-01-09 00:20,-73.8803,40.7794,9.0,,,,40.0,4.0,,30.28,,10.0,,,,,,,,,,,,,,,,,,KLGA 090520Z AUTO 04004KT 10SM 03/M01 A3028 RMK T00301010 MADISHF,
LGA,2026-01-09 00:25,-73.8803,40.7794,9.0,,,,40.0,4.0,,30.28,,10.0,,,,,,,,,,,,,,,,,,KLGA 090525Z AUTO 04004KT 10SM 03/M01 A3028 RMK T00301010 MADISHF,
LGA,2026-01-09 00:30,-73.8803,40.7794,9.0,,,,20.0,3.0,,30.29,,10.0,,,,,,,,,,,,,,,,,,KLGA 090530Z AUTO 02003KT 10SM 03/M01 A3029 RMK T00301010 MADISHF,
LGA,2026-01-09 00:35,-73.8803,40.7794,9.0,,,,0.0,0.0,,30.29,,10.0,,,,,,,,,,,,,,,,,,KLGA 090535Z AUTO 00000KT 10SM 03/M01 A3029 RMK T00301010 MADISHF,
LGA,2026-01-09 00:40,-73.8803,40.7794,9.0,,,,0.0,0.0,,30.3,,10.0,,,,,,,,,,,,,,,,,,KLGA 090540Z AUTO 00000KT 10SM 03/M01 A3030 RMK T00301010 MADISHF,
LGA,2026-01-09 00:45,-73.8803,40.7794,9.0,,,,0.0,0.0,,30.29,,10.0,,,,,,,,,,,,,,,,,,KLGA 090545Z AUTO 00000KT 10SM 03/M02 A3029 RMK T00301020 MADISHF,
LGA,2026-01-09 00:50,-73.8803,40.7794,9.0,,,,60.0,4.0,,30.29,,10.0,,,,,,,,,,,,,,,,,,KLGA 090550Z AUTO 06004KT 10SM 02/M02 A3029 RMK T00201020 MADISHF,
LGA,2026-01-09 00:51,-73.8803,40.7794,9.0,36.0,29.0,75.44,60.0,5.0,0.00,30.29,1025.6,10.0,,FEW,,,,25000.0,,,,,,,,,,,31.15,KLGA 090551Z 06005KT 10SM FEW250 02/M02 A3029 RMK AO2 SLP256 T00221017 10083 20022 53000,
LGA,2026-01-09 00:55,-73.8803,40.7794,9.0,,,,60.0,6.0,,30.29,,10.0,,CLR,,,,,,,,,,,,,,,,KLGA 090555Z AUTO 06006KT 10SM CLR 02/M02 A3029 RMK T00201020 MADISHF,
LGA,2026-01-09 01:00,-73.8803,40.7794,9.0,,,,60.0,6.0,,30.29,,10.0,,CLR,,,,,,,,,,,,,,,,KLGA 090600Z AUTO 06006KT 10SM CLR 02/M01 A3029 RMK T00201010 MADISHF,
LGA,2026-01-09 01:05,-73.8803,40.7794,9.0,,,,50.0,5.0,,30.29,,10.0,,CLR,,,,,,,,,,,,,,,,KLGA 090605Z AUTO 05005KT 10SM CLR 02/M01 A3029 RMK T00201010 MADISHF,
LGA,2026-01-09 01:10,-73.8803,40.7794,9.0,,,,60.0,7.0,,30.28,,10.0,,CLR,,,,,,,,,,,,,,,,KLGA 090610Z AUTO 06007KT 10SM CLR 02/M01 A3028 RMK T00201010 MADISHF,
LGA,2026-01-09 01:15,-73.8803,40.7794,9.0,,,,50.0,6.0,,30.28,,10.0,,CLR,,,,,,,,,,,,,,,,KLGA 090615Z AUTO 05006KT 10SM CLR 02/M01 A3028 RMK T00201010 MADISHF,
LGA,2026-01-09 01:20,-73.8803,40.7794,9.0,,,,60.0,7.0,,30.28,,10.0,,CLR,,,,,,,,,,,,,,,,KLGA 090620Z AUTO 06007KT 10SM CLR 02/M01 A3028 RMK T00201010 MADISHF,
LGA,2026-01-09 01:25,-73.8803,40.7794,9.0,,,,60.0,5.0,,30.29,,10.0,,CLR,,,,,,,,,,,,,,,,KLGA 090625Z AUTO 06005KT 10SM CLR 02/M01 A3029 RMK T00201010 MADISHF,
LGA,2026-01-09 01:30,-73.8803,40.7794,9.0,,,,60.0,4.0,,30.29,,10.0,,CLR,,,,,,,,,,,,,,,,KLGA 090630Z AUTO 06004KT 10SM CLR 02/M01 A3029 RMK T00201010 MADISHF,
LGA,2026-01-09 01:35,-73.8803,40.7794,9.0,,,,50.0,5.0,,30.29,,10.0,,CLR,,,,,,,,,,,,,,,,KLGA 090635Z AUTO 05005KT 10SM CLR 02/M01 A3029 RMK T00201010 MADISHF,
LGA,2026-01-09 01:40,-73.8803,40.7794,9.0,,,,60.0,5.0,,30.29,,10.0,,CLR,,,,,,,,,,,,,,,,KLGA 090640Z AUTO 06005KT 10SM CLR 02/M01 A3029 RMK T00201010 MADISHF,
LGA,2026-01-09 01:45,-73.8803,40.7794,9.0,,,,60.0,4.0,,30.29,,10.0,,CLR,,,,,,,,,,,,,,,,KLGA 090645Z AUTO 06004KT 10SM CLR 02/M01 A3029 RMK T00201010 MADISHF,
LGA,2026-01-09 01:50,-73.8803,40.7794,9.0,,,,50.0,5.0,,30.29,,10.0,,,,,,,,,,,,,,,,,,KLGA 090650Z AUTO 05005KT 10SM 02/M01 A3029 RMK T00201010 MADISHF,
LGA,2026-01-09 01:51,-73.8803,40.7794,9.0,36.0,30.0,78.58,50.0,5.0,0.00,30.29,1025.8,10.0,,FEW,,,,25000.0,,,,,,,,,,,31.15,KLGA 090651Z 05005KT 10SM FEW250 02/M01 A3029 RMK AO2 SLP258 T00221011,
LGA,2026-01-09 01:55,-73.8803,40.7794,9.0,,,,50.0,5.0,,30.3,,10.0,,,,,,,,,,,,,,,,,,KLGA 090655Z AUTO 05005KT 10SM 02/M01 A3030 RMK T00201010 MADISHF,
LGA,2026-01-09 02:00,-73.8803,40.7794,9.0,,,,50.0,5.0,,30.3,,10.0,,,,,,,,,,,,,,,,,,KLGA 090700Z AUTO 05005KT 10SM 02/M01 A3030 RMK T00201010 MADISHF,
LGA,2026-01-09 02:05,-73.8803,40.7794,9.0,,,,50.0,6.0,,30.3,,10.0,,,,,,,,,,,,,,,,,,KLGA 090705Z AUTO 05006KT 10SM 02/M01 A3030 RMK T00201010 MADISHF,
LGA,2026-01-09 02:10,-73.8803,40.7794,9.0,,,,50.0,5.0,,30.3,,10.0,,,,,,,,,,,,,,,,,,KLGA 090710Z AUTO 05005KT 10SM 02/M01 A3030 RMK T00201010 MADISHF,
LGA,2026-01-09 02:15,-73.8803,40.7794,9.0,,,,50.0,6.0,,30.29,,10.0,,,,,,,,,,,,,,,,,,KLGA 090715Z AUTO 05006KT 10SM 02/M01 A3029 RMK T00201010 MADISHF,
LGA,2026-01-09 02:20,-73.8803,40.7794,9.0,,,,60.0,6.0,,30.29,,10.0,,,,,,,,,,,,,,,,,,KLGA 090720Z AUTO 06006KT 10SM 02/M01 A3029 RMK T00201010 MADISHF,
LGA,2026-01-09 02:25,-73.8803,40.7794,9.0,,,,60.0,6.0,,30.29,,10.0,,,,,,,,,,,,,,,,,,KLGA 090725Z AUTO 06006KT 10SM 02/M01 A3029 RMK T00201010 MADISHF,
LGA,2026-01-09 02:30,-73.8803,40.7794,9.0,,,,70.0,6.0,,30.29,,10.0,,,,,,,,,,,,,,,,,,KLGA 090730Z AUTO 07006KT 10SM 02/M01 A3029 RMK T00201010 MADISHF,
LGA,2026-01-09 02:35,-73.8803,40.7794,9.0,,,,80.0,4.0,,30.29,,10.0,,,,,,,,,,,,,,,,,,KLGA 090735Z AUTO 08004KT 10SM 02/M01 A3029 RMK T00201010 MADISHF,
LGA,2026-01-09 02:40,-73.8803,40.7794,9.0,,,,80.0,4.0,,30.29,,10.0,,,,,,,,,,,,,,,,,,KLGA 090740Z AUTO 08004KT 10SM 02/M01 A3029 RMK T00201010 MADISHF,
LGA,2026-01-09 02:45,-73.8803,40.7794,9.0,,,,0.0,0.0,,30.29,,10.0,,,,,,,,,,,,,,,,,,KLGA 090745Z AUTO 00000KT 10SM 02/M01 A3029 RMK T00201010 MADISHF,
LGA,2026-01-09 02:50,-73.8803,40.7794,9.0,,,,0.0,0.0,,30.29,,10.0,,,,,,,,,,,,,,,,,,KLGA 090750Z AUTO 00000KT 10SM 02/M01 A3029 RMK T00201010 MADISHF,
LGA,2026-01-09 02:51,-73.8803,40.7794,9.0,36.0,30.0,78.58,0.0,0.0,0.00,30.29,1025.6,10.0,,BKN,,,,17000.0,,,,,,,,,,,36.0,KLGA 090751Z COR 00000KT 10SM BKN170 02/M01 A3029 RMK AO2 SLP256 T00221011,
LGA,2026-01-09 02:55,-73.8803,40.7794,9.0,,,,50.0,3.0,,30.29,,10.0,,,,,,,,,,,,,,,,,,KLGA 090755Z AUTO 05003KT 10SM 02/M01 A3029 RMK T00201010 MADISHF,
LGA,2026-01-09 03:00,-73.8803,40.7794,9.0,,,,40.0,3.0,,30.29,,10.0,,,,,,,,,,,,,,,,,,KLGA 090800Z AUTO 04003KT 10SM 02/M01 A3029 RMK T00201010 MADISHF,
LGA,2026-01-09 03:05,-73.8803,40.7794,9.0,,,,0.0,0.0,,30.3,,10.0,,,,,,,,,,,,,,,,,,KLGA 090805Z AUTO 00000KT 10SM 02/M01 A3030 RMK T00201010 MADISHF,
LGA,2026-01-09 03:10,-73.8803,40.7794,9.0,,,,0.0,0.0,,30.31,,10.0,,,,,,,,,,,,,,,,,,KLGA 090810Z AUTO 00000KT 10SM 02/M01 A3031 RMK T00201010 MADISHF,
LGA,2026-01-09 03:15,-73.8803,40.7794,9.0,,,,0.0,0.0,,30.31,,10.0,,,,,,,,,,,,,,,,,,KLGA 090815Z AUTO 00000KT 10SM 02/M01 A3031 RMK T00201010 MADISHF,
LGA,2026-01-09 03:20,-73.8803,40.7794,9.0,,,,0.0,0.0,,30.3,,10.0,,,,,,,,,,,,,,,,,,KLGA 090820Z AUTO 00000KT 10SM 02/M01 A3030 RMK T00201010 MADISHF,
LGA,2026-01-09 03:25,-73.8803,40.7794,9.0,,,,0.0,0.0,,30.3,,10.0,,,,,,,,,,,,,,,,,,KLGA 090825Z AUTO 00000KT 10SM 02/M01 A3030 RMK T00201010 MADISHF,
LGA,2026-01-09 03:30,-73.8803,40.7794,9.0,,,,0.0,0.0,,30.3,,10.0,,,,,,,,,,,,,,,,,,KLGA 090830Z AUTO 00000KT 10SM 02/M01 A3030 RMK T00201010 MADISHF,
LGA,2026-01-09 03:35,-73.8803,40.7794,9.0,,,,0.0,0.0,,30.3,,10.0,,,,,,,,,,,,,,,,,,KLGA 090835Z AUTO 00000KT 10SM 02/M01 A3030 RMK T00201010 MADISHF,
LGA,2026-01-09 03:40,-73.8803,40.7794,9.0,,,,0.0,0.0,,30.3,,10.0,,,,,,,,,,,,,,,,,,KLGA 090840Z AUTO 00000KT 10SM 02/M01 A3030 RMK T00201010 MADISHF,
LGA,2026-01-09 03:45,-73.8803,40.7794,9.0,,,,70.0,3.0,,30.31,,10.0,,,,,,,,,,,,,,,,,,KLGA 090845Z AUTO 07003KT 10SM 02/M01 A3031 RMK T00201010 MADISHF,
LGA,2026-01-09 03:50,-73.8803,40.7794,9.0,,,,80.0,5.0,,30.31,,10.0,,,,,,,,,,,,,,,,,,KLGA 090850Z AUTO 08005KT 10SM 02/M01 A3031 RMK T00201010 MADISHF,
LGA,2026-01-09 03:51,-73.8803,40.7794,9.0,35.0,31.0,85.16,80.0,5.0,0.00,30.31,1026.2,10.0,,BKN,,,,17000.0,,,,,,,,,,,29.96,KLGA 090851Z 08005KT 10SM BKN170 02/M01 A3031 RMK AO2 SLP262 T00171006 53005,
LGA,2026-01-09 03:55,-73.8803,40.7794,9.0,,,,70.0,5.0,,30.3,,10.0,,,,,,,,,,,,,,,,,,KLGA 090855Z AUTO 07005KT 10SM 02/M01 A3030 RMK T00201010 MADISHF,
LGA,2026-01-09 04:00,-73.8803,40.7794,9.0,,,,80.0,6.0,,30.3,,10.0,,,,,,,,,,,,,,,,,,KLGA 090900Z AUTO 08006KT 10SM 02/M01 A3030 RMK T00201010 MADISHF,
LGA,2026-01-09 04:05,-73.8803,40.7794,9.0,,,,80.0,6.0,,30.3,,10.0,,,,,,,,,,,,,,,,,,KLGA 090905Z AUTO 08006KT 10SM 02/M01 A3030 RMK T00201010 MADISHF,
LGA,2026-01-09 04:10,-73.8803,40.7794,9.0,,,,80.0,3.0,,30.31,,10.0,,,,,,,,,,,,,,,,,,KLGA 090910Z AUTO 08003KT 10SM 02/M01 A3031 RMK T00201010 MADISHF,
LGA,2026-01-09 04:15,-73.8803,40.7794,9.0,,,,90.0,3.0,,30.31,,10.0,,,,,,,,,,,,,,,,,,KLGA 090915Z AUTO 09003KT 10SM 02/M01 A3031 RMK T00201010 MADISHF,
LGA,2026-01-09 04:20,-73.8803,40.7794,9.0,,,,90.0,4.0,,30.31,,10.0,,,,,,,,,,,,,,,,,,KLGA 090920Z AUTO 09004KT 10SM 02/M01 A3031 RMK T00201010 MADISHF,
LGA,2026-01-09 04:25,-73.8803,40.7794,9.0,,,,90.0,5.0,,30.31,,10.0,,,,,,,,,,,,,,,,,,KLGA 090925Z AUTO 09005KT 10SM 02/M01 A3031 RMK T00201010 MADISHF,
LGA,2026-01-09 04:30,-73.8803,40.7794,9.0,,,,70.0,4.0,,30.31,,10.0,,,,,,,,,,,,,,,,,,KLGA 090930Z AUTO 07004KT 10SM 02/M01 A3031 RMK T00201010 MADISHF,
LGA,2026-01-09 04:35,-73.8803,40.7794,9.0,,,,70.0,3.0,,30.31,,10.0,,,,,,,,,,,,,,,,,,KLGA 090935Z AUTO 07003KT 10SM 02/M01 A3031 RMK T00201010 MADISHF,
LGA,2026-01-09 04:40,-73.8803,40.7794,9.0,,,,80.0,4.0,,30.31,,10.0,,,,,,,,,,,,,,,,,,KLGA 090940Z AUTO 08004KT 10SM 02/M01 A3031 RMK T00201010 MADISHF,
LGA,2026-01-09 04:45,-73.8803,40.7794,9.0,,,,80.0,4.0,,30.31,,10.0,,,,,,,,,,,,,,,,,,KLGA 090945Z AUTO 08004KT 10SM 02/M01 A3031 RMK T00201010 MADISHF,
LGA,2026-01-09 04:50,-73.8803,40.7794,9.0,,,,70.0,3.0,,30.31,,10.0,,,,,,,,,,,,,,,,,,KLGA 090950Z AUTO 07003KT 10SM 02/M01 A3031 RMK T00201010 MADISHF,
LGA,2026-01-09 04:51,-73.8803,40.7794,9.0,35.0,30.0,81.77,80.0,3.0,0.00,30.31,1026.3,10.0,,SCT,SCT,,,17000.0,25000.0,,,,,,,,,,32.12,KLGA 090951Z 08003KT 10SM SCT170 SCT250 02/M01 A3031 RMK AO2 SLP263 T00171011,
LGA,2026-01-09 04:55,-73.8803,40.7794,9.0,,,,80.0,3.0,,30.31,,10.0,,,,,,,,,,,,,,,,,,KLGA 090955Z AUTO 08003KT 10SM 02/M01 A3031 RMK T00201010 MADISHF,
LGA,2026-01-09 05:00,-73.8803,40.7794,9.0,,,,90.0,3.0,,30.31,,10.0,,,,,,,,,,,,,,,,,,KLGA 091000Z AUTO 09003KT 10SM 02/M01 A3031 RMK T00201010 MADISHF,
LGA,2026-01-09 05:05,-73.8803,40.7794,9.0,,,,50.0,3.0,,30.31,,10.0,,,,,,,,,,,,,,,,,,KLGA 091005Z AUTO 05003KT 10SM 02/M01 A3031 RMK T00201010 MADISHF,
LGA,2026-01-09 05:10,-73.8803,40.7794,9.0,,,,60.0,3.0,,30.31,,10.0,,,,,,,,,,,,,,,,,,KLGA 091010Z AUTO 06003KT 10SM 02/M01 A3031 RMK T00201010 MADISHF,
LGA,2026-01-09 05:15,-73.8803,40.7794,9.0,,,,70.0,4.0,,30.31,,10.0,,,,,,,,,,,,,,,,,,KLGA 091015Z AUTO 07004KT 10SM 02/M01 A3031 RMK T00201010 MADISHF,
LGA,2026-01-09 05:20,-73.8803,40.7794,9.0,,,,60.0,5.0,,30.31,,10.0,,,,,,,,,,,,,,,,,,KLGA 091020Z AUTO 06005KT 10SM 02/M01 A3031 RMK T00201010 MADISHF,
LGA,2026-01-09 05:25,-73.8803,40.7794,9.0,,,,70.0,5.0,,30.31,,10.0,,,,,,,,,,,,,,,,,,KLGA 091025Z AUTO 07005KT 10SM 02/M01 A3031 RMK T00201010 MADISHF,
LGA,2026-01-09 05:30,-73.8803,40.7794,9.0,,,,90.0,5.0,,30.3,,10.0,,,,,,,,,,,,,,,,,,KLGA 091030Z AUTO 09005KT 10SM 02/M01 A3030 RMK T00201010 MADISHF,
LGA,2026-01-09 05:35,-73.8803,40.7794,9.0,,,,90.0,4.0,,30.3,,10.0,,,,,,,,,,,,,,,,,,KLGA 091035Z AUTO 09004KT 10SM 02/M01 A3030 RMK T00201010 MADISHF,
LGA,2026-01-09 05:40,-73.8803,40.7794,9.0,,,,80.0,4.0,,30.31,,10.0,,,,,,,,,,,,,,,,,,KLGA 091040Z AUTO 08004KT 10SM 02/M01 A3031 RMK T00201010 MADISHF,
LGA,2026-01-09 05:45,-73.8803,40.7794,9.0,,,,80.0,5.0,,30.31,,10.0,,SCT,,,,11000.0,,,,,,,,,,,,KLGA 091045Z AUTO 08005KT 10SM SCT110 02/M01 A3031 RMK T00201010 MADISHF,
LGA,2026-01-09 05:50,-73.8803,40.7794,9.0,,,,90.0,5.0,,30.31,,10.0,,SCT,,,,11000.0,,,,,,,,,,,,KLGA 091050Z AUTO 09005KT 10SM SCT110 02/M01 A3031 RMK T00201010 MADISHF,
LGA,2026-01-09 05:51,-73.8803,40.7794,9.0,36.0,31.0,81.84,90.0,5.0,0.00,30.3,1026.1,10.0,,SCT,BKN,,,11000.0,14000.0,,,,,,,,,,31.15,KLGA 091051Z 09005KT 10SM SCT110 BKN140 02/M01 A3030 RMK AO2 SLP261 T00221006,
LGA,2026-01-09 05:55,-73.8803,40.7794,9.0,,,,80.0,6.0,,30.3,,10.0,,SCT,,,,11000.0,,,,,,,,,,,,KLGA 091055Z AUTO 08006KT 10SM SCT110 02/M01 A3030 RMK T00201010 MADISHF,
LGA,2026-01-09 06:00,-73.8803,40.7794,9.0,,,,90.0,6.0,,30.3,,10.0,,FEW,,,,11000.0,,,,,,,,,,,,KLGA 091100Z AUTO 09006KT 10SM FEW110 02/M00 A3030 RMK T00201000 MADISHF,
LGA,2026-01-09 06:05,-73.8803,40.7794,9.0,,,,100.0,5.0,,30.3,,10.0,,SCT,,,,11000.0,,,,,,,,,,,,KLGA 091105Z AUTO 10005KT 10SM SCT110 03/M00 A3030 RMK T00301000 MADISHF,
LGA,2026-01-09 06:10,-73.8803,40.7794,9.0,,,,160.0,4.0,,30.3,,10.0,,SCT,,,,11000.0,,,,,,,,,,,,KLGA 091110Z AUTO 16004KT 10SM SCT110 04/01 A3030 RMK T00400010 MADISHF,
LGA,2026-01-09 06:15,-73.8803,40.7794,9.0,,,,150.0,4.0,,30.29,,10.0,,SCT,,,,11000.0,,,,,,,,,,,,KLGA 091115Z AUTO 15004KT 10SM SCT110 04/01 A3029 RMK T00400010 MADISHF,
LGA,2026-01-09 06:20,-73.8803,40.7794,9.0,,,,150.0,3.0,,30.3,,10.0,,SCT,,,,11000.0,,,,,,,,,,,,KLGA 091120Z AUTO 15003KT 10SM SCT110 04/01 A3030 RMK T00400010 MADISHF,
LGA,2026-01-09 06:25,-73.8803,40.7794,9.0,,,,0.0,0.0,,30.3,,10.0,,SCT,,,,11000.0,,,,,,,,,,,,KLGA 091125Z AUTO 00000KT 10SM SCT110 04/01 A3030 RMK T00400010 MADISHF,
LGA,2026-01-09 06:30,-73.8803,40.7794,9.0,,,,200.0,3.0,,30.31,,10.0,,SCT,,,,11000.0,,,,,,,,,,,,KLGA 091130Z AUTO 20003KT 10SM SCT110 04/01 A3031 RMK T00400010 MADISHF,
LGA,2026-01-09 06:35,-73.8803,40.7794,9.0,,,,180.0,3.0,,30.31,,10.0,,SCT,,,,11000.0,,,,,,,,,,,,KLGA 091135Z AUTO 18003KT 10SM SCT110 04/01 A3031 RMK T00400010 MADISHF,
LGA,2026-01-09 06:36,-73.8803,40.7794,9.0,40.0,35.0,82.14,180.0,3.0,0.00,30.31,,10.0,,FEW,SCT,BKN,,11000.0,15000.0,25000.0,,,,,,,,,37.83,KLGA 091136Z 18003KT 10SM FEW110 SCT150 BKN250 04/02 A3031 RMK AO2 T00440017,
LGA,2026-01-09 06:40,-73.8803,40.7794,9.0,,,,170.0,4.0,,30.3,,10.0,,FEW,,,,11000.0,,,,,,,,,,,,KLGA 091140Z AUTO 17004KT 10SM FEW110 04/01 A3030 RMK T00400010 MADISHF,
LGA,2026-01-09 06:45,-73.8803,40.7794,9.0,,,,150.0,6.0,,30.3,,10.0,,FEW,,,,11000.0,,,,,,,,,,,,KLGA 091145Z AUTO 15006KT 10SM FEW110 04/02 A3030 RMK T00400020 MADISHF,
LGA,2026-01-09 06:50,-73.8803,40.7794,9.0,,,,140.0,5.0,,30.29,,10.0,,FEW,,,,11000.0,,,,,,,,,,,,KLGA 091150Z AUTO 14005KT 10SM FEW110 04/02 A3029 RMK T00400020 MADISHF,
LGA,2026-01-09 06:51,-73.8803,40.7794,9.0,40.0,35.0,82.14,140.0,5.0,0.00,30.29,1025.6,10.0,,FEW,SCT,BKN,,11000.0,15000.0,25000.0,,,,,,,,,35.9,KLGA 091151Z 14005KT 10SM FEW110 SCT150 BKN250 04/02 A3029 RMK AO2 SLP256 T00440017 10044 20017 58006,
LGA,2026-01-09 06:55,-73.8803,40.7794,9.0,,,,130.0,5.0,,30.29,,10.0,,,,,,,,,,,,,,,,,,KLGA 091155Z AUTO 13005KT 10SM 04/02 A3029 RMK T00400020 MADISHF,
LGA,2026-01-09 07:00,-73.8803,40.7794,9.0,,,,140.0,5.0,,30.29,,10.0,,,,,,,,,,,,,,,,,,KLGA 091200Z AUTO 14005KT 10SM 04/02 A3029 RMK T00400020 MADISHF,
LGA,2026-01-09 07:05,-73.8803,40.7794,9.0,,,,150.0,5.0,,30.29,,10.0,,,,,,,,,,,,,,,,,,KLGA 091205Z AUTO 15005KT 10SM 04/02 A3029 RMK T00400020 MADISHF,
LGA,2026-01-09 07:10,-73.8803,40.7794,9.0,,,,150.0,5.0,,30.29,,10.0,,,,,,,,,,,,,,,,,,KLGA 091210Z AUTO 15005KT 10SM 04/02 A3029 RMK T00400020 MADISHF,
LGA,2026-01-09 07:15,-73.8803,40.7794,9.0,,,,160.0,5.0,,30.29,,10.0,,,,,,,,,,,,,,,,,,KLGA 091215Z AUTO 16005KT 10SM 04/02 A3029 RMK T00400020 MADISHF,
LGA,2026-01-09 07:20,-73.8803,40.7794,9.0,,,,180.0,4.0,,30.29,,10.0,,,,,,,,,,,,,,,,,,KLGA 091220Z AUTO 18004KT 10SM 04/02 A3029 RMK T00400020 MADISHF,
LGA,2026-01-09 07:25,-73.8803,40.7794,9.0,,,,170.0,3.0,,30.29,,10.0,,,,,,,,,,,,,,,,,,KLGA 091225Z AUTO 17003KT 10SM 04/02 A3029 RMK T00400020 MADISHF,
LGA,2026-01-09 07:30,-73.8803,40.7794,9.0,,,,170.0,4.0,,30.29,,10.0,,,,,,,,,,,,,,,,,,KLGA 091230Z AUTO 17004KT 10SM 04/02 A3029 RMK T00400020 MADISHF,
LGA,2026-01-09 07:35,-73.8803,40.7794,9.0,,,,170.0,4.0,,30.3,,10.0,,,,,,,,,,,,,,,,,,KLGA 091235Z AUTO 17004KT 10SM 04/02 A3030 RMK T00400020 MADISHF,
LGA,2026-01-09 07:40,-73.8803,40.7794,9.0,,,,180.0,4.0,,30.29,,10.0,,,,,,,,,,,,,,,,,,KLGA 091240Z AUTO 18004KT 10SM 05/02 A3029 RMK T00500020 MADISHF,
LGA,2026-01-09 07:45,-73.8803,40.7794,9.0,,,,180.0,4.0,,30.29,,10.0,,,,,,,,,,,,,,,,,,KLGA 091245Z AUTO 18004KT 10SM 04/02 A3029 RMK T00400020 MADISHF,
LGA,2026-01-09 07:50,-73.8803,40.7794,9.0,,,,170.0,3.0,,30.29,,10.0,,,,,,,,,,,,,,,,,,KLGA 091250Z AUTO 17003KT 10SM 04/02 A3029 RMK T00400020 VRB03KT MADISHF,
LGA,2026-01-09 07:51,-73.8803,40.7794,9.0,40.0,35.0,82.14,,5.0,0.00,30.29,1025.7,10.0,,FEW,SCT,BKN,,13000.0,18000.0,25000.0,,,,,,,,,35.9,KLGA 091251Z VRB05KT 10SM FEW130 SCT180 BKN250 04/02 A3029 RMK AO2 SLP257 T00440017 $,
LGA,2026-01-09 07:55,-73.8803,40.7794,9.0,,,,180.0,4.0,,30.29,,10.0,,CLR,,,,,,,,,,,,,,,,KLGA 091255Z AUTO 18004KT 10SM CLR 05/02 A3029 RMK T00500020 MADISHF,
LGA,2026-01-09 08:00,-73.8803,40.7794,9.0,,,,170.0,5.0,,30.29,,10.0,,CLR,,,,,,,,,,,,,,,,KLGA 091300Z AUTO 17005KT 10SM CLR 04/02 A3029 RMK T00400020 MADISHF,
LGA,2026-01-09 08:05,-73.8803,40.7794,9.0,,,,160.0,5.0,,30.29,,10.0,,CLR,,,,,,,,,,,,,,,,KLGA 091305Z AUTO 16005KT 10SM CLR 04/02 A3029 RMK T00400020 MADISHF,
LGA,2026-01-09 08:10,-73.8803,40.7794,9.0,,,,160.0,4.0,,30.29,,10.0,,CLR,,,,,,,,,,,,,,,,KLGA 091310Z AUTO 16004KT 10SM CLR 05/03 A3029 RMK T00500030 MADISHF,
LGA,2026-01-09 08:15,-73.8803,40.7794,9.0,,,,170.0,4.0,,30.29,,10.0,,CLR,,,,,,,,,,,,,,,,KLGA 091315Z AUTO 17004KT 10SM CLR 05/03 A3029 RMK T00500030 MADISHF,
LGA,2026-01-09 08:20,-73.8803,40.7794,9.0,,,,170.0,5.0,,30.29,,10.0,,CLR,,,,,,,,,,,,,,,,KLGA 091320Z AUTO 17005KT 10SM CLR 06/03 A3029 RMK T00600030 MADISHF,
LGA,2026-01-09 08:25,-73.8803,40.7794,9.0,,,,170.0,5.0,,30.29,,10.0,,CLR,,,,,,,,,,,,,,,,KLGA 091325Z AUTO 17005KT 10SM CLR 06/03 A3029 RMK T00600030 MADISHF,
LGA,2026-01-09 08:30,-73.8803,40.7794,9.0,,,,180.0,6.0,,30.29,,10.0,,,,,,,,,,,,,,,,,,KLGA 091330Z AUTO 18006KT 10SM 06/03 A3029 RMK T00600030 MADISHF,
LGA,2026-01-09 08:35,-73.8803,40.7794,9.0,,,,180.0,7.0,,30.29,,10.0,,,,,,,,,,,,,,,,,,KLGA 091335Z AUTO 18007KT 10SM 06/03 A3029 RMK T00600030 MADISHF,
LGA,2026-01-09 08:40,-73.8803,40.7794,9.0,,,,180.0,8.0,,30.29,,10.0,,,,,,,,,,,,,,,,,,KLGA 091340Z AUTO 18008KT 10SM 06/04 A3029 RMK T00600040 MADISHF,
LGA,2026-01-09 08:45,-73.8803,40.7794,9.0,,,,190.0,7.0,,30.29,,10.0,,,,,,,,,,,,,,,,,,KLGA 091345Z AUTO 19007KT 10SM 06/03 A3029 RMK T00600030 MADISHF,
LGA,2026-01-09 08:50,-73.8803,40.7794,9.0,,,,190.0,7.0,,30.28,,10.0,,,,,,,,,,,,,,,,,,KLGA 091350Z AUTO 19007KT 10SM 06/04 A3028 RMK T00600040 MADISHF,
LGA,2026-01-09 08:51,-73.8803,40.7794,9.0,43.0,39.0,85.65,180.0,7.0,0.00,30.28,1025.4,10.0,,FEW,SCT,BKN,,13000.0,18000.0,25000.0,,,,,,,,,38.19,KLGA 091351Z 18007KT 10SM FEW130 SCT180 BKN250 06/04 A3028 RMK AO2 SLP254 T00610039 $,
LGA,2026-01-09 08:55,-73.8803,40.7794,9.0,,,,180.0,6.0,,30.28,,10.0,,CLR,,,,,,,,,,,,,,,,KLGA 091355Z AUTO 18006KT 10SM CLR 07/04 A3028 RMK T00700040 MADISHF,
LGA,2026-01-09 09:00,-73.8803,40.7794,9.0,,,,180.0,8.0,,30.28,,10.0,,CLR,,,,,,,,,,,,,,,,KLGA 091400Z AUTO 18008KT 10SM CLR 07/04 A3028 RMK T00700040 MADISHF,
LGA,2026-01-09 09:05,-73.8803,40.7794,9.0,,,,180.0,9.0,,30.28,,10.0,,CLR,,,,,,,,,,,,,,,,KLGA 091405Z AUTO 18009KT 10SM CLR 07/04 A3028 RMK T00700040 MADISHF,
LGA,2026-01-09 09:10,-73.8803,40.7794,9.0,,,,190.0,7.0,,30.28,,10.0,,CLR,,,,,,,,,,,,,,,,KLGA 091410Z AUTO 19007KT 10SM CLR 07/04 A3028 RMK T00700040 MADISHF,
LGA,2026-01-09 09:15,-73.8803,40.7794,9.0,,,,180.0,7.0,,30.28,,10.0,,CLR,,,,,,,,,,,,,,,,KLGA 091415Z AUTO 18007KT 10SM CLR 07/03 A3028 RMK T00700030 MADISHF,
LGA,2026-01-09 09:20,-73.8803,40.7794,9.0,,,,190.0,6.0,,30.28,,10.0,,CLR,,,,,,,,,,,,,,,,KLGA 091420Z AUTO 19006KT 10SM CLR 07/04 A3028 RMK T00700040 VRB06KT MADISHF,
LGA,2026-01-09 09:25,-73.8803,40.7794,9.0,,,,180.0,6.0,,30.27,,10.0,,CLR,,,,,,,,,,,,,,,,KLGA 091425Z AUTO 18006KT 10SM CLR 07/04 A3027 RMK T00700040 MADISHF,
LGA,2026-01-09 09:30,-73.8803,40.7794,9.0,,,,170.0,8.0,,30.28,,10.0,,CLR,,,,,,,,,,,,,,,,KLGA 091430Z AUTO 17008KT 10SM CLR 07/04 A3028 RMK T00700040 MADISHF,
LGA,2026-01-09 09:35,-73.8803,40.7794,9.0,,,,180.0,10.0,,30.28,,10.0,,CLR,,,,,,,,,,,,,,,,KLGA 091435Z AUTO 18010KT 10SM CLR 07/04 A3028 RMK T00700040 MADISHF,
LGA,2026-01-09 09:40,-73.8803,40.7794,9.0,,,,170.0,9.0,,30.27,,10.0,,CLR,,,,,,,,,,,,,,,,KLGA 091440Z AUTO 17009KT 10SM CLR 08/04 A3027 RMK T00800040 MADISHF,
LGA,2026-01-09 09:45,-73.8803,40.7794,9.0,,,,170.0,11.0,,30.26,,10.0,16.0,CLR,,,,,,,,,,,,,,,,KLGA 091445Z AUTO 17011G16KT 10SM CLR 08/04 A3026 RMK T00800040 MADISHF,
LGA,2026-01-09 09:50,-73.8803,40.7794,9.0,,,,170.0,12.0,,30.27,,10.0,,CLR,,,,,,,,,,,,,,,,KLGA 091450Z AUTO 17012KT 10SM CLR 08/04 A3027 RMK T00800040 MADISHF,
LGA,2026-01-09 09:51,-73.8803,40.7794,9.0,46.0,39.0,76.39,170.0,11.0,0.00,30.26,1024.8,10.0,20.0,FEW,SCT,SCT,BKN,2500.0,6000.0,15000.0,25000.0,,,,,,,,40.16,KLGA 091451Z COR 17011G20KT 10SM FEW025 SCT060 SCT150 BKN250 08/04 A3026 RMK AO2 SLP248 T00780039 58008,
LGA,2026-01-09 09:55,-73.8803,40.7794,9.0,,,,180.0,12.0,,30.26,,10.0,17.0,FEW,SCT,,,2500.0,6000.0,,,,,,,,,,,KLGA 091455Z AUTO 18012G17KT 10SM FEW025 SCT060 08/04 A3026 RMK T00800040 MADISHF,
LGA,2026-01-09 10:00,-73.8803,40.7794,9.0,,,,180.0,14.0,,30.26,,10.0,19.0,FEW,SCT,,,2500.0,6000.0,,,,,,,,,,,KLGA 091500Z AUTO 18014G19KT 10SM FEW025 SCT060 08/04 A3026 RMK T00800040 MADISHF,
LGA,2026-01-09 10:05,-73.8803,40.7794,9.0,,,,180.0,13.0,,30.26,,10.0,,FEW,SCT,,,2500.0,6000.0,,,,,,,,,,,KLGA 091505Z AUTO 18013KT 10SM FEW025 SCT060 08/04 A3026 RMK T00800040 MADISHF,
LGA,2026-01-09 10:10,-73.8803,40.7794,9.0,,,,190.0,14.0,,30.26,,10.0,19.0,FEW,SCT,,,2500.0,6000.0,,,,,,,,,,,KLGA 091510Z AUTO 19014G19KT 10SM FEW025 SCT060 08/04 A3026 RMK T00800040 MADISHF,
LGA,2026-01-09 10:15,-73.8803,40.7794,9.0,,,,180.0,15.0,,30.26,,10.0,,FEW,SCT,,,2500.0,6000.0,,,,,,,,,,,KLGA 091515Z AUTO 18015KT 10SM FEW025 SCT060 08/04 A3026 RMK T00800040 MADISHF,
LGA,2026-01-09 10:20,-73.8803,40.7794,9.0,,,,190.0,14.0,,30.26,,10.0,,FEW,SCT,,,2500.0,6000.0,,,,,,,,,,,KLGA 091520Z AUTO 19014KT 10SM FEW025 SCT060 08/04 A3026 RMK T00800040 MADISHF,
LGA,2026-01-09 10:25,-73.8803,40.7794,9.0,,,,190.0,12.0,,30.26,,10.0,,FEW,SCT,,,2500.0,6000.0,,,,,,,,,,,KLGA 091525Z AUTO 19012KT 10SM FEW025 SCT060 08/04 A3026 RMK T00800040 MADISHF,
LGA,2026-01-09 10:30,-73.8803,40.7794,9.0,,,,190.0,13.0,,30.27,,10.0,,FEW,SCT,,,2500.0,6000.0,,,,,,,,,,,KLGA 091530Z AUTO 19013KT 10SM FEW025 SCT060 08/03 A3027 RMK T00800030 MADISHF,
LGA,2026-01-09 10:35,-73.8803,40.7794,9.0,,,,190.0,11.0,,30.27,,10.0,,FEW,SCT,,,2500.0,6000.0,,,,,,,,,,,KLGA 091535Z AUTO 19011KT 10SM FEW025 SCT060 08/03 A3027 RMK T00800030 MADISHF,
LGA,2026-01-09 10:40,-73.8803,40.7794,9.0,,,,180.0,14.0,,30.26,,10.0,19.0,FEW,SCT,,,2500.0,6000.0,,,,,,,,,,,KLGA 091540Z AUTO 18014G19KT 10SM FEW025 SCT060 08/03 A3026 RMK T00800030 MADISHF,
LGA,2026-01-09 10:45,-73.8803,40.7794,9.0,,,,170.0,13.0,,30.25,,10.0,,FEW,SCT,,,2500.0,6000.0,,,,,,,,,,,KLGA 091545Z AUTO 17013KT 10SM FEW025 SCT060 09/04 A3025 RMK T00900040 MADISHF,
LGA,2026-01-09 10:50,-73.8803,40.7794,9.0,,,,170.0,13.0,,30.25,,10.0,,FEW,SCT,,,2500.0,6000.0,,,,,,,,,,,KLGA 091550Z AUTO 17013KT 10SM FEW025 SCT060 09/04 A3025 RMK T00900040 MADISHF,
LGA,2026-01-09 10:51,-73.8803,40.7794,9.0,48.0,39.0,70.85,180.0,12.0,0.00,30.25,1024.2,10.0,21.0,BKN,BKN,BKN,BKN,1700.0,18000.0,25000.0,25000.0,,,,,,,,42.37,KLGA 091551Z COR 18012G21KT 10SM BKN017 BKN180 BKN250 09/04 A3025 RMK AO2 PRESFR SLP242 T00890039,
LGA,2026-01-09 10:55,-73.8803,40.7794,9.0,,,,190.0,13.0,,30.24,,10.0,,SCT,,,,1700.0,,,,,,,,,,,,KLGA 091555Z AUTO 19013KT 10SM SCT017 08/03 A3024 RMK T00800030 MADISHF,
LGA,2026-01-09 11:00,-73.8803,40.7794,9.0,,,,180.0,14.0,,30.24,,10.0,,SCT,,,,1700.0,,,,,,,,,,,,KLGA 091600Z AUTO 18014KT 10SM SCT017 08/03 A3024 RMK T00800030 MADISHF,
LGA,2026-01-09 11:05,-73.8803,40.7794,9.0,,,,180.0,16.0,,30.24,,10.0,21.0,SCT,,,,1700.0,,,,,,,,,,,,KLGA 091605Z AUTO 18016G21KT 10SM SCT017 09/04 A3024 RMK T00900040 MADISHF,
LGA,2026-01-09 11:10,-73.8803,40.7794,9.0,,,,180.0,14.0,,30.24,,10.0,19.0,SCT,,,,1700.0,,,,,,,,,,,,KLGA 091610Z AUTO 18014G19KT 10SM SCT017 08/03 A3024 RMK T00800030 MADISHF,
LGA,2026-01-09 11:15,-73.8803,40.7794,9.0,,,,180.0,12.0,,30.23,,10.0,18.0,SCT,,,,1700.0,,,,,,,,,,,,KLGA 091615Z AUTO 18012G18KT 10SM SCT017 09/03 A3023 RMK T00900030 MADISHF,
LGA,2026-01-09 11:20,-73.8803,40.7794,9.0,,,,180.0,15.0,,30.23,,10.0,,SCT,,,,1700.0,,,,,,,,,,,,KLGA 091620Z AUTO 18015KT 10SM SCT017 09/03 A3023 RMK T00900030 MADISHF,
LGA,2026-01-09 11:25,-73.8803,40.7794,9.0,,,,170.0,13.0,,30.23,,10.0,,SCT,,,,1700.0,,,,,,,,,,,,KLGA 091625Z AUTO 17013KT 10SM SCT017 09/03 A3023 RMK T00900030 MADISHF,
LGA,2026-01-09 11:30,-73.8803,40.7794,9.0,,,,180.0,14.0,,30.22,,10.0,,SCT,,,,1700.0,,,,,,,,,,,,KLGA 091630Z AUTO 18014KT 10SM SCT017 09/03 A3022 RMK T00900030 MADISHF,
LGA,2026-01-09 11:35,-73.8803,40.7794,9.0,,,,160.0,15.0,,30.22,,10.0,,SCT,,,,1700.0,,,,,,,,,,,,KLGA 091635Z AUTO 16015KT 10SM SCT017 09/04 A3022 RMK T00900040 MADISHF,
LGA,2026-01-09 11:40,-73.8803,40.7794,9.0,,,,170.0,16.0,,30.21,,10.0,,SCT,,,,1700.0,,,,,,,,,,,,KLGA 091640Z AUTO 17016KT 10SM SCT017 09/03 A3021 RMK T00900030 MADISHF,
LGA,2026-01-09 11:45,-73.8803,40.7794,9.0,,,,170.0,18.0,,30.21,,10.0,,SCT,,,,1700.0,,,,,,,,,,,,KLGA 091645Z AUTO 17018KT 10SM SCT017 09/03 A3021 RMK T00900030 MADISHF,
LGA,2026-01-09 11:50,-73.8803,40.7794,9.0,,,,180.0,15.0,,30.21,,10.0,24.0,SCT,,,,1700.0,,,,,,,,,,,,KLGA 091650Z AUTO 18015G24KT 10SM SCT017 09/03 A3021 RMK T00900030 MADISHF,
LGA,2026-01-09 11:51,-73.8803,40.7794,9.0,48.0,39.0,70.85,180.0,15.0,0.00,30.21,1022.9,10.0,25.0,BKN,BKN,BKN,,1700.0,18000.0,25000.0,,,,,,27.0,190.0,2026-01-09 10:58,41.52,KLGA 091651Z 18015G25KT 10SM BKN017 BKN180 BKN250 09/04 A3021 RMK AO2 PK WND 19027/1558 SLP229 T00890039,
LGA,2026-01-09 11:55,-73.8803,40.7794,9.0,,,,170.0,11.0,,30.2,,10.0,,SCT,,,,1500.0,,,,,,,,,,,,KLGA 091655Z AUTO 17011KT 10SM SCT015 09/04 A3020 RMK T00900040 MADISHF,
LGA,2026-01-09 12:00,-73.8803,40.7794,9.0,,,,170.0,17.0,,30.2,,10.0,,BKN,,,,1500.0,,,,,,,,,,,,KLGA 091700Z AUTO 17017KT 10SM BKN015 09/04 A3020 RMK T00900040 MADISHF,
LGA,2026-01-09 12:05,-73.8803,40.7794,9.0,,,,180.0,13.0,,30.19,,10.0,19.0,BKN,,,,1500.0,,,,,,,,,,,,KLGA 091705Z AUTO 18013G19KT 10SM BKN015 09/04 A3019 RMK T00900040 MADISHF,
LGA,2026-01-09 12:10,-73.8803,40.7794,9.0,,,,180.0,13.0,,30.19,,10.0,19.0,BKN,,,,1500.0,,,,,,,,,,,,KLGA 091710Z AUTO 18013G19KT 10SM BKN015 09/04 A3019 RMK T00900040 MADISHF,
LGA,2026-01-09 12:20,-73.8803,40.7794,9.0,,,,170.0,18.0,,30.18,,10.0,25.0,BKN,,,,1500.0,,,,,,,,,,,,KLGA 091720Z AUTO 17018G25KT 10SM BKN015 09/04 A3018 RMK T00900040 MADISHF,
LGA,2026-01-09 12:25,-73.8803,40.7794,9.0,,,,170.0,17.0,,30.18,,10.0,23.0,BKN,,,,1500.0,,,,,,,,,,,,KLGA 091725Z AUTO 17017G23KT 10SM BKN015 09/04 A3018 RMK T00900040 MADISHF,
LGA,2026-01-09 12:30,-73.8803,40.7794,9.0,,,,170.0,15.0,,30.18,,10.0,,BKN,,,,1500.0,,,,,,,,,,,,KLGA 091730Z AUTO 17015KT 10SM BKN015 08/04 A3018 RMK T00800040 MADISHF,
LGA,2026-01-09 12:35,-73.8803,40.7794,9.0,,,,170.0,14.0,,30.17,,10.0,,BKN,,,,1500.0,,,,,,,,,,,,KLGA 091735Z AUTO 17014KT 10SM BKN015 09/04 A3017 RMK T00900040 MADISHF,
LGA,2026-01-09 12:40,-73.8803,40.7794,9.0,,,,180.0,15.0,,30.17,,10.0,,BKN,,,,1500.0,,,,,,,,,,,,KLGA 091740Z AUTO 18015KT 10SM BKN015 09/04 A3017 RMK T00900040 MADISHF,
LGA,2026-01-09 12:45,-73.8803,40.7794,9.0,,,,180.0,17.0,,30.18,,10.0,,BKN,,,,1500.0,,,,,,,,,,,,KLGA 091745Z AUTO 18017KT 10SM BKN015 08/04 A3018 RMK T00800040 MADISHF,
LGA,2026-01-09 12:50,-73.8803,40.7794,9.0,,,,180.0,16.0,,30.18,,10.0,22.0,BKN,,,,1500.0,,,,,,,,,,,,KLGA 091750Z AUTO 18016G22KT 10SM BKN015 08/04 A3018 RMK T00800040 MADISHF,
LGA,2026-01-09 12:51,-73.8803,40.7794,9.0,47.0,39.0,73.56,180.0,16.0,0.00,30.17,1021.7,10.0,25.0,BKN,OVC,,,1300.0,18000.0,,,,,,,26.0,160.0,2026-01-09 12:26,39.97,KLGA 091751Z 18016G25KT 10SM BKN013 OVC180 08/04 A3017 RMK AO2 PK WND 16026/1726 SLP217 T00830039 10089 20039 58030,
LGA,2026-01-09 12:55,-73.8803,40.7794,9.0,,,,180.0,11.0,,30.17,,10.0,17.0,OVC,,,,1300.0,,,,,,,,,,,,KLGA 091755Z AUTO 18011G17KT 10SM OVC013 08/04 A3017 RMK T00800040 MADISHF,
LGA,2026-01-09 13:00,-73.8803,40.7794,9.0,,,,180.0,14.0,,30.17,,10.0,19.0,OVC,,,,1300.0,,,,,,,,,,,,KLGA 091800Z AUTO 18014G19KT 10SM OVC013 08/04 A3017 RMK T00800040 MADISHF,
LGA,2026-01-09 13:05,-73.8803,40.7794,9.0,,,,170.0,15.0,,30.17,,10.0,,OVC,,,,1300.0,,,,,,,,,,,,KLGA 091805Z AUTO 17015KT 10SM OVC013 08/04 A3017 RMK T00800040 MADISHF,
LGA,2026-01-09 13:10,-73.8803,40.7794,9.0,,,,170.0,14.0,,30.16,,10.0,21.0,OVC,,,,1300.0,,,,,,,,,,,,KLGA 091810Z AUTO 17014G21KT 10SM OVC013 08/04 A3016 RMK T00800040 MADISHF,
LGA,2026-01-09 13:15,-73.8803,40.7794,9.0,,,,170.0,13.0,,30.16,,10.0,,OVC,,,,1300.0,,,,,,,,,,,,KLGA 091815Z AUTO 17013KT 10SM OVC013 08/04 A3016 RMK T00800040 MADISHF,
LGA,2026-01-09 13:20,-73.8803,40.7794,9.0,,,,160.0,13.0,,30.16,,10.0,,OVC,,,,1300.0,,,,,,,,,,,,KLGA 091820Z AUTO 16013KT 10SM OVC013 08/04 A3016 RMK T00800040 MADISHF,
LGA,2026-01-09 13:25,-73.8803,40.7794,9.0,,,,170.0,14.0,,30.15,,10.0,,OVC,,,,1300.0,,,,,,,,,,,,KLGA 091825Z AUTO 17014KT 10SM OVC013 08/04 A3015 RMK T00800040 MADISHF,
LGA,2026-01-09 13:30,-73.8803,40.7794,9.0,,,,170.0,13.0,,30.15,,10.0,,BKN,,,,1300.0,,,,,,,,,,,,KLGA 091830Z AUTO 17013KT 10SM BKN013 08/04 A3015 RMK T00800040 MADISHF,
LGA,2026-01-09 13:35,-73.8803,40.7794,9.0,,,,170.0,13.0,,30.15,,10.0,,BKN,,,,1300.0,,,,,,,,,,,,KLGA 091835Z AUTO 17013KT 10SM BKN013 08/04 A3015 RMK T00800040 MADISHF,
LGA,2026-01-09 13:40,-73.8803,40.7794,9.0,,,,170.0,13.0,,30.14,,10.0,,BKN,,,,1300.0,,,,,,,,,,,,KLGA 091840Z AUTO 17013KT 10SM BKN013 08/04 A3014 RMK T00800040 MADISHF,
LGA,2026-01-09 13:45,-73.8803,40.7794,9.0,,,,170.0,12.0,,30.14,,10.0,,BKN,,,,1300.0,,,,,,,,,,,,KLGA 091845Z AUTO 17012KT 10SM BKN013 08/04 A3014 RMK T00800040 MADISHF,
LGA,2026-01-09 13:50,-73.8803,40.7794,9.0,,,,170.0,12.0,,30.13,,10.0,,BKN,,,,1300.0,,,,,,,,,,,,KLGA 091850Z AUTO 17012KT 10SM BKN013 08/04 A3013 RMK T00800040 MADISHF,
LGA,2026-01-09 13:51,-73.8803,40.7794,9.0,47.0,40.0,76.49,170.0,12.0,0.00,30.13,1020.3,10.0,20.0,BKN,OVC,,,1300.0,18000.0,,,,,,,,,,41.09,KLGA 091851Z 17012G20KT 10SM BKN013 OVC180 08/04 A3013 RMK AO2 SLP203 T00830044,
LGA,2026-01-09 13:55,-73.8803,40.7794,9.0,,,,170.0,15.0,,30.13,,10.0,,BKN,OVC,,,1300.0,7000.0,,,,,,,,,,,KLGA 091855Z AUTO 17015KT 10SM BKN013 OVC070 08/04 A3013 RMK T00800040 MADISHF,
LGA,2026-01-09 14:00,-73.8803,40.7794,9.0,,,,180.0,14.0,,30.13,,10.0,24.0,BKN,BKN,,,1300.0,6000.0,,,,,,,,,,,KLGA 091900Z AUTO 18014G24KT 10SM BKN013 BKN060 08/04 A3013 RMK T00800040 MADISHF,
LGA,2026-01-09 14:05,-73.8803,40.7794,9.0,,,,170.0,15.0,,30.13,,10.0,,BKN,BKN,,,1300.0,6000.0,,,,,,,,,,,KLGA 091905Z AUTO 17015KT 10SM BKN013 BKN060 08/04 A3013 RMK T00800040 MADISHF,
LGA,2026-01-09 14:10,-73.8803,40.7794,9.0,,,,180.0,16.0,,30.13,,10.0,24.0,BKN,BKN,,,1300.0,6000.0,,,,,,,,,,,KLGA 091910Z AUTO 18016G24KT 10SM BKN013 BKN060 08/04 A3013 RMK T00800040 MADISHF,
LGA,2026-01-09 14:15,-73.8803,40.7794,9.0,,,,180.0,13.0,,30.13,,10.0,21.0,BKN,BKN,,,1300.0,6000.0,,,,,,,,,,,KLGA 091915Z AUTO 18013G21KT 10SM BKN013 BKN060 08/04 A3013 RMK T00800040 MADISHF,
LGA,2026-01-09 14:20,-73.8803,40.7794,9.0,,,,180.0,14.0,,30.13,,10.0,,BKN,BKN,,,1100.0,7000.0,,,,,,,,,,,KLGA 091920Z AUTO 18014KT 10SM BKN011 BKN070 08/04 A3013 RMK T00800040 MADISHF,
LGA,2026-01-09 14:25,-73.8803,40.7794,9.0,,,,170.0,13.0,,30.13,,10.0,,BKN,BKN,,,1100.0,7000.0,,,,,,,,,,,KLGA 091925Z AUTO 17013KT 10SM BKN011 BKN070 08/04 A3013 RMK T00800040 MADISHF,
LGA,2026-01-09 14:30,-73.8803,40.7794,9.0,,,,180.0,16.0,,30.13,,10.0,,BKN,BKN,,,1100.0,7000.0,,,,,,,,,,,KLGA 091930Z AUTO 18016KT 10SM BKN011 BKN070 08/04 A3013 RMK T00800040 MADISHF,
LGA,2026-01-09 14:35,-73.8803,40.7794,9.0,,,,180.0,14.0,,30.13,,10.0,,SCT,BKN,,,1100.0,7000.0,,,,,,,,,,,KLGA 091935Z AUTO 18014KT 10SM SCT011 BKN070 08/04 A3013 RMK T00800040 MADISHF,
LGA,2026-01-09 14:38,-73.8803,40.7794,9.0,47.0,40.0,76.49,180.0,12.0,0.00,30.13,,10.0,23.0,FEW,BKN,BKN,BKN,1100.0,7000.0,17000.0,25000.0,,,,,26.0,180.0,2026-01-09 14:01,41.09,KLGA 091938Z 18012G23KT 10SM FEW011 BKN070 BKN170 BKN250 08/04 A3013 RMK AO2 PK WND 18026/1901 T00830044,
LGA,2026-01-09 14:40,-73.8803,40.7794,9.0,,,,170.0,13.0,,30.13,,10.0,,FEW,BKN,,,1100.0,7000.0,,,,,,,,,,,KLGA 091940Z AUTO 17013KT 10SM FEW011 BKN070 08/04 A3013 RMK T00800040 MADISHF,
LGA,2026-01-09 14:45,-73.8803,40.7794,9.0,,,,170.0,12.0,,30.12,,10.0,,FEW,SCT,OVC,,1100.0,3800.0,7000.0,,,,,,,,,,KLGA 091945Z AUTO 17012KT 10SM FEW011 SCT038 OVC070 09/04 A3012 RMK T00900040 MADISHF,
LGA,2026-01-09 14:50,-73.8803,40.7794,9.0,,,,170.0,14.0,,30.12,,10.0,19.0,FEW,SCT,BKN,,1100.0,3800.0,7000.0,,,,,,,,,,KLGA 091950Z AUTO 17014G19KT 10SM FEW011 SCT038 BKN070 08/04 A3012 RMK T00800040 MADISHF,
LGA,2026-01-09 14:51,-73.8803,40.7794,9.0,47.0,40.0,76.49,180.0,14.0,0.00,30.12,1020.0,10.0,22.0,FEW,SCT,BKN,BKN,1100.0,3800.0,7000.0,17000.0,,,,,26.0,180.0,2026-01-09 14:01,40.5,KLGA 091951Z 18014G22KT 10SM FEW011 SCT038 BKN070 BKN170 BKN250 08/04 A3012 RMK AO2 PK WND 18026/1901 SLP200 T00830044,
LGA,2026-01-09 14:55,-73.8803,40.7794,9.0,,,,170.0,13.0,,30.12,,10.0,,FEW,BKN,,,1100.0,7000.0,,,,,,,,,,,KLGA 091955Z AUTO 17013KT 10SM FEW011 BKN070 08/04 A3012 RMK T00800040 MADISHF,
LGA,2026-01-09 15:00,-73.8803,40.7794,9.0,,,,170.0,14.0,,30.11,,10.0,,FEW,BKN,,,1100.0,7000.0,,,,,,,,,,,KLGA 092000Z AUTO 17014KT 10SM FEW011 BKN070 08/04 A3011 RMK T00800040 MADISHF,
LGA,2026-01-09 15:05,-73.8803,40.7794,9.0,,,,170.0,13.0,,30.11,,10.0,22.0,FEW,BKN,,,1000.0,7000.0,,,,,,,,,,,KLGA 092005Z AUTO 17013G22KT 10SM FEW010 BKN070 08/04 A3011 RMK T00800040 MADISHF,
LGA,2026-01-09 15:10,-73.8803,40.7794,9.0,,,,160.0,15.0,,30.11,,10.0,22.0,FEW,BKN,,,1000.0,7000.0,,,,,,,,,,,KLGA 092010Z AUTO 16015G22KT 10SM FEW010 BKN070 09/04 A3011 RMK T00900040 MADISHF,
LGA,2026-01-09 15:15,-73.8803,40.7794,9.0,,,,160.0,13.0,,30.11,,10.0,,FEW,BKN,,,1000.0,7000.0,,,,,,,,,,,KLGA 092015Z AUTO 16013KT 10SM FEW010 BKN070 08/04 A3011 RMK T00800040 MADISHF,
LGA,2026-01-09 15:20,-73.8803,40.7794,9.0,,,,170.0,11.0,,30.11,,10.0,,FEW,BKN,,,1000.0,7000.0,,,,,,,,,,,KLGA 092020Z AUTO 17011KT 10SM FEW010 BKN070 08/04 A3011 RMK T00800040 MADISHF,
LGA,2026-01-09 15:25,-73.8803,40.7794,9.0,,,,170.0,14.0,,30.11,,10.0,,BKN,,,,7000.0,,,,,,,,,,,,KLGA 092025Z AUTO 17014KT 10SM BKN070 08/04 A3011 RMK T00800040 MADISHF,
LGA,2026-01-09 15:30,-73.8803,40.7794,9.0,,,,170.0,12.0,,30.11,,10.0,17.0,OVC,,,,7000.0,,,,,,,,,,,,KLGA 092030Z AUTO 17012G17KT 10SM OVC070 08/04 A3011 RMK T00800040 MADISHF,
LGA,2026-01-09 15:35,-73.8803,40.7794,9.0,,,,170.0,12.0,,30.11,,10.0,,BKN,OVC,,,7000.0,9000.0,,,,,,,,,,,KLGA 092035Z AUTO 17012KT 10SM BKN070 OVC090 08/04 A3011 RMK T00800040 MADISHF,
LGA,2026-01-09 15:40,-73.8803,40.7794,9.0,,,,180.0,13.0,,30.11,,10.0,19.0,FEW,BKN,OVC,,1200.0,7000.0,9000.0,,,,,,,,,,KLGA 092040Z AUTO 18013G19KT 10SM FEW012 BKN070 OVC090 08/04 A3011 RMK T00800040 MADISHF,
LGA,2026-01-09 15:45,-73.8803,40.7794,9.0,,,,180.0,13.0,,30.11,,10.0,,FEW,BKN,OVC,,1200.0,7000.0,9000.0,,,,,,,,,,KLGA 092045Z AUTO 18013KT 10SM FEW012 BKN070 OVC090 08/04 A3011 RMK T00800040 MADISHF,
LGA,2026-01-09 15:50,-73.8803,40.7794,9.0,,,,180.0,10.0,,30.1,,10.0,15.0,FEW,SCT,OVC,,1200.0,3000.0,7000.0,,,,,,,,,,KLGA 092050Z AUTO 18010G15KT 10SM FEW012 SCT030 OVC070 08/04 A3010 RMK T00800040 MADISHF,
LGA,2026-01-09 15:51,-73.8803,40.7794,9.0,47.0,40.0,76.49,180.0,11.0,0.00,30.1,1019.4,10.0,19.0,FEW,SCT,OVC,,1200.0,3000.0,7000.0,,,,,,,,,41.42,KLGA 092051Z 18011G19KT 10SM FEW012 SCT030 OVC070 08/04 A3010 RMK AO2 SLP194 T00830044 56024,
LGA,2026-01-09 15:55,-73.8803,40.7794,9.0,,,,170.0,12.0,,30.1,,10.0,17.0,FEW,OVC,,,2600.0,6000.0,,,,,,,,,,,KLGA 092055Z AUTO 17012G17KT 10SM FEW026 OVC060 08/04 A3010 RMK T00800040 MADISHF,
LGA,2026-01-09 16:00,-73.8803,40.7794,9.0,,,,170.0,13.0,,30.09,,10.0,19.0,FEW,OVC,,,2600.0,5500.0,,,,,,,,,,,KLGA 092100Z AUTO 17013G19KT 10SM FEW026 OVC055 08/04 A3009 RMK T00800040 MADISHF,
LGA,2026-01-09 16:05,-73.8803,40.7794,9.0,,,,170.0,12.0,,30.09,,10.0,,FEW,OVC,,,2600.0,5500.0,,,,,,,,,,,KLGA 092105Z AUTO 17012KT 10SM FEW026 OVC055 08/04 A3009 RMK T00800040 MADISHF,
LGA,2026-01-09 16:10,-73.8803,40.7794,9.0,,,,180.0,12.0,,30.09,,10.0,19.0,FEW,OVC,,,2600.0,5500.0,,,,,,,,,,,KLGA 092110Z AUTO 18012G19KT 10SM FEW026 OVC055 08/04 A3009 RMK T00800040 MADISHF,
LGA,2026-01-09 16:15,-73.8803,40.7794,9.0,,,,170.0,12.0,,30.09,,10.0,,SCT,OVC,,,2600.0,5500.0,,,,,,,,,,,KLGA 092115Z AUTO 17012KT 10SM SCT026 OVC055 08/04 A3009 RMK T00800040 MADISHF,
LGA,2026-01-09 16:20,-73.8803,40.7794,9.0,,,,170.0,12.0,,30.08,,10.0,,FEW,OVC,,,2600.0,5500.0,,,,,,,,,,,KLGA 092120Z AUTO 17012KT 10SM FEW026 OVC055 08/05 A3008 RMK T00800050 MADISHF,
LGA,2026-01-09 16:25,-73.8803,40.7794,9.0,,,,170.0,11.0,,30.08,,10.0,16.0,SCT,OVC,,,2600.0,5000.0,,,,,,,,,,,KLGA 092125Z AUTO 17011G16KT 10SM SCT026 OVC050 08/05 A3008 RMK T00800050 MADISHF,
LGA,2026-01-09 16:30,-73.8803,40.7794,9.0,,,,170.0,10.0,,30.08,,10.0,,SCT,OVC,,,2600.0,5000.0,,,,,,,,,,,KLGA 092130Z AUTO 17010KT 10SM SCT026 OVC050 08/05 A3008 RMK T00800050 MADISHF,
LGA,2026-01-09 16:35,-73.8803,40.7794,9.0,,,,180.0,10.0,,30.08,,10.0,,SCT,OVC,,,2600.0,5000.0,,,,,,,,,,,KLGA 092135Z AUTO 18010KT 10SM SCT026 OVC050 08/05 A3008 RMK T00800050 MADISHF,
LGA,2026-01-09 16:40,-73.8803,40.7794,9.0,,,,180.0,11.0,,30.08,,10.0,,FEW,OVC,,,2600.0,5000.0,,,,,,,,,,,KLGA 092140Z AUTO 18011KT 10SM FEW026 OVC050 08/05 A3008 RMK T00800050 MADISHF,
LGA,2026-01-09 16:45,-73.8803,40.7794,9.0,,,,180.0,11.0,,30.07,,10.0,,FEW,OVC,,,2600.0,4800.0,,,,,,,,,,,KLGA 092145Z AUTO 18011KT 10SM FEW026 OVC048 08/05 A3007 RMK T00800050 MADISHF,
LGA,2026-01-09 16:50,-73.8803,40.7794,9.0,,,,180.0,11.0,,30.07,,10.0,16.0,FEW,SCT,OVC,,1200.0,2600.0,4800.0,,,,,,,,,,KLGA 092150Z AUTO 18011G16KT 10SM FEW012 SCT026 OVC048 08/05 A3007 RMK T00800050 MADISHF,
LGA,2026-01-09 16:51,-73.8803,40.7794,9.0,47.0,41.0,79.51,180.0,10.0,0.00,30.07,1018.2,10.0,,FEW,SCT,OVC,,1200.0,2600.0,4800.0,,,,,,,,,41.78,KLGA 092151Z 18010KT 10SM FEW012 SCT026 OVC048 08/05 A3007 RMK AO2 SLP182 T00830050,
LGA,2026-01-09 16:55,-73.8803,40.7794,9.0,,,,180.0,11.0,,30.07,,10.0,,BKN,OVC,,,4500.0,5000.0,,,,,,,,,,,KLGA 092155Z AUTO 18011KT 10SM BKN045 OVC050 08/05 A3007 RMK T00800050 MADISHF,
LGA,2026-01-09 17:00,-73.8803,40.7794,9.0,,,,180.0,12.0,,30.07,,10.0,,BKN,OVC,,,4300.0,5000.0,,,,,,,,,,,KLGA 092200Z AUTO 18012KT 10SM BKN043 OVC050 08/05 A3007 RMK T00800050 MADISHF,
LGA,2026-01-09 17:05,-73.8803,40.7794,9.0,,,,180.0,11.0,,30.06,,10.0,,BKN,OVC,,,3900.0,5000.0,,,,,,,,,,,KLGA 092205Z AUTO 18011KT 10SM BKN039 OVC050 08/05 A3006 RMK T00800050 MADISHF,
LGA,2026-01-09 17:10,-73.8803,40.7794,9.0,,,,170.0,12.0,,30.06,,10.0,,BKN,OVC,,,3900.0,5000.0,,,,,,,,,,,KLGA 092210Z AUTO 17012KT 10SM BKN039 OVC050 08/05 A3006 RMK T00800050 MADISHF,
LGA,2026-01-09 17:15,-73.8803,40.7794,9.0,,,,170.0,11.0,,30.06,,10.0,17.0,BKN,OVC,,,3700.0,4700.0,,,,,,,,,,,KLGA 092215Z AUTO 17011G17KT 10SM BKN037 OVC047 08/05 A3006 RMK T00800050 MADISHF,
LGA,2026-01-09 17:20,-73.8803,40.7794,9.0,,,,180.0,12.0,,30.06,,10.0,,OVC,,,,3700.0,,,,,,,,,,,,KLGA 092220Z AUTO 18012KT 10SM OVC037 08/05 A3006 RMK T00800050 MADISHF,
LGA,2026-01-09 17:25,-73.8803,40.7794,9.0,,,,180.0,12.0,,30.05,,10.0,,OVC,,,,3500.0,,,,,,,,,,,,KLGA 092225Z AUTO 18012KT 10SM OVC035 08/05 A3005 RMK T00800050 MADISHF,
LGA,2026-01-09 17:30,-73.8803,40.7794,9.0,,,,180.0,11.0,,30.05,,10.0,,FEW,OVC,,,2900.0,3500.0,,,,,,,,,,,KLGA 092230Z AUTO 18011KT 10SM FEW029 OVC035 08/05 A3005 RMK T00800050 MADISHF,
LGA,2026-01-09 17:35,-73.8803,40.7794,9.0,,,,180.0,15.0,,30.05,,10.0,,OVC,,,,3300.0,,,,,,,,,,,,KLGA 092235Z AUTO 18015KT 10SM OVC033 08/05 A3005 RMK T00800050 MADISHF,
LGA,2026-01-09 17:40,-73.8803,40.7794,9.0,,,,190.0,13.0,,30.06,,10.0,,SCT,OVC,,,2900.0,3400.0,,,-RA,,,,,,,,KLGA 092240Z AUTO 19013KT 10SM -RA SCT029 OVC034 08/06 A3006 RMK T00800060 MADISHF,
LGA,2026-01-09 17:45,-73.8803,40.7794,9.0,,,,190.0,10.0,,30.06,,10.0,15.0,FEW,BKN,OVC,,1000.0,2900.0,3400.0,,,,,,,,,,KLGA 092245Z AUTO 19010G15KT 10SM FEW010 BKN029 OVC034 08/06 A3006 RMK T00800060 MADISHF,
LGA,2026-01-09 17:47,-73.8803,40.7794,9.0,46.4,42.8,87.18,190.0,12.0,T,30.06,,10.0,,FEW,BKN,OVC,,1000.0,2900.0,3400.0,,,,,,,,,40.33,KLGA 092247Z 19012KT 10SM FEW010 BKN029 OVC034 08/06 A3006 RMK AO2 RAB36E45 P0000,
LGA,2026-01-09 17:50,-73.8803,40.7794,9.0,,,,180.0,12.0,,30.06,,10.0,18.0,FEW,BKN,OVC,,1000.0,2900.0,3400.0,,,,,,,,,,KLGA 092250Z AUTO 18012G18KT 10SM FEW010 BKN029 OVC034 08/06 A3006 RMK T00800060 MADISHF,
LGA,2026-01-09 17:51,-73.8803,40.7794,9.0,47.0,42.0,82.65,190.0,13.0,T,30.06,1017.8,10.0,20.0,FEW,BKN,OVC,,1000.0,2900.0,3400.0,,,,,,,,,40.79,KLGA 092251Z 19013G20KT 10SM FEW010 BKN029 OVC034 08/06 A3006 RMK AO2 RAB36E45 SLP178 P0000 T00830056,
LGA,2026-01-09 17:55,-73.8803,40.7794,9.0,,,,190.0,12.0,,30.06,,10.0,17.0,OVC,,,,2700.0,,,,,,,,,,,,KLGA 092255Z AUTO 19012G17KT 10SM OVC027 08/06 A3006 RMK T00800060 MADISHF,
LGA,2026-01-09 18:00,-73.8803,40.7794,9.0,,,,180.0,12.0,,30.06,,10.0,18.0,FEW,OVC,,,1000.0,2700.0,,,,,,,,,,,KLGA 092300Z AUTO 18012G18KT 10SM FEW010 OVC027 09/06 A3006 RMK T00900060 MADISHF,
LGA,2026-01-09 18:05,-73.8803,40.7794,9.0,,,,190.0,10.0,,30.06,,8.0,,FEW,OVC,,,800.0,2700.0,,,-RA,,,,,,,,KLGA 092305Z AUTO 19010KT 7SM -RA FEW008 OVC027 09/06 A3006 RMK T00900060 MADISHF,
LGA,2026-01-09 18:07,-73.8803,40.7794,9.0,48.0,42.0,79.59,190.0,9.0,T,30.05,,8.0,,FEW,OVC,,,800.0,2700.0,,,-RA,,,,,,,43.41,KLGA 092307Z 19009KT 8SM -RA FEW008 OVC027 09/06 A3005 RMK AO2 RAB01 P0000 T00890056,
LGA,2026-01-09 18:10,-73.8803,40.7794,9.0,,,,180.0,10.0,,30.05,,7.0,,OVC,,,,2700.0,,,,-RA,,,,,,,,KLGA 092310Z AUTO 18010KT 7SM -RA OVC027 09/06 A3005 RMK T00900060 MADISHF,
LGA,2026-01-09 18:15,-73.8803,40.7794,9.0,,,,180.0,10.0,,30.05,,8.0,,OVC,,,,2700.0,,,,-RA,,,,,,,,KLGA 092315Z AUTO 18010KT 7SM -RA OVC027 09/06 A3005 RMK T00900060 MADISHF,
LGA,2026-01-09 18:20,-73.8803,40.7794,9.0,,,,190.0,10.0,,30.05,,9.0,,OVC,,,,2600.0,,,,-RA,,,,,,,,KLGA 092320Z AUTO 19010KT 8SM -RA OVC026 09/06 A3005 RMK T00900060 MADISHF,
LGA,2026-01-09 18:25,-73.8803,40.7794,9.0,,,,190.0,9.0,,30.05,,10.0,,OVC,,,,2600.0,,,,,,,,,,,,KLGA 092325Z AUTO 19009KT 10SM OVC026 09/06 A3005 RMK T00900060 MADISHF,
LGA,2026-01-09 18:30,-73.8803,40.7794,9.0,,,,190.0,10.0,,30.05,,10.0,,OVC,,,,2500.0,,,,,,,,,,,,KLGA 092330Z AUTO 19010KT 10SM OVC025 09/06 A3005 RMK T00900060 MADISHF,
LGA,2026-01-09 18:35,-73.8803,40.7794,9.0,,,,190.0,10.0,,30.05,,10.0,,OVC,,,,2500.0,,,,,,,,,,,,KLGA 092335Z AUTO 19010KT 10SM OVC025 09/06 A3005 RMK T00900060 MADISHF,
LGA,2026-01-09 18:40,-73.8803,40.7794,9.0,,,,180.0,11.0,,30.04,,9.0,,BKN,OVC,,,2500.0,5500.0,,,-RA,,,,,,,,KLGA 092340Z AUTO 18011KT 8SM -RA BKN025 OVC055 09/06 A3004 RMK T00900060 MADISHF,
LGA,2026-01-09 18:45,-73.8803,40.7794,9.0,,,,170.0,13.0,,30.03,,8.0,,BKN,BKN,OVC,,2500.0,5500.0,8000.0,,-RA,,,,,,,,KLGA 092345Z AUTO 17013KT 7SM -RA BKN025 BKN055 OVC080 09/06 A3003 RMK T00900060 MADISHF,
LGA,2026-01-09 18:50,-73.8803,40.7794,9.0,,,,180.0,13.0,,30.03,,9.0,,FEW,BKN,OVC,,800.0,2500.0,5500.0,,-RA,,,,,,,,KLGA 092350Z AUTO 18013KT 8SM -RA FEW008 BKN025 OVC055 09/06 A3003 RMK T00900060 MADISHF,
LGA,2026-01-09 18:51,-73.8803,40.7794,9.0,48.0,43.0,82.72,180.0,13.0,T,30.03,1016.8,9.0,,FEW,SCT,OVC,,800.0,2500.0,5500.0,,-RA,,,,,,,42.07,KLGA 092351Z 18013KT 9SM -RA FEW008 SCT025 OVC055 09/06 A3003 RMK AO2 RAB01E21B37 SLP168 P0000 60000 T00890061 10089 20083 58015,
LGA,2026-01-09 18:55,-73.8803,40.7794,9.0,,,,180.0,11.0,,30.03,,10.0,,FEW,SCT,OVC,,2500.0,5500.0,7500.0,,,,,,,,,,KLGA 092355Z AUTO 18011KT 10SM FEW025 SCT055 OVC075 09/06 A3003 RMK T00900060 MADISHF,
LGA,2026-01-09 19:00,-73.8803,40.7794,9.0,,,,180.0,9.0,,30.03,,10.0,,FEW,BKN,OVC,,2500.0,7500.0,9500.0,,,,,,,,,,KLGA 100000Z AUTO 18009KT 10SM FEW025 BKN075 OVC095 09/06 A3003 RMK T00900060 MADISHF,
LGA,2026-01-09 19:05,-73.8803,40.7794,9.0,,,,180.0,10.0,,30.04,,10.0,,SCT,BKN,OVC,,2500.0,7500.0,9500.0,,,,,,,,,,KLGA 100005Z AUTO 18010KT 10SM SCT025 BKN075 OVC095 09/06 A3004 RMK T00900060 MADISHF,
LGA,2026-01-09 19:10,-73.8803,40.7794,9.0,,,,180.0,9.0,,30.04,,10.0,,BKN,BKN,OVC,,2500.0,7500.0,9500.0,,,,,,,,,,KLGA 100010Z AUTO 18009KT 10SM BKN025 BKN075 OVC095 09/06 A3004 RMK T00900060 MADISHF,
LGA,2026-01-09 19:15,-73.8803,40.7794,9.0,,,,180.0,10.0,,30.04,,10.0,,SCT,BKN,OVC,,2500.0,7500.0,9500.0,,,,,,,,,,KLGA 100015Z AUTO 18010KT 10SM SCT025 BKN075 OVC095 09/06 A3004 RMK T00900060 MADISHF,
LGA,2026-01-09 19:20,-73.8803,40.7794,9.0,,,,200.0,7.0,,30.05,,10.0,,SCT,BKN,OVC,,2500.0,7500.0,9500.0,,,,,,,,,,KLGA 100020Z AUTO 20007KT 10SM SCT025 BKN075 OVC095 09/06 A3005 RMK T00900060 MADISHF,
LGA,2026-01-09 19:25,-73.8803,40.7794,9.0,,,,200.0,9.0,,30.05,,10.0,14.0,SCT,BKN,OVC,,2500.0,7500.0,9500.0,,-RA,,,,,,,,KLGA 100025Z AUTO 20009G14KT 10SM -RA SCT025 BKN075 OVC095 09/06 A3005 RMK T00900060 MADISHF,
LGA,2026-01-09 19:30,-73.8803,40.7794,9.0,,,,210.0,7.0,,30.05,,10.0,,SCT,BKN,OVC,,2500.0,7500.0,9500.0,,-RA,,,,,,,,KLGA 100030Z AUTO 21007KT 10SM -RA SCT025 BKN075 OVC095 09/06 A3005 RMK T00900060 MADISHF,
LGA,2026-01-09 19:40,-73.8803,40.7794,9.0,,,,190.0,5.0,,30.05,,10.0,,SCT,BKN,OVC,,2500.0,7500.0,9500.0,,,,,,,,,,KLGA 100040Z AUTO 19005KT 10SM SCT025 BKN075 OVC095 09/06 A3005 RMK T00900060 MADISHF,
LGA,2026-01-09 19:45,-73.8803,40.7794,9.0,,,,180.0,4.0,,30.05,,10.0,,FEW,SCT,,,800.0,2500.0,,,,,,,,,,,KLGA 100045Z AUTO 18004KT 10SM FEW008 SCT025 09/07 A3005 RMK T00900070 MADISHF,
LGA,2026-01-09 19:50,-73.8803,40.7794,9.0,,,,170.0,5.0,,30.05,,10.0,,FEW,OVC,,,800.0,2500.0,,,,,,,,,,,KLGA 100050Z AUTO 17005KT 10SM FEW008 OVC025 09/07 A3005 RMK T00900070 MADISHF,
LGA,2026-01-09 19:51,-73.8803,40.7794,9.0,48.0,44.0,85.95,180.0,5.0,T,30.05,1017.6,10.0,,FEW,OVC,,,800.0,2500.0,,,,,,,,,,45.4,KLGA 100051Z 18005KT 10SM FEW008 OVC025 09/07 A3005 RMK AO2 RAE2355B24E34 SLP176 P0000 T00890067,
LGA,2026-01-09 19:55,-73.8803,40.7794,9.0,,,,160.0,4.0,,30.05,,10.0,,OVC,,,,2500.0,,,,,,,,,,,,KLGA 100055Z AUTO 16004KT 10SM OVC025 09/07 A3005 RMK T00900070 MADISHF,
LGA,2026-01-09 20:00,-73.8803,40.7794,9.0,,,,140.0,4.0,,30.05,,10.0,,OVC,,,,2500.0,,,,,,,,,,,,KLGA 100100Z AUTO 14004KT 10SM OVC025 09/07 A3005 RMK T00900070 MADISHF,
LGA,2026-01-09 20:05,-73.8803,40.7794,9.0,,,,150.0,5.0,,30.05,,10.0,,OVC,,,,2500.0,,,,,,,,,,,,KLGA 100105Z AUTO 15005KT 10SM OVC025 09/07 A3005 RMK T00900070 VRB05KT MADISHF,
LGA,2026-01-09 20:10,-73.8803,40.7794,9.0,,,,160.0,5.0,,30.05,,10.0,,OVC,,,,2300.0,,,,,,,,,,,,KLGA 100110Z AUTO 16005KT 10SM OVC023 09/07 A3005 RMK T00900070 MADISHF,
LGA,2026-01-09 20:15,-73.8803,40.7794,9.0,,,,160.0,4.0,,30.06,,10.0,,OVC,,,,2300.0,,,,,,,,,,,,KLGA 100115Z AUTO 16004KT 10SM OVC023 09/07 A3006 RMK T00900070 MADISHF,
LGA,2026-01-09 20:20,-73.8803,40.7794,9.0,,,,170.0,5.0,,30.05,,10.0,,OVC,,,,2300.0,,,,,,,,,,,,KLGA 100120Z AUTO 17005KT 10SM OVC023 09/07 A3005 RMK T00900070 MADISHF,
LGA,2026-01-09 20:25,-73.8803,40.7794,9.0,,,,160.0,6.0,,30.05,,10.0,,OVC,,,,2100.0,,,,,,,,,,,,KLGA 100125Z AUTO 16006KT 10SM OVC021 09/07 A3005 RMK T00900070 MADISHF,
LGA,2026-01-09 20:30,-73.8803,40.7794,9.0,,,,160.0,4.0,,30.05,,10.0,,OVC,,,,2100.0,,,,,,,,,,,,KLGA 100130Z AUTO 16004KT 10SM OVC021 09/07 A3005 RMK T00900070 MADISHF,
LGA,2026-01-09 20:35,-73.8803,40.7794,9.0,,,,160.0,5.0,,30.05,,10.0,,OVC,,,,2100.0,,,,,,,,,,,,KLGA 100135Z AUTO 16005KT 10SM OVC021 09/07 A3005 RMK T00900070 MADISHF,
LGA,2026-01-09 20:40,-73.8803,40.7794,9.0,,,,140.0,4.0,,30.05,,10.0,,OVC,,,,2100.0,,,,,,,,,,,,KLGA 100140Z AUTO 14004KT 10SM OVC021 09/07 A3005 RMK T00900070 VRB04KT MADISHF,
LGA,2026-01-09 20:45,-73.8803,40.7794,9.0,,,,170.0,5.0,,30.05,,10.0,,OVC,,,,2100.0,,,,,,,,,,,,KLGA 100145Z AUTO 17005KT 10SM OVC021 10/07 A3005 RMK T01000070 MADISHF,
LGA,2026-01-09 20:50,-73.8803,40.7794,9.0,,,,180.0,4.0,,30.05,,10.0,,FEW,OVC,,,800.0,2100.0,,,,,,,,,,,KLGA 100150Z AUTO 18004KT 10SM FEW008 OVC021 09/07 A3005 RMK T00900070 MADISHF,
LGA,2026-01-09 20:51,-73.8803,40.7794,9.0,49.0,44.0,82.79,190.0,4.0,0.00,30.05,1017.6,10.0,,FEW,OVC,,,800.0,2100.0,,,,,,,,,,47.27,KLGA 100151Z 19004KT 10SM FEW008 OVC021 09/07 A3005 RMK AO2 SLP176 T00940067,
LGA,2026-01-09 20:55,-73.8803,40.7794,9.0,,,,190.0,4.0,,30.05,,10.0,,OVC,,,,2100.0,,,,,,,,,,,,KLGA 100155Z AUTO 19004KT 10SM OVC021 09/07 A3005 RMK T00900070 MADISHF,
LGA,2026-01-09 21:00,-73.8803,40.7794,9.0,,,,190.0,5.0,,30.05,,10.0,,OVC,,,,1900.0,,,,,,,,,,,,KLGA 100200Z AUTO 19005KT 10SM OVC019 09/07 A3005 RMK T00900070 MADISHF,
LGA,2026-01-09 21:05,-73.8803,40.7794,9.0,,,,200.0,3.0,,30.05,,10.0,,OVC,,,,1900.0,,,,,,,,,,,,KLGA 100205Z AUTO 20003KT 10SM OVC019 09/07 A3005 RMK T00900070 MADISHF,
LGA,2026-01-09 21:10,-73.8803,40.7794,9.0,,,,190.0,4.0,,30.05,,10.0,,OVC,,,,1900.0,,,,,,,,,,,,KLGA 100210Z AUTO 19004KT 10SM OVC019 09/07 A3005 RMK T00900070 MADISHF,
LGA,2026-01-09 21:15,-73.8803,40.7794,9.0,,,,190.0,4.0,,30.05,,10.0,,OVC,,,,1700.0,,,,,,,,,,,,KLGA 100215Z AUTO 19004KT 10SM OVC017 10/07 A3005 RMK T01000070 MADISHF,
LGA,2026-01-09 21:20,-73.8803,40.7794,9.0,,,,200.0,5.0,,30.05,,10.0,,OVC,,,,1700.0,,,,,,,,,,,,KLGA 100220Z AUTO 20005KT 10SM OVC017 10/07 A3005 RMK T01000070 MADISHF,
LGA,2026-01-09 21:25,-73.8803,40.7794,9.0,,,,210.0,3.0,,30.05,,10.0,,OVC,,,,1700.0,,,,,,,,,,,,KLGA 100225Z AUTO 21003KT 10SM OVC017 11/08 A3005 RMK T01100080 MADISHF,
LGA,2026-01-09 21:30,-73.8803,40.7794,9.0,,,,220.0,3.0,,30.05,,10.0,,OVC,,,,1700.0,,,,,,,,,,,,KLGA 100230Z AUTO 22003KT 10SM OVC017 11/08 A3005 RMK T01100080 MADISHF,
LGA,2026-01-09 21:35,-73.8803,40.7794,9.0,,,,230.0,5.0,,30.05,,10.0,,OVC,,,,1500.0,,,,,,,,,,,,KLGA 100235Z AUTO 23005KT 10SM OVC015 11/08 A3005 RMK T01100080 MADISHF,
LGA,2026-01-09 21:40,-73.8803,40.7794,9.0,,,,250.0,5.0,,30.06,,10.0,,OVC,,,,1500.0,,,,,,,,,,,,KLGA 100240Z AUTO 25005KT 10SM OVC015 12/08 A3006 RMK T01200080 MADISHF,
LGA,2026-01-09 21:45,-73.8803,40.7794,9.0,,,,240.0,9.0,,30.06,,10.0,,OVC,,,,1500.0,,,,,,,,,,,,KLGA 100245Z AUTO 24009KT 10SM OVC015 12/09 A3006 RMK T01200090 MADISHF,
LGA,2026-01-09 21:50,-73.8803,40.7794,9.0,,,,240.0,8.0,,30.06,,10.0,,FEW,OVC,,,800.0,1500.0,,,,,,,,,,,KLGA 100250Z AUTO 24008KT 10SM FEW008 OVC015 12/09 A3006 RMK T01200090 MADISHF,
LGA,2026-01-09 21:51,-73.8803,40.7794,9.0,53.0,48.0,83.06,240.0,7.0,0.00,30.06,1017.7,10.0,,FEW,OVC,,,800.0,1500.0,,,,,,,,,,53.0,KLGA 100251Z 24007KT 10SM FEW008 OVC015 12/09 A3006 RMK AO2 SLP177 60000 T01170089 51010,
LGA,2026-01-09 21:55,-73.8803,40.7794,9.0,,,,240.0,16.0,,30.06,,10.0,,FEW,OVC,,,800.0,1500.0,,,,,,,,,,,KLGA 100255Z AUTO 24016KT 10SM FEW008 OVC015 12/09 A3006 RMK T01200090 MADISHF,
LGA,2026-01-09 22:00,-73.8803,40.7794,9.0,,,,240.0,11.0,,30.06,,10.0,,FEW,OVC,,,800.0,1500.0,,,,,,,,,,,KLGA 100300Z AUTO 24011KT 10SM FEW008 OVC015 12/09 A3006 RMK T01200090 MADISHF,
LGA,2026-01-09 22:05,-73.8803,40.7794,9.0,,,,240.0,12.0,,30.06,,10.0,,FEW,OVC,,,800.0,1500.0,,,,,,,,,,,KLGA 100305Z AUTO 24012KT 10SM FEW008 OVC015 12/09 A3006 RMK T01200090 MADISHF,
LGA,2026-01-09 22:10,-73.8803,40.7794,9.0,,,,240.0,14.0,,30.06,,10.0,,FEW,OVC,,,800.0,1500.0,,,,,,,,,,,KLGA 100310Z AUTO 24014KT 10SM FEW008 OVC015 12/09 A3006 RMK T01200090 MADISHF,
LGA,2026-01-09 22:15,-73.8803,40.7794,9.0,,,,240.0,13.0,,30.07,,10.0,,FEW,OVC,,,800.0,1500.0,,,,,,,,,,,KLGA 100315Z AUTO 24013KT 10SM FEW008 OVC015 12/09 A3007 RMK T01200090 MADISHF,
LGA,2026-01-09 22:20,-73.8803,40.7794,9.0,,,,250.0,14.0,,30.07,,10.0,,FEW,OVC,,,800.0,1500.0,,,,,,,,,,,KLGA 100320Z AUTO 25014KT 10SM FEW008 OVC015 12/09 A3007 RMK T01200090 MADISHF,
LGA,2026-01-09 22:25,-73.8803,40.7794,9.0,,,,240.0,12.0,,30.07,,10.0,18.0,FEW,OVC,,,800.0,1500.0,,,,,,,,,,,KLGA 100325Z AUTO 24012G18KT 10SM FEW008 OVC015 12/09 A3007 RMK T01200090 MADISHF,
LGA,2026-01-09 22:30,-73.8803,40.7794,9.0,,,,260.0,14.0,,30.07,,10.0,,FEW,OVC,,,800.0,1500.0,,,,,,,,,,,KLGA 100330Z AUTO 26014KT 10SM FEW008 OVC015 12/09 A3007 RMK T01200090 MADISHF,
LGA,2026-01-09 22:35,-73.8803,40.7794,9.0,,,,270.0,16.0,,30.07,,10.0,22.0,FEW,OVC,,,800.0,1300.0,,,,,,,,,,,KLGA 100335Z AUTO 27016G22KT 10SM FEW008 OVC013 12/09 A3007 RMK T01200090 MADISHF,
LGA,2026-01-09 22:35,-73.8803,40.7794,9.0,54.0,48.0,80.08,270.0,16.0,0.00,30.07,,10.0,23.0,FEW,OVC,,,800.0,1300.0,,,,,,,,,,54.0,KLGA 100335Z 27016G23KT 10SM FEW008 OVC013 12/09 A3007 RMK AO2 T01220089,
LGA,2026-01-09 22:40,-73.8803,40.7794,9.0,,,,260.0,15.0,,30.08,,10.0,22.0,FEW,OVC,,,800.0,1300.0,,,,,,,,,,,KLGA 100340Z AUTO 26015G22KT 10SM FEW008 OVC013 12/09 A3008 RMK T01200090 MADISHF,
LGA,2026-01-09 22:45,-73.8803,40.7794,9.0,,,,,,,30.09,,10.0,23.0,FEW,OVC,,,800.0,1300.0,,,,,,,,,,,KLGA 100345Z AUTO /////G23KT 10SM FEW008 OVC013 12/09 A3009 RMK T01200090 MADISHF,
LGA,2026-01-09 22:50,-73.8803,40.7794,9.0,,,,270.0,13.0,,30.09,,10.0,,FEW,OVC,,,800.0,1300.0,,,,,,,,,,,KLGA 100350Z AUTO 27013KT 10SM FEW008 OVC013 12/09 A3009 RMK T01200090 MADISHF,
LGA,2026-01-09 22:51,-73.8803,40.7794,9.0,53.0,48.0,83.06,270.0,14.0,0.00,30.09,1018.9,10.0,25.0,FEW,OVC,,,800.0,1300.0,,,,,,,,,,53.0,KLGA 100351Z 27014G25KT 10SM FEW008 OVC013 12/09 A3009 RMK AO2 SLP189 T01170089,
LGA,2026-01-09 22:55,-73.8803,40.7794,9.0,,,,260.0,15.0,,30.09,,10.0,23.0,FEW,OVC,,,800.0,1300.0,,,,,,,,,,,KLGA 100355Z AUTO 26015G23KT 10SM FEW008 OVC013 12/09 A3009 RMK T01200090 MADISHF,
LGA,2026-01-09 23:00,-73.8803,40.7794,9.0,,,,270.0,18.0,,30.09,,10.0,,FEW,OVC,,,800.0,1300.0,,,,,,,,,,,KLGA 100400Z AUTO 27018KT 10SM FEW008 OVC013 12/09 A3009 RMK T01200090 MADISHF,
LGA,2026-01-09 23:05,-73.8803,40.7794,9.0,,,,260.0,14.0,,30.09,,10.0,19.0,FEW,OVC,,,800.0,1300.0,,,,,,,,,,,KLGA 100405Z AUTO 26014G19KT 10SM FEW008 OVC013 12/09 A3009 RMK T01200090 MADISHF,
LGA,2026-01-09 23:10,-73.8803,40.7794,9.0,,,,260.0,15.0,,30.09,,10.0,,FEW,OVC,,,800.0,1300.0,,,,,,,,,,,KLGA 100410Z AUTO 26015KT 10SM FEW008 OVC013 12/09 A3009 RMK T01200090 MADISHF,
LGA,2026-01-09 23:15,-73.8803,40.7794,9.0,,,,260.0,11.0,,30.09,,10.0,16.0,FEW,OVC,,,800.0,1300.0,,,,,,,,,,,KLGA 100415Z AUTO 26011G16KT 10SM FEW008 OVC013 12/08 A3009 RMK T01200080 MADISHF,
LGA,2026-01-09 23:20,-73.8803,40.7794,9.0,,,,250.0,14.0,,30.1,,10.0,,FEW,OVC,,,800.0,1300.0,,,,,,,,,,,KLGA 100420Z AUTO 25014KT 10SM FEW008 OVC013 12/08 A3010 RMK T01200080 MADISHF,
LGA,2026-01-09 23:25,-73.8803,40.7794,9.0,,,,250.0,11.0,,30.09,,10.0,,FEW,OVC,,,800.0,1300.0,,,,,,,,,,,KLGA 100425Z AUTO 25011KT 10SM FEW008 OVC013 12/08 A3009 RMK T01200080 MADISHF,
LGA,2026-01-09 23:30,-73.8803,40.7794,9.0,,,,260.0,11.0,,30.09,,10.0,16.0,FEW,OVC,,,800.0,1300.0,,,,,,,,,,,KLGA 100430Z AUTO 26011G16KT 10SM FEW008 OVC013 12/08 A3009 RMK T01200080 MADISHF,
LGA,2026-01-09 23:35,-73.8803,40.7794,9.0,,,,260.0,13.0,,30.09,,10.0,,FEW,OVC,,,800.0,1300.0,,,,,,,,,,,KLGA 100435Z AUTO 26013KT 10SM FEW008 OVC013 12/08 A3009 RMK T01200080 MADISHF,
LGA,2026-01-09 23:40,-73.8803,40.7794,9.0,,,,260.0,10.0,,30.09,,10.0,,FEW,OVC,,,800.0,1300.0,,,,,,,,,,,KLGA 100440Z AUTO 26010KT 10SM FEW008 OVC013 12/08 A3009 RMK T01200080 MADISHF,
LGA,2026-01-09 23:43,-73.8803,40.7794,9.0,53.0,47.0,80.0,250.0,9.0,0.00,30.09,,10.0,21.0,SCT,BKN,OVC,,1300.0,1600.0,2200.0,,,,,,30.0,240.0,2026-01-09 22:57,53.0,KLGA 100443Z 25009G21KT 10SM SCT013 BKN016 OVC022 12/08 A3009 RMK AO2 PK WND 24030/0357 T01170083,
LGA,2026-01-09 23:45,-73.8803,40.7794,9.0,,,,250.0,8.0,,30.09,,10.0,,SCT,BKN,OVC,,1300.0,1600.0,2200.0,,,,,,,,,,KLGA 100445Z AUTO 25008KT 10SM SCT013 BKN016 OVC022 12/08 A3009 RMK T01200080 MADISHF,
LGA,2026-01-09 23:50,-73.8803,40.7794,9.0,,,,250.0,9.0,,30.09,,10.0,,SCT,BKN,OVC,,1300.0,1600.0,2200.0,,,,,,,,,,KLGA 100450Z AUTO 25009KT 10SM SCT013 BKN016 OVC022 12/08 A3009 RMK T01200080 MADISHF,
LGA,2026-01-09 23:51,-73.8803,40.7794,9.0,53.0,47.0,80.0,250.0,8.0,0.00,30.09,1018.9,10.0,,SCT,BKN,OVC,,1300.0,1600.0,2200.0,,,,,,30.0,240.0,2026-01-09 22:57,53.0,KLGA 100451Z 25008KT 10SM SCT013 BKN016 OVC022 12/08 A3009 RMK AO2 PK WND 24030/0357 SLP189 T01170083 401220017,
LGA,2026-01-09 23:55,-73.8803,40.7794,9.0,,,,250.0,9.0,,30.09,,10.0,14.0,OVC,,,,1800.0,,,,,,,,,,,,KLGA 100455Z AUTO 25009G14KT 10SM OVC018 12/08 A3009 RMK T01200080 MADISHF,
LGA,2026-01-10 00:00,-73.8803,40.7794,9.0,,,,250.0,9.0,,30.09,,10.0,,FEW,BKN,OVC,,1300.0,1800.0,2400.0,,,,,,,,,,KLGA 100500Z AUTO 25009KT 10SM FEW013 BKN018 OVC024 12/08 A3009 RMK T01200080 MADISHF,
LGA,2026-01-10 00:05,-73.8803,40.7794,9.0,,,,250.0,9.0,,30.09,,10.0,,FEW,BKN,OVC,,1300.0,1800.0,2400.0,,,,,,,,,,KLGA 100505Z AUTO 25009KT 10SM FEW013 BKN018 OVC024 12/08 A3009 RMK T01200080 MADISHF,
LGA,2026-01-10 00:10,-73.8803,40.7794,9.0,,,,240.0,10.0,,30.09,,10.0,,FEW,BKN,OVC,,1300.0,1800.0,2400.0,,,,,,,,,,KLGA 100510Z AUTO 24010KT 10SM FEW013 BKN018 OVC024 12/08 A3009 RMK T01200080 MADISHF,
LGA,2026-01-10 00:15,-73.8803,40.7794,9.0,,,,260.0,7.0,,30.09,,10.0,,FEW,BKN,OVC,,1300.0,1800.0,2400.0,,,,,,,,,,KLGA 100515Z AUTO 26007KT 10SM FEW013 BKN018 OVC024 12/08 A3009 RMK T01200080 MADISHF,
LGA,2026-01-10 00:20,-73.8803,40.7794,9.0,,,,260.0,6.0,,30.1,,10.0,,FEW,BKN,OVC,,1300.0,1800.0,2400.0,,,,,,,,,,KLGA 100520Z AUTO 26006KT 10SM FEW013 BKN018 OVC024 11/08 A3010 RMK T01100080 MADISHF,
LGA,2026-01-10 00:25,-73.8803,40.7794,9.0,,,,260.0,6.0,,30.1,,10.0,,FEW,BKN,OVC,,1300.0,1800.0,2400.0,,,,,,,,,,KLGA 100525Z AUTO 26006KT 10SM FEW013 BKN018 OVC024 12/08 A3010 RMK T01200080 MADISHF,
LGA,2026-01-10 00:30,-73.8803,40.7794,9.0,,,,280.0,7.0,,30.1,,10.0,,FEW,BKN,OVC,,1300.0,1800.0,2400.0,,,,,,,,,,KLGA 100530Z AUTO 28007KT 10SM FEW013 BKN018 OVC024 11/08 A3010 RMK T01100080 MADISHF,
LGA,2026-01-10 00:35,-73.8803,40.7794,9.0,,,,280.0,9.0,,30.1,,10.0,,FEW,BKN,OVC,,1300.0,1800.0,2400.0,,,,,,,,,,KLGA 100535Z AUTO 28009KT 10SM FEW013 BKN018 OVC024 11/08 A3010 RMK T01100080 MADISHF,
LGA,2026-01-10 00:40,-73.8803,40.7794,9.0,,,,280.0,8.0,,30.1,,10.0,,FEW,BKN,OVC,,1300.0,1800.0,2400.0,,,,,,,,,,KLGA 100540Z AUTO 28008KT 10SM FEW013 BKN018 OVC024 11/08 A3010 RMK T01100080 MADISHF,
LGA,2026-01-10 00:45,-73.8803,40.7794,9.0,51.8,46.4,81.74,290.0,8.0,0.00,30.1,,10.0,,SCT,BKN,,,1600.0,24000.0,,,,,,,,,,51.8,KLGA 100545Z 29008KT 10SM SCT016 BKN240 11/08 A3010 RMK AO2,
LGA,2026-01-10 00:45,-73.8803,40.7794,9.0,,,,290.0,8.0,,30.1,,10.0,,SCT,,,,1600.0,,,,,,,,,,,,KLGA 100545Z AUTO 29008KT 10SM SCT016 11/08 A3010 RMK T01100080 MADISHF,
LGA,2026-01-10 00:50,-73.8803,40.7794,9.0,,,,300.0,11.0,,30.11,,10.0,,SCT,,,,1600.0,,,,,,,,,,,,KLGA 100550Z AUTO 30011KT 10SM SCT016 11/07 A3011 RMK T01100070 MADISHF,
LGA,2026-01-10 00:51,-73.8803,40.7794,9.0,52.0,46.0,79.92,300.0,11.0,0.00,30.11,1019.6,10.0,,SCT,BKN,,,1600.0,24000.0,,,,,,,,,,52.0,KLGA 100551Z 30011KT 10SM SCT016 BKN240 11/08 A3011 RMK AO2 SLP196 60000 T01110078 10122 20089 51019,
LGA,2026-01-10 00:55,-73.8803,40.7794,9.0,,,,290.0,8.0,,30.11,,10.0,,CLR,,,,,,,,,,,,,,,,KLGA 100555Z AUTO 29008KT 10SM CLR 11/07 A3011 RMK T01100070 MADISHF,
LGA,2026-01-10 01:00,-73.8803,40.7794,9.0,,,,270.0,8.0,,30.11,,10.0,,CLR,,,,,,,,,,,,,,,,KLGA 100600Z AUTO 27008KT 10SM CLR 11/07 A3011 RMK T01100070 MADISHF,
LGA,2026-01-10 01:05,-73.8803,40.7794,9.0,,,,270.0,7.0,,30.11,,10.0,,CLR,,,,,,,,,,,,,,,,KLGA 100605Z AUTO 27007KT 10SM CLR 11/07 A3011 RMK T01100070 MADISHF,
LGA,2026-01-10 01:10,-73.8803,40.7794,9.0,,,,290.0,8.0,,30.11,,10.0,,CLR,,,,,,,,,,,,,,,,KLGA 100610Z AUTO 29008KT 10SM CLR 11/07 A3011 RMK T01100070 MADISHF,
LGA,2026-01-10 01:15,-73.8803,40.7794,9.0,,,,300.0,8.0,,30.11,,10.0,,CLR,,,,,,,,,,,,,,,,KLGA 100615Z AUTO 30008KT 10SM CLR 11/07 A3011 RMK T01100070 MADISHF,
LGA,2026-01-10 01:20,-73.8803,40.7794,9.0,,,,300.0,10.0,,30.12,,10.0,,CLR,,,,,,,,,,,,,,,,KLGA 100620Z AUTO 30010KT 10SM CLR 11/07 A3012 RMK T01100070 MADISHF,
LGA,2026-01-10 01:25,-73.8803,40.7794,9.0,,,,300.0,9.0,,30.12,,10.0,,CLR,,,,,,,,,,,,,,,,KLGA 100625Z AUTO 30009KT 10SM CLR 11/07 A3012 RMK T01100070 MADISHF,
LGA,2026-01-10 01:30,-73.8803,40.7794,9.0,,,,290.0,10.0,,30.12,,10.0,,CLR,,,,,,,,,,,,,,,,KLGA 100630Z AUTO 29010KT 10SM CLR 11/07 A3012 RMK T01100070 MADISHF,
LGA,2026-01-10 01:35,-73.8803,40.7794,9.0,,,,290.0,8.0,,30.12,,10.0,,CLR,,,,,,,,,,,,,,,,KLGA 100635Z AUTO 29008KT 10SM CLR 10/07 A3012 RMK T01000070 MADISHF,
LGA,2026-01-10 01:40,-73.8803,40.7794,9.0,,,,290.0,10.0,,30.12,,10.0,,CLR,,,,,,,,,,,,,,,,KLGA 100640Z AUTO 29010KT 10SM CLR 10/07 A3012 RMK T01000070 MADISHF,
LGA,2026-01-10 01:45,-73.8803,40.7794,9.0,,,,290.0,10.0,,30.12,,10.0,,CLR,,,,,,,,,,,,,,,,KLGA 100645Z AUTO 29010KT 10SM CLR 10/07 A3012 RMK T01000070 MADISHF,
LGA,2026-01-10 01:50,-73.8803,40.7794,9.0,,,,280.0,10.0,,30.12,,10.0,,FEW,,,,1600.0,,,,,,,,,,,,KLGA 100650Z AUTO 28010KT 10SM FEW016 11/07 A3012 RMK T01100070 MADISHF,
LGA,2026-01-10 01:51,-73.8803,40.7794,9.0,51.0,44.0,76.85,280.0,10.0,0.00,30.11,1019.7,10.0,,FEW,BKN,,,1600.0,25000.0,,,,,,,,,,51.0,KLGA 100651Z 28010KT 10SM FEW016 BKN250 11/07 A3011 RMK AO2 SLP197 T01060067,
LGA,2026-01-10 01:55,-73.8803,40.7794,9.0,,,,300.0,7.0,,30.12,,10.0,,CLR,,,,,,,,,,,,,,,,KLGA 100655Z AUTO 30007KT 10SM CLR 11/07 A3012 RMK T01100070 MADISHF,
LGA,2026-01-10 02:00,-73.8803,40.7794,9.0,,,,310.0,6.0,,30.13,,10.0,,CLR,,,,,,,,,,,,,,,,KLGA 100700Z AUTO 31006KT 10SM CLR 10/06 A3013 RMK T01000060 MADISHF,
LGA,2026-01-10 02:05,-73.8803,40.7794,9.0,,,,290.0,8.0,,30.13,,10.0,,CLR,,,,,,,,,,,,,,,,KLGA 100705Z AUTO 29008KT 10SM CLR 09/06 A3013 RMK T00900060 MADISHF,
LGA,2026-01-10 02:10,-73.8803,40.7794,9.0,,,,300.0,11.0,,30.13,,10.0,,CLR,,,,,,,,,,,,,,,,KLGA 100710Z AUTO 30011KT 10SM CLR 09/06 A3013 RMK T00900060 MADISHF,
LGA,2026-01-10 02:15,-73.8803,40.7794,9.0,,,,300.0,12.0,,30.13,,10.0,,CLR,,,,,,,,,,,,,,,,KLGA 100715Z AUTO 30012KT 10SM CLR 09/06 A3013 RMK T00900060 MADISHF,
LGA,2026-01-10 02:20,-73.8803,40.7794,9.0,,,,310.0,9.0,,30.14,,10.0,,CLR,,,,,,,,,,,,,,,,KLGA 100720Z AUTO 31009KT 10SM CLR 09/06 A3014 RMK T00900060 MADISHF,
LGA,2026-01-10 02:25,-73.8803,40.7794,9.0,,,,310.0,8.0,,30.14,,10.0,,CLR,,,,,,,,,,,,,,,,KLGA 100725Z AUTO 31008KT 10SM CLR 09/06 A3014 RMK T00900060 MADISHF,
LGA,2026-01-10 02:30,-73.8803,40.7794,9.0,,,,310.0,5.0,,30.13,,10.0,,CLR,,,,,,,,,,,,,,,,KLGA 100730Z AUTO 31005KT 10SM CLR 08/05 A3013 RMK T00800050 MADISHF,
LGA,2026-01-10 02:35,-73.8803,40.7794,9.0,,,,330.0,4.0,,30.14,,10.0,,CLR,,,,,,,,,,,,,,,,KLGA 100735Z AUTO 33004KT 10SM CLR 08/05 A3014 RMK T00800050 MADISHF,
LGA,2026-01-10 02:40,-73.8803,40.7794,9.0,,,,330.0,7.0,,30.14,,10.0,,CLR,,,,,,,,,,,,,,,,KLGA 100740Z AUTO 33007KT 10SM CLR 09/05 A3014 RMK T00900050 MADISHF,
LGA,2026-01-10 02:45,-73.8803,40.7794,9.0,,,,330.0,9.0,,30.14,,10.0,,,,,,,,,,,,,,,,,,KLGA 100745Z AUTO 33009KT 10SM 09/06 A3014 RMK T00900060 MADISHF,
LGA,2026-01-10 02:50,-73.8803,40.7794,9.0,,,,330.0,10.0,,30.14,,10.0,,,,,,,,,,,,,,,,,,KLGA 100750Z AUTO 33010KT 10SM 09/06 A3014 RMK T00900060 MADISHF,
LGA,2026-01-10 02:51,-73.8803,40.7794,9.0,49.0,42.0,76.67,330.0,9.0,0.00,30.14,1020.6,10.0,,BKN,,,,25000.0,,,,,,,,,,,44.65,KLGA 100751Z 33009KT 10SM BKN250 09/06 A3014 RMK AO2 SLP206 T00940056,
LGA,2026-01-10 02:55,-73.8803,40.7794,9.0,,,,330.0,9.0,,30.14,,10.0,,CLR,,,,,,,,,,,,,,,,KLGA 100755Z AUTO 33009KT 10SM CLR 09/05 A3014 RMK T00900050 MADISHF,
LGA,2026-01-10 03:00,-73.8803,40.7794,9.0,,,,330.0,8.0,,30.14,,10.0,,CLR,,,,,,,,,,,,,,,,KLGA 100800Z AUTO 33008KT 10SM CLR 09/05 A3014 RMK T00900050 MADISHF,
LGA,2026-01-10 03:05,-73.8803,40.7794,9.0,,,,340.0,8.0,,30.14,,10.0,,CLR,,,,,,,,,,,,,,,,KLGA 100805Z AUTO 34008KT 10SM CLR 09/05 A3014 RMK T00900050 MADISHF,
LGA,2026-01-10 03:10,-73.8803,40.7794,9.0,,,,330.0,8.0,,30.15,,10.0,,CLR,,,,,,,,,,,,,,,,KLGA 100810Z AUTO 33008KT 10SM CLR 09/04 A3015 RMK T00900040 MADISHF,
LGA,2026-01-10 03:15,-73.8803,40.7794,9.0,,,,320.0,8.0,,30.14,,10.0,,CLR,,,,,,,,,,,,,,,,KLGA 100815Z AUTO 32008KT 10SM CLR 09/04 A3014 RMK T00900040 MADISHF,
LGA,2026-01-10 03:20,-73.8803,40.7794,9.0,,,,330.0,7.0,,30.15,,10.0,,CLR,,,,,,,,,,,,,,,,KLGA 100820Z AUTO 33007KT 10SM CLR 09/04 A3015 RMK T00900040 MADISHF,
LGA,2026-01-10 03:25,-73.8803,40.7794,9.0,,,,330.0,8.0,,30.14,,10.0,,CLR,,,,,,,,,,,,,,,,KLGA 100825Z AUTO 33008KT 10SM CLR 09/04 A3014 RMK T00900040 MADISHF,
LGA,2026-01-10 03:30,-73.8803,40.7794,9.0,,,,320.0,8.0,,30.15,,10.0,,CLR,,,,,,,,,,,,,,,,KLGA 100830Z AUTO 32008KT 10SM CLR 09/03 A3015 RMK T00900030 MADISHF,
LGA,2026-01-10 03:35,-73.8803,40.7794,9.0,,,,320.0,7.0,,30.16,,10.0,,CLR,,,,,,,,,,,,,,,,KLGA 100835Z AUTO 32007KT 10SM CLR 08/03 A3016 RMK T00800030 MADISHF,
LGA,2026-01-10 03:40,-73.8803,40.7794,9.0,,,,310.0,6.0,,30.16,,10.0,,CLR,,,,,,,,,,,,,,,,KLGA 100840Z AUTO 31006KT 10SM CLR 08/03 A3016 RMK T00800030 MADISHF,
LGA,2026-01-10 03:45,-73.8803,40.7794,9.0,,,,300.0,6.0,,30.16,,10.0,,,,,,,,,,,,,,,,,,KLGA 100845Z AUTO 30006KT 10SM 08/03 A3016 RMK T00800030 MADISHF,
LGA,2026-01-10 03:50,-73.8803,40.7794,9.0,,,,310.0,9.0,,30.16,,10.0,,,,,,,,,,,,,,,,,,KLGA 100850Z AUTO 31009KT 10SM 07/03 A3016 RMK T00700030 MADISHF,
LGA,2026-01-10 03:51,-73.8803,40.7794,9.0,46.0,38.0,73.46,320.0,9.0,0.00,30.16,1021.2,10.0,,BKN,,,,25000.0,,,,,,,,,,,40.92,KLGA 100851Z 32009KT 10SM BKN250 08/03 A3016 RMK AO2 SLP212 T00780033 53016,
LGA,2026-01-10 03:55,-73.8803,40.7794,9.0,,,,320.0,8.0,,30.16,,10.0,,,,,,,,,,,,,,,,,,KLGA 100855Z AUTO 32008KT 10SM 08/03 A3016 RMK T00800030 MADISHF,
LGA,2026-01-10 04:00,-73.8803,40.7794,9.0,,,,320.0,8.0,,30.16,,10.0,,,,,,,,,,,,,,,,,,KLGA 100900Z AUTO 32008KT 10SM 07/03 A3016 RMK T00700030 MADISHF,
LGA,2026-01-10 04:05,-73.8803,40.7794,9.0,,,,320.0,9.0,,30.16,,10.0,,,,,,,,,,,,,,,,,,KLGA 100905Z AUTO 32009KT 10SM 08/03 A3016 RMK T00800030 MADISHF,
LGA,2026-01-10 04:10,-73.8803,40.7794,9.0,,,,320.0,9.0,,30.16,,10.0,,,,,,,,,,,,,,,,,,KLGA 100910Z AUTO 32009KT 10SM 08/03 A3016 RMK T00800030 MADISHF,
LGA,2026-01-10 04:15,-73.8803,40.7794,9.0,,,,320.0,8.0,,30.16,,10.0,,,,,,,,,,,,,,,,,,KLGA 100915Z AUTO 32008KT 10SM 08/03 A3016 RMK T00800030 MADISHF,
LGA,2026-01-10 04:20,-73.8803,40.7794,9.0,,,,330.0,11.0,,30.16,,10.0,,,,,,,,,,,,,,,,,,KLGA 100920Z AUTO 33011KT 10SM 08/03 A3016 RMK T00800030 MADISHF,
LGA,2026-01-10 04:25,-73.8803,40.7794,9.0,,,,320.0,8.0,,30.17,,10.0,,,,,,,,,,,,,,,,,,KLGA 100925Z AUTO 32008KT 10SM 09/03 A3017 RMK T00900030 MADISHF,
LGA,2026-01-10 04:30,-73.8803,40.7794,9.0,,,,320.0,9.0,,30.17,,10.0,,,,,,,,,,,,,,,,,,KLGA 100930Z AUTO 32009KT 10SM 09/02 A3017 RMK T00900020 MADISHF,
LGA,2026-01-10 04:35,-73.8803,40.7794,9.0,,,,320.0,10.0,,30.17,,10.0,,,,,,,,,,,,,,,,,,KLGA 100935Z AUTO 32010KT 10SM 08/02 A3017 RMK T00800020 MADISHF,
LGA,2026-01-10 04:40,-73.8803,40.7794,9.0,,,,320.0,9.0,,30.18,,10.0,,,,,,,,,,,,,,,,,,KLGA 100940Z AUTO 32009KT 10SM 08/02 A3018 RMK T00800020 MADISHF,
LGA,2026-01-10 04:45,-73.8803,40.7794,9.0,,,,330.0,8.0,,30.17,,10.0,,,,,,,,,,,,,,,,,,KLGA 100945Z AUTO 33008KT 10SM 08/02 A3017 RMK T00800020 MADISHF,
LGA,2026-01-10 04:50,-73.8803,40.7794,9.0,,,,330.0,8.0,,30.17,,10.0,,,,,,,,,,,,,,,,,,KLGA 100950Z AUTO 33008KT 10SM 08/02 A3017 RMK T00800020 MADISHF,
LGA,2026-01-10 04:51,-73.8803,40.7794,9.0,47.0,35.0,62.83,330.0,8.0,0.00,30.17,1021.6,10.0,,BKN,,,,25000.0,,,,,,,,,,,42.59,KLGA 100951Z 33008KT 10SM BKN250 08/02 A3017 RMK AO2 SLP216 T00830017,
LGA,2026-01-10 04:55,-73.8803,40.7794,9.0,,,,330.0,6.0,,30.18,,10.0,,,,,,,,,,,,,,,,,,KLGA 100955Z AUTO 33006KT 10SM 08/01 A3018 RMK T00800010 MADISHF,
LGA,2026-01-10 05:00,-73.8803,40.7794,9.0,,,,330.0,10.0,,30.17,,10.0,,,,,,,,,,,,,,,,,,KLGA 101000Z AUTO 33010KT 10SM 08/02 A3017 RMK T00800020 MADISHF,
LGA,2026-01-10 05:05,-73.8803,40.7794,9.0,,,,330.0,10.0,,30.17,,10.0,,,,,,,,,,,,,,,,,,KLGA 101005Z AUTO 33010KT 10SM 08/01 A3017 RMK T00800010 MADISHF,
LGA,2026-01-10 05:10,-73.8803,40.7794,9.0,,,,330.0,8.0,,30.17,,10.0,,,,,,,,,,,,,,,,,,KLGA 101010Z AUTO 33008KT 10SM 08/01 A3017 RMK T00800010 MADISHF,
LGA,2026-01-10 05:15,-73.8803,40.7794,9.0,,,,340.0,8.0,,30.17,,10.0,,,,,,,,,,,,,,,,,,KLGA 101015Z AUTO 34008KT 10SM 08/01 A3017 RMK T00800010 MADISHF,
LGA,2026-01-10 05:20,-73.8803,40.7794,9.0,,,,340.0,6.0,,30.18,,10.0,,,,,,,,,,,,,,,,,,KLGA 101020Z AUTO 34006KT 10SM 08/01 A3018 RMK T00800010 MADISHF,
LGA,2026-01-10 05:25,-73.8803,40.7794,9.0,,,,330.0,6.0,,30.18,,10.0,,,,,,,,,,,,,,,,,,KLGA 101025Z AUTO 33006KT 10SM 08/01 A3018 RMK T00800010 MADISHF,
LGA,2026-01-10 05:30,-73.8803,40.7794,9.0,,,,330.0,10.0,,30.18,,10.0,,,,,,,,,,,,,,,,,,KLGA 101030Z AUTO 33010KT 10SM 08/01 A3018 RMK T00800010 MADISHF,
LGA,2026-01-10 05:35,-73.8803,40.7794,9.0,,,,330.0,11.0,,30.19,,10.0,,,,,,,,,,,,,,,,,,KLGA 101035Z AUTO 33011KT 10SM 08/01 A3019 RMK T00800010 MADISHF,
LGA,2026-01-10 05:40,-73.8803,40.7794,9.0,,,,330.0,8.0,,30.18,,10.0,,,,,,,,,,,,,,,,,,KLGA 101040Z AUTO 33008KT 10SM 07/01 A3018 RMK T00700010 MADISHF,
LGA,2026-01-10 05:45,-73.8803,40.7794,9.0,,,,340.0,9.0,,30.18,,10.0,14.0,,,,,,,,,,,,,,,,,KLGA 101045Z AUTO 34009G14KT 10SM 07/01 A3018 RMK T00700010 MADISHF,
LGA,2026-01-10 05:50,-73.8803,40.7794,9.0,,,,350.0,10.0,,30.18,,10.0,,,,,,,,,,,,,,,,,,KLGA 101050Z AUTO 35010KT 10SM 07/01 A3018 RMK T00700010 MADISHF,
LGA,2026-01-10 05:51,-73.8803,40.7794,9.0,45.0,33.0,62.56,340.0,9.0,0.00,30.18,1021.8,10.0,,BKN,,,,25000.0,,,,,,,,,,,39.68,KLGA 101051Z 34009KT 10SM BKN250 07/01 A3018 RMK AO2 SLP218 T00720006,
LGA,2026-01-10 05:55,-73.8803,40.7794,9.0,,,,350.0,9.0,,30.18,,10.0,,CLR,,,,,,,,,,,,,,,,KLGA 101055Z AUTO 35009KT 10SM CLR 07/01 A3018 RMK T00700010 MADISHF,
LGA,2026-01-10 06:00,-73.8803,40.7794,9.0,,,,330.0,11.0,,30.18,,10.0,,CLR,,,,,,,,,,,,,,,,KLGA 101100Z AUTO 33011KT 10SM CLR 07/01 A3018 RMK T00700010 MADISHF,
LGA,2026-01-10 06:05,-73.8803,40.7794,9.0,,,,340.0,10.0,,30.18,,10.0,,,,,,,,,,,,,,,,,,KLGA 101105Z AUTO 34010KT 10SM 07/01 A3018 RMK T00700010 MADISHF,
LGA,2026-01-10 06:10,-73.8803,40.7794,9.0,,,,330.0,10.0,,30.18,,10.0,,,,,,,,,,,,,,,,,,KLGA 101110Z AUTO 33010KT 10SM 07/01 A3018 RMK T00700010 MADISHF,
LGA,2026-01-10 06:15,-73.8803,40.7794,9.0,,,,330.0,9.0,,30.19,,10.0,,,,,,,,,,,,,,,,,,KLGA 101115Z AUTO 33009KT 10SM 07/01 A3019 RMK T00700010 MADISHF,
LGA,2026-01-10 06:20,-73.8803,40.7794,9.0,,,,340.0,8.0,,30.19,,10.0,,,,,,,,,,,,,,,,,,KLGA 101120Z AUTO 34008KT 10SM 07/M00 A3019 RMK T00701000 MADISHF,
LGA,2026-01-10 06:25,-73.8803,40.7794,9.0,,,,340.0,8.0,,30.19,,10.0,,,,,,,,,,,,,,,,,,KLGA 101125Z AUTO 34008KT 10SM 07/M00 A3019 RMK T00701000 MADISHF,
LGA,2026-01-10 06:30,-73.8803,40.7794,9.0,,,,350.0,10.0,,30.19,,10.0,,,,,,,,,,,,,,,,,,KLGA 101130Z AUTO 35010KT 10SM 07/M00 A3019 RMK T00701000 MADISHF,
LGA,2026-01-10 06:35,-73.8803,40.7794,9.0,,,,350.0,8.0,,30.19,,10.0,,,,,,,,,,,,,,,,,,KLGA 101135Z AUTO 35008KT 10SM 07/M00 A3019 RMK T00701000 MADISHF,
LGA,2026-01-10 06:40,-73.8803,40.7794,9.0,,,,350.0,7.0,,30.19,,10.0,,,,,,,,,,,,,,,,,,KLGA 101140Z AUTO 35007KT 10SM 07/M00 A3019 RMK T00701000 MADISHF,
LGA,2026-01-10 06:45,-73.8803,40.7794,9.0,,,,350.0,7.0,,30.19,,10.0,,,,,,,,,,,,,,,,,,KLGA 101145Z AUTO 35007KT 10SM 07/M00 A3019 RMK T00701000 MADISHF,
LGA,2026-01-10 06:50,-73.8803,40.7794,9.0,,,,350.0,6.0,,30.2,,10.0,,,,,,,,,,,,,,,,,,KLGA 101150Z AUTO 35006KT 10SM 07/M00 A3020 RMK T00701000 MADISHF,
LGA,2026-01-10 06:51,-73.8803,40.7794,9.0,44.0,32.0,62.43,350.0,6.0,0.00,30.2,1022.5,10.0,,SCT,BKN,,,20000.0,25000.0,,,,,,,,,,39.98,KLGA 101151Z 35006KT 10SM SCT200 BKN250 07/00 A3020 RMK AO2 SLP225 T00670000 10111 20067 53013,
LGA,2026-01-10 06:55,-73.8803,40.7794,9.0,,,,360.0,6.0,,30.2,,10.0,,,,,,,,,,,,,,,,,,KLGA 101155Z AUTO 36006KT 10SM 07/M00 A3020 RMK T00701000 MADISHF,
LGA,2026-01-10 07:00,-73.8803,40.7794,9.0,,,,360.0,7.0,,30.2,,10.0,,,,,,,,,,,,,,,,,,KLGA 101200Z AUTO 36007KT 10SM 07/M00 A3020 RMK T00701000 MADISHF,
LGA,2026-01-10 07:05,-73.8803,40.7794,9.0,,,,10.0,7.0,,30.19,,10.0,,,,,,,,,,,,,,,,,,KLGA 101205Z AUTO 01007KT 10SM 07/M00 A3019 RMK T00701000 MADISHF,
LGA,2026-01-10 07:10,-73.8803,40.7794,9.0,,,,10.0,8.0,,30.2,,10.0,,,,,,,,,,,,,,,,,,KLGA 101210Z AUTO 01008KT 10SM 06/M00 A3020 RMK T00601000 MADISHF,
LGA,2026-01-10 07:15,-73.8803,40.7794,9.0,,,,360.0,7.0,,30.2,,10.0,,,,,,,,,,,,,,,,,,KLGA 101215Z AUTO 36007KT 10SM 07/M00 A3020 RMK T00701000 MADISHF,
LGA,2026-01-10 07:20,-73.8803,40.7794,9.0,,,,10.0,7.0,,30.2,,10.0,,,,,,,,,,,,,,,,,,KLGA 101220Z AUTO 01007KT 10SM 07/M00 A3020 RMK T00701000 MADISHF,
LGA,2026-01-10 07:25,-73.8803,40.7794,9.0,,,,20.0,5.0,,30.2,,10.0,,,,,,,,,,,,,,,,,,KLGA 101225Z AUTO 02005KT 10SM 06/M00 A3020 RMK T00601000 MADISHF,
LGA,2026-01-10 07:30,-73.8803,40.7794,9.0,,,,20.0,5.0,,30.2,,10.0,,,,,,,,,,,,,,,,,,KLGA 101230Z AUTO 02005KT 10SM 06/M00 A3020 RMK T00601000 MADISHF,
LGA,2026-01-10 07:35,-73.8803,40.7794,9.0,,,,10.0,8.0,,30.2,,10.0,,,,,,,,,,,,,,,,,,KLGA 101235Z AUTO 01008KT 10SM 06/M00 A3020 RMK T00601000 MADISHF,
LGA,2026-01-10 07:40,-73.8803,40.7794,9.0,,,,20.0,6.0,,30.19,,10.0,,,,,,,,,,,,,,,,,,KLGA 101240Z AUTO 02006KT 10SM 06/M00 A3019 RMK T00601000 MADISHF,
LGA,2026-01-10 07:45,-73.8803,40.7794,9.0,,,,30.0,6.0,,30.19,,10.0,,,,,,,,,,,,,,,,,,KLGA 101245Z AUTO 03006KT 10SM 06/M00 A3019 RMK T00601000 MADISHF,
LGA,2026-01-10 07:50,-73.8803,40.7794,9.0,,,,20.0,9.0,,30.2,,10.0,,,,,,,,,,,,,,,,,,KLGA 101250Z AUTO 02009KT 10SM 06/M00 A3020 RMK T00601000 MADISHF,
LGA,2026-01-10 07:51,-73.8803,40.7794,9.0,43.0,32.0,64.86,20.0,8.0,0.00,30.2,1022.5,10.0,,FEW,BKN,BKN,,15000.0,20000.0,25000.0,,,,,,,,,37.66,KLGA 101251Z 02008KT 10SM FEW150 BKN200 BKN250 06/00 A3020 RMK AO2 SLP225 T00610000,
LGA,2026-01-10 07:55,-73.8803,40.7794,9.0,,,,30.0,8.0,,30.2,,10.0,,,,,,,,,,,,,,,,,,KLGA 101255Z AUTO 03008KT 10SM 06/M00 A3020 RMK T00601000 MADISHF,
LGA,2026-01-10 08:00,-73.8803,40.7794,9.0,,,,20.0,9.0,,30.2,,10.0,,,,,,,,,,,,,,,,,,KLGA 101300Z AUTO 02009KT 10SM 06/M00 A3020 RMK T00601000 MADISHF,
LGA,2026-01-10 08:05,-73.8803,40.7794,9.0,,,,20.0,10.0,,30.2,,10.0,,,,,,,,,,,,,,,,,,KLGA 101305Z AUTO 02010KT 10SM 06/M00 A3020 RMK T00601000 MADISHF,
LGA,2026-01-10 08:10,-73.8803,40.7794,9.0,,,,20.0,11.0,,30.2,,10.0,,,,,,,,,,,,,,,,,,KLGA 101310Z AUTO 02011KT 10SM 06/M01 A3020 RMK T00601010 MADISHF,
LGA,2026-01-10 08:15,-73.8803,40.7794,9.0,,,,20.0,11.0,,30.2,,10.0,,,,,,,,,,,,,,,,,,KLGA 101315Z AUTO 02011KT 10SM 06/M01 A3020 RMK T00601010 MADISHF,
LGA,2026-01-10 08:20,-73.8803,40.7794,9.0,,,,20.0,10.0,,30.2,,10.0,,,,,,,,,,,,,,,,,,KLGA 101320Z AUTO 02010KT 10SM 06/M01 A3020 RMK T00601010 MADISHF,
LGA,2026-01-10 08:25,-73.8803,40.7794,9.0,,,,20.0,9.0,,30.2,,10.0,,,,,,,,,,,,,,,,,,KLGA 101325Z AUTO 02009KT 10SM 06/M01 A3020 RMK T00601010 MADISHF,
LGA,2026-01-10 08:30,-73.8803,40.7794,9.0,,,,20.0,11.0,,30.2,,10.0,,,,,,,,,,,,,,,,,,KLGA 101330Z AUTO 02011KT 10SM 06/M01 A3020 RMK T00601010 MADISHF,
LGA,2026-01-10 08:35,-73.8803,40.7794,9.0,,,,20.0,9.0,,30.2,,10.0,,,,,,,,,,,,,,,,,,KLGA 101335Z AUTO 02009KT 10SM 06/M01 A3020 RMK T00601010 MADISHF,
LGA,2026-01-10 08:40,-73.8803,40.7794,9.0,,,,20.0,9.0,,30.21,,10.0,14.0,,,,,,,,,,,,,,,,,KLGA 101340Z AUTO 02009G14KT 10SM 06/M01 A3021 RMK T00601010 MADISHF,
LGA,2026-01-10 08:50,-73.8803,40.7794,9.0,,,,30.0,9.0,,30.21,,10.0,,,,,,,,,,,,,,,,,,KLGA 101350Z AUTO 03009KT 10SM 06/M01 A3021 RMK T00601010 MADISHF,
LGA,2026-01-10 08:51,-73.8803,40.7794,9.0,43.0,30.0,59.81,30.0,8.0,0.00,30.21,1023.1,10.0,,FEW,BKN,OVC,,15000.0,20000.0,25000.0,,,,,,,,,37.66,KLGA 101351Z 03008KT 10SM FEW150 BKN200 OVC250 06/M01 A3021 RMK AO2 SLP231 T00611011,
LGA,2026-01-10 08:55,-73.8803,40.7794,9.0,,,,30.0,9.0,,30.22,,10.0,,CLR,,,,,,,,,,,,,,,,KLGA 101355Z AUTO 03009KT 10SM CLR 06/M01 A3022 RMK T00601010 MADISHF,
LGA,2026-01-10 09:00,-73.8803,40.7794,9.0,,,,30.0,9.0,,30.21,,10.0,,CLR,,,,,,,,,,,,,,,,KLGA 101400Z AUTO 03009KT 10SM CLR 06/M01 A3021 RMK T00601010 MADISHF,
LGA,2026-01-10 09:05,-73.8803,40.7794,9.0,,,,20.0,8.0,,30.21,,10.0,,CLR,,,,,,,,,,,,,,,,KLGA 101405Z AUTO 02008KT 10SM CLR 06/M01 A3021 RMK T00601010 MADISHF,
LGA,2026-01-10 09:10,-73.8803,40.7794,9.0,,,,30.0,7.0,,30.22,,10.0,,CLR,,,,,,,,,,,,,,,,KLGA 101410Z AUTO 03007KT 10SM CLR 06/M01 A3022 RMK T00601010 MADISHF,
LGA,2026-01-10 09:15,-73.8803,40.7794,9.0,,,,40.0,7.0,,30.22,,10.0,,,,,,,,,,,,,,,,,,KLGA 101415Z AUTO 04007KT 10SM 06/M01 A3022 RMK T00601010 MADISHF,
LGA,2026-01-10 09:20,-73.8803,40.7794,9.0,,,,50.0,7.0,,30.22,,10.0,,,,,,,,,,,,,,,,,,KLGA 101420Z AUTO 05007KT 10SM 06/M01 A3022 RMK T00601010 MADISHF,
LGA,2026-01-10 09:25,-73.8803,40.7794,9.0,,,,50.0,7.0,,30.22,,10.0,,,,,,,,,,,,,,,,,,KLGA 101425Z AUTO 05007KT 10SM 06/M01 A3022 RMK T00601010 MADISHF,
LGA,2026-01-10 09:30,-73.8803,40.7794,9.0,,,,60.0,7.0,,30.22,,10.0,,,,,,,,,,,,,,,,,,KLGA 101430Z AUTO 06007KT 10SM 06/M01 A3022 RMK T00601010 MADISHF,
LGA,2026-01-10 09:35,-73.8803,40.7794,9.0,,,,60.0,7.0,,30.22,,10.0,,,,,,,,,,,,,,,,,,KLGA 101435Z AUTO 06007KT 10SM 06/M01 A3022 RMK T00601010 MADISHF,
LGA,2026-01-10 09:40,-73.8803,40.7794,9.0,,,,60.0,7.0,,30.22,,10.0,,,,,,,,,,,,,,,,,,KLGA 101440Z AUTO 06007KT 10SM 06/M01 A3022 RMK T00601010 MADISHF,
LGA,2026-01-10 09:45,-73.8803,40.7794,9.0,,,,60.0,7.0,,30.21,,10.0,,,,,,,,,,,,,,,,,,KLGA 101445Z AUTO 06007KT 10SM 06/M01 A3021 RMK T00601010 MADISHF,
LGA,2026-01-10 09:50,-73.8803,40.7794,9.0,,,,60.0,7.0,,30.22,,10.0,,,,,,,,,,,,,,,,,,KLGA 101450Z AUTO 06007KT 10SM 06/M01 A3022 RMK T00601010 MADISHF,
LGA,2026-01-10 09:51,-73.8803,40.7794,9.0,42.0,31.0,64.74,60.0,6.0,0.00,30.22,1023.2,10.0,,SCT,BKN,OVC,,15000.0,20000.0,25000.0,,,,,,,,,37.57,KLGA 101451Z 06006KT 10SM SCT150 BKN200 OVC250 06/M01 A3022 RMK AO2 SLP232 T00561006 53007,
LGA,2026-01-10 09:55,-73.8803,40.7794,9.0,,,,60.0,8.0,,30.21,,10.0,,,,,,,,,,,,,,,,,,KLGA 101455Z AUTO 06008KT 10SM 06/M01 A3021 RMK T00601010 MADISHF,
LGA,2026-01-10 10:00,-73.8803,40.7794,9.0,,,,70.0,7.0,,30.21,,10.0,,,,,,,,,,,,,,,,,,KLGA 101500Z AUTO 07007KT 10SM 06/M01 A3021 RMK T00601010 MADISHF,
LGA,2026-01-10 10:05,-73.8803,40.7794,9.0,,,,70.0,8.0,,30.21,,10.0,,,,,,,,,,,,,,,,,,KLGA 101505Z AUTO 07008KT 10SM 06/M01 A3021 RMK T00601010 MADISHF,
LGA,2026-01-10 10:10,-73.8803,40.7794,9.0,,,,70.0,9.0,,30.22,,10.0,15.0,,,,,,,,,,,,,,,,,KLGA 101510Z AUTO 07009G15KT 10SM 06/M01 A3022 RMK T00601010 MADISHF,
LGA,2026-01-10 10:15,-73.8803,40.7794,9.0,,,,70.0,7.0,,30.23,,10.0,,,,,,,,,,,,,,,,,,KLGA 101515Z AUTO 07007KT 10SM 06/M01 A3023 RMK T00601010 MADISHF,
LGA,2026-01-10 10:20,-73.8803,40.7794,9.0,,,,60.0,7.0,,30.23,,10.0,,,,,,,,,,,,,,,,,,KLGA 101520Z AUTO 06007KT 10SM 06/M01 A3023 RMK T00601010 MADISHF,
LGA,2026-01-10 10:25,-73.8803,40.7794,9.0,,,,50.0,5.0,,30.23,,10.0,,,,,,,,,,,,,,,,,,KLGA 101525Z AUTO 05005KT 10SM 06/M01 A3023 RMK T00601010 MADISHF,
LGA,2026-01-10 10:30,-73.8803,40.7794,9.0,,,,50.0,6.0,,30.22,,10.0,,,,,,,,,,,,,,,,,,KLGA 101530Z AUTO 05006KT 10SM 06/M01 A3022 RMK T00601010 MADISHF,
LGA,2026-01-10 10:35,-73.8803,40.7794,9.0,,,,60.0,6.0,,30.21,,10.0,,,,,,,,,,,,,,,,,,KLGA 101535Z AUTO 06006KT 10SM 05/M01 A3021 RMK T00501010 MADISHF,
LGA,2026-01-10 10:40,-73.8803,40.7794,9.0,,,,60.0,7.0,,30.22,,10.0,,,,,,,,,,,,,,,,,,KLGA 101540Z AUTO 06007KT 10SM 06/M01 A3022 RMK T00601010 MADISHF,
LGA,2026-01-10 10:45,-73.8803,40.7794,9.0,,,,60.0,6.0,,30.22,,10.0,,,,,,,,,,,,,,,,,,KLGA 101545Z AUTO 06006KT 10SM 06/M01 A3022 RMK T00601010 MADISHF,
LGA,2026-01-10 10:50,-73.8803,40.7794,9.0,,,,50.0,6.0,,30.21,,10.0,,,,,,,,,,,,,,,,,,KLGA 101550Z AUTO 05006KT 10SM 06/M01 A3021 RMK T00601010 MADISHF,
LGA,2026-01-10 10:51,-73.8803,40.7794,9.0,42.0,30.0,62.16,50.0,5.0,0.00,30.21,1023.0,10.0,,BKN,OVC,,,15000.0,25000.0,,,,,,,,,,38.27,KLGA 101551Z 05005KT 10SM BKN150 OVC250 06/M01 A3021 RMK AO2 SLP230 T00561011,
LGA,2026-01-10 10:55,-73.8803,40.7794,9.0,,,,60.0,6.0,,30.21,,10.0,,,,,,,,,,,,,,,,,,KLGA 101555Z AUTO 06006KT 10SM 06/M01 A3021 RMK T00601010 MADISHF,
LGA,2026-01-10 11:00,-73.8803,40.7794,9.0,,,,50.0,6.0,,30.2,,10.0,,,,,,,,,,,,,,,,,,KLGA 101600Z AUTO 05006KT 10SM 06/M01 A3020 RMK T00601010 MADISHF,
LGA,2026-01-10 11:05,-73.8803,40.7794,9.0,,,,50.0,6.0,,30.19,,10.0,,,,,,,,,,,,,,,,,,KLGA 101605Z AUTO 05006KT 10SM 06/M01 A3019 RMK T00601010 MADISHF,
LGA,2026-01-10 11:10,-73.8803,40.7794,9.0,,,,50.0,8.0,,30.19,,10.0,,,,,,,,,,,,,,,,,,KLGA 101610Z AUTO 05008KT 10SM 05/M01 A3019 RMK T00501010 MADISHF,
LGA,2026-01-10 11:15,-73.8803,40.7794,9.0,,,,40.0,8.0,,30.18,,10.0,,,,,,,,,,,,,,,,,,KLGA 101615Z AUTO 04008KT 10SM 06/M01 A3018 RMK T00601010 MADISHF,
LGA,2026-01-10 11:20,-73.8803,40.7794,9.0,,,,40.0,6.0,,30.18,,10.0,,,,,,,,,,,,,,,,,,KLGA 101620Z AUTO 04006KT 10SM 05/M01 A3018 RMK T00501010 MADISHF,
LGA,2026-01-10 11:25,-73.8803,40.7794,9.0,,,,50.0,6.0,,30.18,,10.0,,,,,,,,,,,,,,,,,,KLGA 101625Z AUTO 05006KT 10SM 06/M01 A3018 RMK T00601010 MADISHF,
LGA,2026-01-10 11:30,-73.8803,40.7794,9.0,,,,50.0,6.0,,30.19,,10.0,,,,,,,,,,,,,,,,,,KLGA 101630Z AUTO 05006KT 10SM 06/M01 A3019 RMK T00601010 MADISHF,
LGA,2026-01-10 11:35,-73.8803,40.7794,9.0,,,,50.0,7.0,,30.18,,10.0,,,,,,,,,,,,,,,,,,KLGA 101635Z AUTO 05007KT 10SM 05/M01 A3018 RMK T00501010 MADISHF,
LGA,2026-01-10 11:40,-73.8803,40.7794,9.0,,,,40.0,7.0,,30.17,,10.0,,,,,,,,,,,,,,,,,,KLGA 101640Z AUTO 04007KT 10SM 06/M01 A3017 RMK T00601010 MADISHF,
LGA,2026-01-10 11:45,-73.8803,40.7794,9.0,,,,50.0,8.0,,30.16,,10.0,,,,,,,,,,,,,,,,,,KLGA 101645Z AUTO 05008KT 10SM 06/M01 A3016 RMK T00601010 MADISHF,
LGA,2026-01-10 11:50,-73.8803,40.7794,9.0,,,,40.0,6.0,,30.16,,10.0,,,,,,,,,,,,,,,,,,KLGA 101650Z AUTO 04006KT 10SM 05/M01 A3016 RMK T00501010 MADISHF,
LGA,2026-01-10 11:51,-73.8803,40.7794,9.0,41.0,30.0,64.61,40.0,6.0,0.00,30.17,1021.4,10.0,,BKN,OVC,,,15000.0,25000.0,,,,,,,,,,36.37,KLGA 101651Z 04006KT 10SM BKN150 OVC250 05/M01 A3017 RMK AO2 SLP214 T00501011,
LGA,2026-01-10 11:55,-73.8803,40.7794,9.0,,,,50.0,5.0,,30.17,,10.0,,CLR,,,,,,,,,,,,,,,,KLGA 101655Z AUTO 05005KT 10SM CLR 05/M01 A3017 RMK T00501010 MADISHF,
LGA,2026-01-10 12:00,-73.8803,40.7794,9.0,,,,40.0,5.0,,30.17,,10.0,,CLR,,,,,,,,,,,,,,,,KLGA 101700Z AUTO 04005KT 10SM CLR 05/M01 A3017 RMK T00501010 MADISHF,
LGA,2026-01-10 12:05,-73.8803,40.7794,9.0,,,,40.0,4.0,,30.17,,10.0,,CLR,,,,,,,,,,,,,,,,KLGA 101705Z AUTO 04004KT 10SM CLR 06/M01 A3017 RMK T00601010 MADISHF,
LGA,2026-01-10 12:10,-73.8803,40.7794,9.0,,,,40.0,6.0,,30.17,,10.0,,CLR,,,,,,,,,,,,,,,,KLGA 101710Z AUTO 04006KT 10SM CLR 06/M01 A3017 RMK T00601010 MADISHF,
LGA,2026-01-10 12:15,-73.8803,40.7794,9.0,,,,50.0,7.0,,30.17,,10.0,,FEW,,,,12000.0,,,,,,,,,,,,KLGA 101715Z AUTO 05007KT 10SM FEW120 06/M01 A3017 RMK T00601010 MADISHF,
LGA,2026-01-10 12:20,-73.8803,40.7794,9.0,,,,50.0,8.0,,30.16,,10.0,,SCT,,,,12000.0,,,,,,,,,,,,KLGA 101720Z AUTO 05008KT 10SM SCT120 05/M01 A3016 RMK T00501010 MADISHF,
LGA,2026-01-10 12:25,-73.8803,40.7794,9.0,,,,50.0,8.0,,30.15,,10.0,,SCT,,,,11000.0,,,,,,,,,,,,KLGA 101725Z AUTO 05008KT 10SM SCT110 06/M01 A3015 RMK T00601010 MADISHF,
LGA,2026-01-10 12:30,-73.8803,40.7794,9.0,,,,50.0,7.0,,30.15,,10.0,,BKN,,,,11000.0,,,,,,,,,,,,KLGA 101730Z AUTO 05007KT 10SM BKN110 05/M01 A3015 RMK T00501010 MADISHF,
LGA,2026-01-10 12:35,-73.8803,40.7794,9.0,,,,50.0,7.0,,30.15,,10.0,,FEW,BKN,,,9000.0,11000.0,,,,,,,,,,,KLGA 101735Z AUTO 05007KT 10SM FEW090 BKN110 05/M02 A3015 RMK T00501020 MADISHF,
LGA,2026-01-10 12:40,-73.8803,40.7794,9.0,,,,50.0,7.0,,30.15,,10.0,,SCT,OVC,,,9000.0,11000.0,,,-RA,,,,,,,,KLGA 101740Z AUTO 05007KT 10SM -RA SCT090 OVC110 05/M02 A3015 RMK T00501020 MADISHF,
LGA,2026-01-10 12:45,-73.8803,40.7794,9.0,,,,50.0,7.0,,30.14,,10.0,,SCT,OVC,,,9000.0,11000.0,,,-RA,,,,,,,,KLGA 101745Z AUTO 05007KT 10SM -RA SCT090 OVC110 05/M02 A3014 RMK T00501020 MADISHF,
LGA,2026-01-10 12:50,-73.8803,40.7794,9.0,,,,50.0,8.0,,30.14,,10.0,,FEW,SCT,OVC,,5000.0,9000.0,11000.0,,-RA,,,,,,,,KLGA 101750Z AUTO 05008KT 10SM -RA FEW050 SCT090 OVC110 05/M01 A3014 RMK T00501010 MADISHF,
LGA,2026-01-10 12:51,-73.8803,40.7794,9.0,41.0,30.0,64.61,50.0,8.0,T,30.14,1020.6,10.0,,FEW,SCT,OVC,,5000.0,9000.0,11000.0,,-RA,,,,,,,35.2,KLGA 101751Z 05008KT 10SM -RA FEW050 SCT090 OVC110 05/M01 A3014 RMK AO2 RAB39 SLP206 P0000 60000 T00501011 10067 20050 58026,
LGA,2026-01-10 12:55,-73.8803,40.7794,9.0,,,,50.0,6.0,,30.14,,10.0,,BKN,OVC,,,8500.0,11000.0,,,-RA,,,,,,,,KLGA 101755Z AUTO 05006KT 10SM -RA BKN085 OVC110 05/M01 A3014 RMK T00501010 MADISHF,
LGA,2026-01-10 13:00,-73.8803,40.7794,9.0,,,,50.0,8.0,,30.13,,10.0,,BKN,OVC,,,8500.0,10000.0,,,-RA,,,,,,,,KLGA 101800Z AUTO 05008KT 10SM -RA BKN085 OVC100 05/M01 A3013 RMK T00501010 MADISHF,
LGA,2026-01-10 13:05,-73.8803,40.7794,9.0,,,,50.0,7.0,,30.13,,10.0,,BKN,OVC,,,9000.0,10000.0,,,-RA,,,,,,,,KLGA 101805Z AUTO 05007KT 10SM -RA BKN090 OVC100 05/M01 A3013 RMK T00501010 MADISHF,
LGA,2026-01-10 13:10,-73.8803,40.7794,9.0,,,,50.0,8.0,,30.13,,10.0,,OVC,,,,9000.0,,,,-RA,,,,,,,,KLGA 101810Z AUTO 05008KT 10SM -RA OVC090 05/M01 A3013 RMK T00501010 MADISHF,
LGA,2026-01-10 13:15,-73.8803,40.7794,9.0,,,,60.0,7.0,,30.14,,10.0,,OVC,,,,9500.0,,,,-RA,,,,,,,,KLGA 101815Z AUTO 06007KT 10SM -RA OVC095 05/M01 A3014 RMK T00501010 MADISHF,
LGA,2026-01-10 13:20,-73.8803,40.7794,9.0,,,,50.0,6.0,,30.14,,10.0,,OVC,,,,9500.0,,,,-RA,,,,,,,,KLGA 101820Z AUTO 05006KT 10SM -RA OVC095 05/M01 A3014 RMK T00501010 MADISHF,
LGA,2026-01-10 13:25,-73.8803,40.7794,9.0,,,,50.0,7.0,,30.13,,10.0,,OVC,,,,9000.0,,,,-RA,,,,,,,,KLGA 101825Z AUTO 05007KT 10SM -RA OVC090 05/M01 A3013 RMK T00501010 MADISHF,
LGA,2026-01-10 13:30,-73.8803,40.7794,9.0,,,,60.0,9.0,,30.11,,10.0,,OVC,,,,9000.0,,,,-RA,,,,,,,,KLGA 101830Z AUTO 06009KT 10SM -RA OVC090 05/M01 A3011 RMK T00501010 MADISHF,
LGA,2026-01-10 13:35,-73.8803,40.7794,9.0,,,,60.0,9.0,0.01,30.1,,10.0,,OVC,,,,9000.0,,,,-RA,,,,,,,,KLGA 101835Z AUTO 06009KT 10SM -RA OVC090 05/M01 A3010 RMK P0001 T00501010 MADISHF,
LGA,2026-01-10 13:40,-73.8803,40.7794,9.0,,,,60.0,8.0,0.01,30.1,,10.0,,OVC,,,,9000.0,,,,-RA,,,,,,,,KLGA 101840Z AUTO 06008KT 10SM -RA OVC090 05/M01 A3010 RMK P0001 T00501010 MADISHF,
LGA,2026-01-10 13:45,-73.8803,40.7794,9.0,,,,60.0,8.0,0.01,30.1,,10.0,,OVC,,,,9500.0,,,,-RA,,,,,,,,KLGA 101845Z AUTO 06008KT 10SM -RA OVC095 05/M01 A3010 RMK P0001 T00501010 MADISHF,
LGA,2026-01-10 13:50,-73.8803,40.7794,9.0,,,,60.0,8.0,0.01,30.1,,10.0,,FEW,SCT,OVC,,2200.0,5000.0,9500.0,,-RA,,,,,,,,KLGA 101850Z AUTO 06008KT 10SM -RA FEW022 SCT050 OVC095 05/M01 A3010 RMK P0001 T00501010 MADISHF,
LGA,2026-01-10 13:51,-73.8803,40.7794,9.0,41.0,31.0,67.29,60.0,7.0,0.01,30.1,1019.2,10.0,,FEW,SCT,OVC,,2200.0,5000.0,9500.0,,-RA,,,,,,,35.75,KLGA 101851Z 06007KT 10SM -RA FEW022 SCT050 OVC095 05/M01 A3010 RMK AO2 SLP192 P0001 T00501006,
LGA,2026-01-10 13:55,-73.8803,40.7794,9.0,,,,50.0,7.0,0.01,30.1,,10.0,,OVC,,,,10000.0,,,,-RA,,,,,,,,KLGA 101855Z AUTO 05007KT 10SM -RA OVC100 05/M01 A3010 RMK P0001 T00501010 MADISHF,
LGA,2026-01-10 14:00,-73.8803,40.7794,9.0,,,,50.0,8.0,0.01,30.1,,10.0,,OVC,,,,10000.0,,,,-RA,,,,,,,,KLGA 101900Z AUTO 05008KT 10SM -RA OVC100 04/M01 A3010 RMK P0001 T00401010 MADISHF,
LGA,2026-01-10 14:05,-73.8803,40.7794,9.0,,,,60.0,7.0,0.01,30.1,,10.0,,OVC,,,,10000.0,,,,-RA,,,,,,,,KLGA 101905Z AUTO 06007KT 10SM -RA OVC100 04/M01 A3010 RMK P0001 T00401010 MADISHF,
LGA,2026-01-10 14:10,-73.8803,40.7794,9.0,,,,60.0,7.0,0.01,30.1,,10.0,,OVC,,,,10000.0,,,,-RA,,,,,,,,KLGA 101910Z AUTO 06007KT 10SM -RA OVC100 04/M00 A3010 RMK P0001 T00401000 MADISHF,
LGA,2026-01-10 14:15,-73.8803,40.7794,9.0,,,,60.0,6.0,0.01,30.1,,10.0,,OVC,,,,10000.0,,,,-RA,,,,,,,,KLGA 101915Z AUTO 06006KT 10SM -RA OVC100 04/M00 A3010 RMK P0001 T00401000 MADISHF,
LGA,2026-01-10 14:20,-73.8803,40.7794,9.0,,,,60.0,6.0,0.01,30.11,,10.0,,OVC,,,,10000.0,,,,-RA,,,,,,,,KLGA 101920Z AUTO 06006KT 10SM -RA OVC100 04/M00 A3011 RMK P0001 T00401000 MADISHF,
LGA,2026-01-10 14:25,-73.8803,40.7794,9.0,,,,60.0,6.0,0.01,30.11,,10.0,,OVC,,,,10000.0,,,,-RA,,,,,,,,KLGA 101925Z AUTO 06006KT 10SM -RA OVC100 04/M00 A3011 RMK P0001 T00401000 MADISHF,
LGA,2026-01-10 14:30,-73.8803,40.7794,9.0,,,,50.0,5.0,0.01,30.11,,10.0,,OVC,,,,9500.0,,,,-RA,,,,,,,,KLGA 101930Z AUTO 05005KT 10SM -RA OVC095 04/M00 A3011 RMK P0001 T00401000 MADISHF,
LGA,2026-01-10 14:35,-73.8803,40.7794,9.0,,,,50.0,5.0,0.02,30.12,,10.0,,OVC,,,,9000.0,,,,-RA,,,,,,,,KLGA 101935Z AUTO 05005KT 10SM -RA OVC090 04/M00 A3012 RMK P0002 T00401000 MADISHF,
LGA,2026-01-10 14:40,-73.8803,40.7794,9.0,,,,50.0,5.0,0.02,30.11,,10.0,,FEW,OVC,,,7500.0,9000.0,,,-RA,,,,,,,,KLGA 101940Z AUTO 05005KT 10SM -RA FEW075 OVC090 04/M00 A3011 RMK P0002 T00401000 MADISHF,
LGA,2026-01-10 14:45,-73.8803,40.7794,9.0,,,,60.0,6.0,0.02,30.11,,8.0,,FEW,SCT,OVC,,2000.0,4500.0,9000.0,,-RA,,,,,,,,KLGA 101945Z AUTO 06006KT 7SM -RA FEW020 SCT045 OVC090 04/M00 A3011 RMK P0002 T00401000 MADISHF,
LGA,2026-01-10 14:50,-73.8803,40.7794,9.0,,,,50.0,6.0,0.03,30.1,,8.0,,FEW,SCT,OVC,,2000.0,4500.0,9000.0,,-RA,,,,,,,,KLGA 101950Z AUTO 05006KT 7SM -RA FEW020 SCT045 OVC090 04/M00 A3010 RMK P0003 T00401000 MADISHF,
LGA,2026-01-10 14:51,-73.8803,40.7794,9.0,40.0,32.0,72.84,50.0,6.0,0.03,30.1,1019.3,8.0,,FEW,SCT,OVC,,2000.0,4500.0,9000.0,,-RA,,,,,,,35.17,KLGA 101951Z 05006KT 8SM -RA FEW020 SCT045 OVC090 04/00 A3010 RMK AO2 SLP193 P0003 T00440000,
LGA,2026-01-10 14:55,-73.8803,40.7794,9.0,,,,40.0,5.0,,30.1,,7.0,,OVC,,,,8500.0,,,,-RA,,,,,,,,KLGA 101955Z AUTO 04005KT 7SM -RA OVC085 04/M00 A3010 RMK T00401000 MADISHF,
LGA,2026-01-10 15:00,-73.8803,40.7794,9.0,,,,30.0,6.0,,30.1,,7.0,,SCT,OVC,,,8000.0,9000.0,,,-RA,,,,,,,,KLGA 102000Z AUTO 03006KT 7SM -RA SCT080 OVC090 04/M00 A3010 RMK T00401000 MADISHF,
LGA,2026-01-10 15:05,-73.8803,40.7794,9.0,,,,40.0,8.0,0.01,30.09,,7.0,,OVC,,,,8500.0,,,,-RA,,,,,,,,KLGA 102005Z AUTO 04008KT 7SM -RA OVC085 04/M00 A3009 RMK P0001 T00401000 MADISHF,
LGA,2026-01-10 15:10,-73.8803,40.7794,9.0,,,,40.0,8.0,0.02,30.09,,7.0,,OVC,,,,8500.0,,,,-RA,,,,,,,,KLGA 102010Z AUTO 04008KT 7SM -RA OVC085 04/M00 A3009 RMK P0002 T00401000 MADISHF,
LGA,2026-01-10 15:15,-73.8803,40.7794,9.0,,,,40.0,8.0,0.02,30.09,,7.0,,FEW,FEW,OVC,,4700.0,5500.0,8500.0,,-RA,,,,,,,,KLGA 102015Z AUTO 04008KT 7SM -RA FEW047 FEW055 OVC085 04/M00 A3009 RMK P0002 T00401000 MADISHF,
LGA,2026-01-10 15:20,-73.8803,40.7794,9.0,,,,40.0,9.0,0.02,30.09,,7.0,,FEW,BKN,OVC,,4700.0,8000.0,9000.0,,-RA,,,,,,,,KLGA 102020Z AUTO 04009KT 7SM -RA FEW047 BKN080 OVC090 04/M00 A3009 RMK P0002 T00401000 MADISHF,
LGA,2026-01-10 15:30,-73.8803,40.7794,9.0,,,,40.0,7.0,0.04,30.08,,6.0,,FEW,OVC,,,5000.0,8500.0,,,RA,,,,,,,,KLGA 102030Z AUTO 04007KT 6SM RA FEW050 OVC085 04/01 A3008 RMK P0004 T00400010 MADISHF,
LGA,2026-01-10 15:35,-73.8803,40.7794,9.0,,,,40.0,8.0,0.05,30.08,,6.0,,FEW,OVC,,,5500.0,8500.0,,,-RA,,,,,,,,KLGA 102035Z AUTO 04008KT 6SM -RA FEW055 OVC085 04/01 A3008 RMK P0005 T00400010 MADISHF,
LGA,2026-01-10 15:40,-73.8803,40.7794,9.0,,,,40.0,8.0,0.06,30.08,,6.0,,FEW,SCT,OVC,,2700.0,5000.0,8500.0,,RA,,,,,,,,KLGA 102040Z AUTO 04008KT 6SM RA FEW027 SCT050 OVC085 04/01 A3008 RMK P0006 T00400010 MADISHF,
LGA,2026-01-10 15:45,-73.8803,40.7794,9.0,,,,40.0,8.0,0.06,30.08,,5.0,,FEW,SCT,OVC,,2200.0,2900.0,8500.0,,-RA,,,,,,,,KLGA 102045Z AUTO 04008KT 5SM -RA FEW022 SCT029 OVC085 04/01 A3008 RMK P0006 T00400010 MADISHF,
LGA,2026-01-10 15:50,-73.8803,40.7794,9.0,,,,40.0,8.0,0.07,30.09,,6.0,,FEW,SCT,OVC,,2200.0,2900.0,5000.0,,-RA,,,,,,,,KLGA 102050Z AUTO 04008KT 6SM -RA FEW022 SCT029 OVC050 04/01 A3009 RMK P0007 T00400010 MADISHF,
LGA,2026-01-10 15:51,-73.8803,40.7794,9.0,39.0,33.0,78.84,40.0,8.0,0.07,30.09,1018.9,6.0,,FEW,SCT,OVC,,2200.0,2900.0,5000.0,,-RA,,,,,,,32.74,KLGA 102051Z 04008KT 6SM -RA FEW022 SCT029 OVC050 04/01 A3009 RMK AO2 SLP189 P0007 60011 T00390006 56017,
LGA,2026-01-10 15:55,-73.8803,40.7794,9.0,39.0,33.0,78.84,50.0,7.0,0.01,30.09,,6.0,,BKN,BKN,OVC,,2200.0,2900.0,5000.0,,RA,,,,,,,33.31,KLGA 102055Z 05007KT 6SM RA BKN022 BKN029 OVC050 04/01 A3009 RMK AO2 P0001 T00390006,
LGA,2026-01-10 15:55,-73.8803,40.7794,9.0,,,,40.0,7.0,0.01,30.09,,6.0,,BKN,BKN,OVC,,2200.0,2900.0,5000.0,,RA,,,,,,,,KLGA 102055Z AUTO 04007KT 6SM RA BKN022 BKN029 OVC050 04/01 A3009 RMK P0001 T00400010 MADISHF,
LGA,2026-01-10 16:00,-73.8803,40.7794,9.0,,,,40.0,7.0,0.02,30.09,,6.0,,BKN,BKN,OVC,,2200.0,2900.0,5000.0,,RA,,,,,,,,KLGA 102100Z AUTO 04007KT 6SM RA BKN022 BKN029 OVC050 04/01 A3009 RMK P0002 T00400010 MADISHF,
LGA,2026-01-10 16:05,-73.8803,40.7794,9.0,,,,40.0,8.0,0.03,30.09,,6.0,,BKN,BKN,OVC,,2200.0,2900.0,5000.0,,RA,,,,,,,,KLGA 102105Z AUTO 04008KT 6SM RA BKN022 BKN029 OVC050 03/01 A3009 RMK P0003 T00300010 MADISHF,
LGA,2026-01-10 16:10,-73.8803,40.7794,9.0,,,,50.0,9.0,0.04,30.08,,6.0,,BKN,BKN,OVC,,2200.0,2900.0,5000.0,,RA,,,,,,,,KLGA 102110Z AUTO 05009KT 6SM RA BKN022 BKN029 OVC050 04/01 A3008 RMK P0004 T00400010 MADISHF,
LGA,2026-01-10 16:15,-73.8803,40.7794,9.0,,,,40.0,9.0,0.05,30.08,,6.0,,BKN,BKN,OVC,,2200.0,2900.0,5000.0,,RA,,,,,,,,KLGA 102115Z AUTO 04009KT 6SM RA BKN022 BKN029 OVC050 04/01 A3008 RMK P0005 T00400010 MADISHF,
LGA,2026-01-10 16:20,-73.8803,40.7794,9.0,,,,40.0,10.0,0.06,30.07,,6.0,,BKN,BKN,OVC,,2200.0,2900.0,5000.0,,RA,,,,,,,,KLGA 102120Z AUTO 04010KT 6SM RA BKN022 BKN029 OVC050 03/01 A3007 RMK P0006 T00300010 MADISHF,
LGA,2026-01-10 16:25,-73.8803,40.7794,9.0,,,,40.0,8.0,0.07,30.06,,6.0,,BKN,BKN,OVC,,2200.0,2900.0,5000.0,,RA,,,,,,,,KLGA 102125Z AUTO 04008KT 6SM RA BKN022 BKN029 OVC050 03/01 A3006 RMK P0007 T00300010 MADISHF,
LGA,2026-01-10 16:30,-73.8803,40.7794,9.0,,,,50.0,10.0,0.08,30.06,,6.0,,BKN,BKN,OVC,,2200.0,2900.0,5000.0,,RA,,,,,,,,KLGA 102130Z AUTO 05010KT 6SM RA BKN022 BKN029 OVC050 03/01 A3006 RMK P0008 T00300010 MADISHF,
LGA,2026-01-10 16:35,-73.8803,40.7794,9.0,,,,40.0,10.0,0.08,30.06,,6.0,,BKN,BKN,OVC,,1900.0,2900.0,5000.0,,-RA,,,,,,,,KLGA 102135Z AUTO 04010KT 6SM -RA BKN019 BKN029 OVC050 03/01 A3006 RMK P0008 T00300010 MADISHF,
LGA,2026-01-10 16:40,-73.8803,40.7794,9.0,,,,50.0,10.0,0.09,30.05,,6.0,,BKN,BKN,OVC,,1900.0,2900.0,5000.0,,-RA,,,,,,,,KLGA 102140Z AUTO 05010KT 6SM -RA BKN019 BKN029 OVC050 03/01 A3005 RMK P0009 T00300010 MADISHF,
LGA,2026-01-10 16:45,-73.8803,40.7794,9.0,,,,50.0,10.0,0.09,30.05,,6.0,,BKN,BKN,OVC,,1900.0,2900.0,5000.0,,-RA,,,,,,,,KLGA 102145Z AUTO 05010KT 6SM -RA BKN019 BKN029 OVC050 03/01 A3005 RMK P0009 T00300010 MADISHF,
LGA,2026-01-10 16:50,-73.8803,40.7794,9.0,,,,50.0,11.0,0.09,30.05,,6.0,,FEW,BKN,OVC,,1100.0,1400.0,1900.0,,-RA,,,,,,,,KLGA 102150Z AUTO 05011KT 6SM -RA FEW011 BKN014 OVC019 03/01 A3005 RMK P0009 T00300010 MADISHF,
LGA,2026-01-10 16:51,-73.8803,40.7794,9.0,38.0,33.0,81.99,60.0,11.0,0.09,30.05,1017.5,6.0,,FEW,BKN,OVC,,1100.0,1400.0,1900.0,,-RA,,,,,,,30.05,KLGA 102151Z 06011KT 6SM -RA FEW011 BKN014 OVC019 03/01 A3005 RMK AO2 SLP175 P0009 T00330006,
LGA,2026-01-10 16:55,-73.8803,40.7794,9.0,,,,50.0,10.0,0.01,30.05,,9.0,,BKN,OVC,,,1400.0,1900.0,,,-RA,,,,,,,,KLGA 102155Z AUTO 05010KT 8SM -RA BKN014 OVC019 03/01 A3005 RMK P0001 T00300010 MADISHF,
LGA,2026-01-10 17:00,-73.8803,40.7794,9.0,,,,50.0,10.0,0.01,30.05,,9.0,,OVC,,,,1400.0,,,,-RA,,,,,,,,KLGA 102200Z AUTO 05010KT 8SM -RA OVC014 03/01 A3005 RMK P0001 T00300010 MADISHF,
LGA,2026-01-10 17:05,-73.8803,40.7794,9.0,,,,50.0,9.0,0.01,30.05,,10.0,,OVC,,,,1300.0,,,,-RA,,,,,,,,KLGA 102205Z AUTO 05009KT 10SM -RA OVC013 03/01 A3005 RMK P0001 T00300010 MADISHF,
LGA,2026-01-10 17:10,-73.8803,40.7794,9.0,,,,50.0,8.0,0.02,30.04,,10.0,,OVC,,,,1100.0,,,,-RA,,,,,,,,KLGA 102210Z AUTO 05008KT 10SM -RA OVC011 03/01 A3004 RMK P0002 T00300010 MADISHF,
LGA,2026-01-10 17:15,-73.8803,40.7794,9.0,,,,50.0,8.0,0.02,30.04,,10.0,,OVC,,,,1100.0,,,,-RA,,,,,,,,KLGA 102215Z AUTO 05008KT 10SM -RA OVC011 03/01 A3004 RMK P0002 T00300010 MADISHF,
LGA,2026-01-10 17:20,-73.8803,40.7794,9.0,,,,50.0,8.0,0.02,30.04,,10.0,,OVC,,,,1100.0,,,,-RA,,,,,,,,KLGA 102220Z AUTO 05008KT 10SM -RA OVC011 03/01 A3004 RMK P0002 T00300010 CIG 8V16 MADISHF,
LGA,2026-01-10 17:23,-73.8803,40.7794,9.0,38.0,33.0,81.99,50.0,7.0,0.02,30.04,,9.0,,BKN,OVC,,,800.0,1100.0,,,-RA,,,,,,,32.09,KLGA 102223Z 05007KT 9SM -RA BKN008 OVC011 03/01 A3004 RMK AO2 P0002 T00330006,
LGA,2026-01-10 17:25,-73.8803,40.7794,9.0,,,,50.0,7.0,0.02,30.04,,8.0,,BKN,OVC,,,800.0,1100.0,,,-RA,,,,,,,,KLGA 102225Z AUTO 05007KT 7SM -RA BKN008 OVC011 03/01 A3004 RMK P0002 T00300010 MADISHF,
LGA,2026-01-10 17:30,-73.8803,40.7794,9.0,,,,40.0,9.0,0.03,,,8.0,,OVC,,,,800.0,,,,-RA,,,,,,,,KLGA 102230Z AUTO 04009KT 7SM -RA OVC008 03/01 RMK P0003 T00300010 CIG 7V10 MADISHF,
LGA,2026-01-10 17:35,-73.8803,40.7794,9.0,,,,50.0,9.0,0.03,30.04,,8.0,,OVC,,,,800.0,,,,-RA,,,,,,,,KLGA 102235Z AUTO 05009KT 7SM -RA OVC008 03/01 A3004 RMK P0003 T00300010 CIG 7V12 MADISHF,
LGA,2026-01-10 17:40,-73.8803,40.7794,9.0,,,,50.0,8.0,0.04,,,8.0,,OVC,,,,800.0,,,,-RA,,,,,,,,KLGA 102240Z AUTO 05008KT 7SM -RA OVC008 03/01 RMK P0004 T00300010 MADISHF,
LGA,2026-01-10 17:45,-73.8803,40.7794,9.0,,,,50.0,9.0,0.05,,,8.0,,OVC,,,,800.0,,,,-RA,,,,,,,,KLGA 102245Z AUTO 05009KT 7SM -RA OVC008 03/01 RMK P0005 T00300010 MADISHF,
LGA,2026-01-10 17:50,-73.8803,40.7794,9.0,,,,50.0,10.0,0.05,,,8.0,,BKN,OVC,,,800.0,1000.0,,,-RA,,,,,,,,KLGA 102250Z AUTO 05010KT 7SM -RA BKN008 OVC010 03/01 RMK P0005 T00300010 MADISHF,
LGA,2026-01-10 17:51,-73.8803,40.7794,9.0,38.0,34.0,85.35,50.0,10.0,0.05,30.02,1016.4,8.0,,BKN,OVC,,,800.0,1000.0,,,-RA,,,,,,,30.49,KLGA 102251Z 05010KT 8SM -RA BKN008 OVC010 03/01 A3002 RMK AO2 SLP164 P0005 T00330011,
LGA,2026-01-10 17:55,-73.8803,40.7794,9.0,,,,50.0,11.0,0.01,,,8.0,,OVC,,,,800.0,,,,-RA,,,,,,,,KLGA 102255Z AUTO 05011KT 7SM -RA OVC008 03/01 RMK P0001 T00300010 MADISHF,
LGA,2026-01-10 18:00,-73.8803,40.7794,9.0,,,,50.0,12.0,0.01,,,7.0,,OVC,,,,800.0,,,,-RA,,,,,,,,KLGA 102300Z AUTO 05012KT 7SM -RA OVC008 03/01 RMK P0001 T00300010 MADISHF,
LGA,2026-01-10 18:05,-73.8803,40.7794,9.0,,,,50.0,11.0,0.01,,,8.0,,OVC,,,,800.0,,,,-RA,,,,,,,,KLGA 102305Z AUTO 05011KT 7SM -RA OVC008 03/01 RMK P0001 T00300010 MADISHF,
LGA,2026-01-10 18:10,-73.8803,40.7794,9.0,,,,50.0,11.0,0.01,29.99,,8.0,,OVC,,,,800.0,,,,-RA,,,,,,,,KLGA 102310Z AUTO 05011KT 7SM -RA OVC008 03/01 A2999 RMK P0001 T00300010 CIG 6V9 MADISHF,
LGA,2026-01-10 18:15,-73.8803,40.7794,9.0,,,,50.0,10.0,0.01,29.98,,7.0,,OVC,,,,600.0,,,,-RA,,,,,,,,KLGA 102315Z AUTO 05010KT 7SM -RA OVC006 03/01 A2998 RMK P0001 T00300010 MADISHF,
LGA,2026-01-10 18:15,-73.8803,40.7794,9.0,38.0,34.0,85.35,50.0,10.0,0.01,29.98,,7.0,,OVC,,,,600.0,,,,-RA,,,,,,,30.49,KLGA 102315Z 05010KT 7SM -RA OVC006 03/01 A2998 RMK AO2 PRESFR P0001 T00330011,
LGA,2026-01-10 18:20,-73.8803,40.7794,9.0,,,,50.0,11.0,0.02,29.97,,7.0,,OVC,,,,600.0,,,,-RA,,,,,,,,KLGA 102320Z AUTO 05011KT 7SM -RA OVC006 03/01 A2997 RMK P0002 T00300010 MADISHF,
LGA,2026-01-10 18:25,-73.8803,40.7794,9.0,,,,70.0,10.0,0.02,29.97,,7.0,,OVC,,,,600.0,,,,-RA,,,,,,,,KLGA 102325Z AUTO 07010KT 7SM -RA OVC006 03/01 A2997 RMK P0002 T00300010 MADISHF,
LGA,2026-01-10 18:30,-73.8803,40.7794,9.0,,,,70.0,9.0,0.02,29.96,,7.0,,OVC,,,,600.0,,,,-RA,,,,,,,,KLGA 102330Z AUTO 07009KT 7SM -RA OVC006 03/01 A2996 RMK P0002 T00300010 MADISHF,
LGA,2026-01-10 18:35,-73.8803,40.7794,9.0,,,,70.0,9.0,0.02,29.96,,7.0,,OVC,,,,500.0,,,,-RA,,,,,,,,KLGA 102335Z AUTO 07009KT 7SM -RA OVC005 03/01 A2996 RMK P0002 T00300010 MADISHF,
LGA,2026-01-10 18:37,-73.8803,40.7794,9.0,38.0,34.0,85.35,70.0,9.0,0.02,29.96,,6.0,,OVC,,,,500.0,,,,-RA BR,,,,,,,30.97,KLGA 102337Z 07009KT 6SM -RA BR OVC005 03/01 A2996 RMK AO2 P0002 T00330011,
LGA,2026-01-10 18:40,-73.8803,40.7794,9.0,,,,80.0,9.0,0.03,29.95,,6.0,,OVC,,,,500.0,,,,-RA BR,,,,,,,,KLGA 102340Z AUTO 08009KT 6SM -RA BR OVC005 03/01 A2995 RMK P0003 T00300010 MADISHF,
LGA,2026-01-10 18:45,-73.8803,40.7794,9.0,,,,70.0,8.0,0.03,29.95,,6.0,,OVC,,,,500.0,,,,-RA BR,,,,,,,,KLGA 102345Z AUTO 07008KT 6SM -RA BR OVC005 03/01 A2995 RMK P0003 T00300010 MADISHF,
LGA,2026-01-10 18:50,-73.8803,40.7794,9.0,,,,60.0,8.0,0.03,29.95,,5.0,,OVC,,,,400.0,,,,-RA BR,,,,,,,,KLGA 102350Z AUTO 06008KT 5SM -RA BR OVC004 03/02 A2995 RMK P0003 T00300020 MADISHF,
LGA,2026-01-10 18:51,-73.8803,40.7794,9.0,38.0,35.0,88.82,60.0,7.0,0.03,29.95,1014.0,5.0,,OVC,,,,400.0,,,,-RA BR,,,,,,,32.09,KLGA 102351Z 06007KT 5SM -RA BR OVC004 03/02 A2995 RMK AO2 SLP140 P0003 60028 T00330017 10050 20033 58048,
LGA,2026-01-10 18:55,-73.8803,40.7794,9.0,,,,60.0,8.0,,29.94,,6.0,,OVC,,,,400.0,,,,-RA BR,,,,,,,,KLGA 102355Z AUTO 06008KT 6SM -RA BR OVC004 03/02 A2994 RMK T00300020 MADISHF,
LGA,2026-01-10 19:00,-73.8803,40.7794,9.0,,,,50.0,10.0,0.01,29.94,,6.0,,OVC,,,,400.0,,,,-RA BR,,,,,,,,KLGA 110000Z AUTO 05010KT 6SM -RA BR OVC004 03/02 A2994 RMK P0001 T00300020 MADISHF,
LGA,2026-01-10 19:05,-73.8803,40.7794,9.0,,,,60.0,10.0,0.01,29.93,,5.0,,OVC,,,,400.0,,,,-RA BR,,,,,,,,KLGA 110005Z AUTO 06010KT 5SM -RA BR OVC004 03/02 A2993 RMK P0001 T00300020 MADISHF,
LGA,2026-01-10 19:10,-73.8803,40.7794,9.0,,,,60.0,9.0,0.02,29.93,,4.0,,OVC,,,,400.0,,,,RA BR,,,,,,,,KLGA 110010Z AUTO 06009KT 3SM RA BR OVC004 03/02 A2993 RMK P0002 T00300020 MADISHF,
LGA,2026-01-10 19:15,-73.8803,40.7794,9.0,,,,40.0,9.0,0.03,29.92,,3.5,,BKN,OVC,,,400.0,500.0,,,RA BR,,,,,,,,KLGA 110015Z AUTO 04009KT 3SM RA BR BKN004 OVC005 04/02 A2992 RMK P0003 T00400020 MADISHF,
LGA,2026-01-10 19:20,-73.8803,40.7794,9.0,,,,50.0,8.0,0.03,29.92,,4.0,,BKN,OVC,,,400.0,500.0,,,-RA BR,,,,,,,,KLGA 110020Z AUTO 05008KT 3SM -RA BR BKN004 OVC005 04/02 A2992 RMK P0003 T00400020 MADISHF,
LGA,2026-01-10 19:25,-73.8803,40.7794,9.0,,,,40.0,9.0,0.04,29.92,,3.5,,BKN,OVC,,,400.0,500.0,,,RA BR,,,,,,,,KLGA 110025Z AUTO 04009KT 3SM RA BR BKN004 OVC005 03/02 A2992 RMK P0004 T00300020 MADISHF,
LGA,2026-01-10 19:30,-73.8803,40.7794,9.0,,,,40.0,10.0,0.05,29.91,,3.5,,BKN,OVC,,,400.0,500.0,,,-RA BR,,,,,,,,KLGA 110030Z AUTO 04010KT 3SM -RA BR BKN004 OVC005 03/02 A2991 RMK P0005 T00300020 MADISHF,
LGA,2026-01-10 19:35,-73.8803,40.7794,9.0,,,,30.0,7.0,0.05,29.91,,4.0,,BKN,OVC,,,400.0,500.0,,,-RA BR,,,,,,,,KLGA 110035Z AUTO 03007KT 3SM -RA BR BKN004 OVC005 03/02 A2991 RMK P0005 T00300020 MADISHF,
LGA,2026-01-10 19:40,-73.8803,40.7794,9.0,,,,30.0,11.0,0.05,29.9,,5.0,,BKN,OVC,,,400.0,500.0,,,-RA BR,,,,,,,,KLGA 110040Z AUTO 03011KT 5SM -RA BR BKN004 OVC005 04/02 A2990 RMK P0005 T00400020 MADISHF,
LGA,2026-01-10 19:45,-73.8803,40.7794,9.0,,,,10.0,8.0,0.06,29.91,,6.0,,BKN,OVC,,,400.0,500.0,,,-RA BR,,,,,,,,KLGA 110045Z AUTO 01008KT 6SM -RA BR BKN004 OVC005 04/02 A2991 RMK P0006 T00400020 MADISHF,
LGA,2026-01-10 19:50,-73.8803,40.7794,9.0,,,,20.0,8.0,0.06,29.9,,5.0,,BKN,OVC,,,400.0,500.0,,,-RA BR,,,,,,,,KLGA 110050Z AUTO 02008KT 5SM -RA BR BKN004 OVC005 04/02 A2990 RMK P0006 T00400020 MADISHF,
LGA,2026-01-10 19:51,-73.8803,40.7794,9.0,39.0,36.0,88.87,30.0,8.0,0.06,29.9,1012.5,5.0,,BKN,OVC,,,400.0,500.0,,,-RA BR,,,,,,,32.74,KLGA 110051Z 03008KT 5SM -RA BR BKN004 OVC005 04/02 A2990 RMK AO2 SLP125 P0006 T00390022,
LGA,2026-01-10 19:55,-73.8803,40.7794,9.0,,,,30.0,8.0,0.01,29.89,,4.0,,BKN,OVC,,,400.0,500.0,,,-RA BR,,,,,,,,KLGA 110055Z AUTO 03008KT 3SM -RA BR BKN004 OVC005 04/02 A2989 RMK P0001 T00400020 MADISHF,
LGA,2026-01-10 20:00,-73.8803,40.7794,9.0,,,,40.0,8.0,0.02,29.89,,3.0,,BKN,OVC,,,400.0,500.0,,,RA BR,,,,,,,,KLGA 110100Z AUTO 04008KT 3SM RA BR BKN004 OVC005 04/02 A2989 RMK P0002 T00400020 MADISHF,
LGA,2026-01-10 20:05,-73.8803,40.7794,9.0,,,,50.0,11.0,0.03,29.88,,3.0,,BKN,OVC,,,400.0,500.0,,,-RA BR,,,,,,,,KLGA 110105Z AUTO 05011KT 3SM -RA BR BKN004 OVC005 04/02 A2988 RMK P0003 T00400020 MADISHF,
LGA,2026-01-10 20:10,-73.8803,40.7794,9.0,,,,40.0,10.0,0.03,29.88,,3.5,,BKN,OVC,,,400.0,500.0,,,-RA BR,,,,,,,,KLGA 110110Z AUTO 04010KT 3SM -RA BR BKN004 OVC005 04/02 A2988 RMK P0003 T00400020 MADISHF,
LGA,2026-01-10 20:15,-73.8803,40.7794,9.0,,,,40.0,11.0,0.04,29.88,,4.0,,BKN,OVC,,,400.0,500.0,,,-RA BR,,,,,,,,KLGA 110115Z AUTO 04011KT 3SM -RA BR BKN004 OVC005 03/02 A2988 RMK P0004 T00300020 MADISHF,
LGA,2026-01-10 20:20,-73.8803,40.7794,9.0,,,,50.0,12.0,0.04,29.88,,4.0,,BKN,OVC,,,400.0,500.0,,,-RA BR,,,,,,,,KLGA 110120Z AUTO 05012KT 3SM -RA BR BKN004 OVC005 03/02 A2988 RMK P0004 T00300020 MADISHF,
LGA,2026-01-10 20:25,-73.8803,40.7794,9.0,,,,40.0,11.0,0.05,29.87,,4.0,,BKN,OVC,,,400.0,500.0,,,-RA BR,,,,,,,,KLGA 110125Z AUTO 04011KT 3SM -RA BR BKN004 OVC005 03/02 A2987 RMK P0005 T00300020 MADISHF,
LGA,2026-01-10 20:30,-73.8803,40.7794,9.0,,,,40.0,11.0,0.05,29.87,,4.0,,BKN,OVC,,,400.0,500.0,,,-RA BR,,,,,,,,KLGA 110130Z AUTO 04011KT 3SM -RA BR BKN004 OVC005 03/02 A2987 RMK P0005 T00300020 MADISHF,
LGA,2026-01-10 20:35,-73.8803,40.7794,9.0,,,,40.0,11.0,0.05,29.87,,4.0,,BKN,OVC,,,400.0,500.0,,,-RA BR,,,,,,,,KLGA 110135Z AUTO 04011KT 3SM -RA BR BKN004 OVC005 03/02 A2987 RMK P0005 T00300020 MADISHF,
LGA,2026-01-10 20:40,-73.8803,40.7794,9.0,,,,40.0,10.0,0.06,29.87,,4.0,,BKN,OVC,,,400.0,500.0,,,-RA BR,,,,,,,,KLGA 110140Z AUTO 04010KT 3SM -RA BR BKN004 OVC005 03/02 A2987 RMK P0006 T00300020 MADISHF,
LGA,2026-01-10 20:45,-73.8803,40.7794,9.0,,,,50.0,11.0,0.06,29.87,,4.0,,BKN,OVC,,,400.0,500.0,,,-RA BR,,,,,,,,KLGA 110145Z AUTO 05011KT 3SM -RA BR BKN004 OVC005 04/02 A2987 RMK P0006 T00400020 MADISHF,
LGA,2026-01-10 20:50,-73.8803,40.7794,9.0,,,,50.0,11.0,0.07,29.86,,4.0,,BKN,OVC,,,400.0,500.0,,,-RA BR,,,,,,,,KLGA 110150Z AUTO 05011KT 3SM -RA BR BKN004 OVC005 04/02 A2986 RMK P0007 T00400020 MADISHF,
LGA,2026-01-10 20:51,-73.8803,40.7794,9.0,39.0,35.0,85.41,50.0,11.0,0.07,29.86,1011.0,4.0,,BKN,OVC,,,400.0,500.0,,,-RA BR,,,,,,,31.31,KLGA 110151Z 05011KT 4SM -RA BR BKN004 OVC005 04/02 A2986 RMK AO2 SLP110 P0007 T00390017,
LGA,2026-01-10 20:55,-73.8803,40.7794,9.0,,,,50.0,11.0,,29.85,,4.0,,OVC,,,,400.0,,,,-RA BR,,,,,,,,KLGA 110155Z AUTO 05011KT 3SM -RA BR OVC004 04/02 A2985 RMK T00400020 MADISHF,
LGA,2026-01-10 21:00,-73.8803,40.7794,9.0,,,,40.0,11.0,,29.85,,4.0,,OVC,,,,400.0,,,,-RA BR,,,,,,,,KLGA 110200Z AUTO 04011KT 3SM -RA BR OVC004 03/02 A2985 RMK T00300020 MADISHF,
LGA,2026-01-10 21:05,-73.8803,40.7794,9.0,,,,40.0,11.0,0.01,29.84,,4.0,,OVC,,,,400.0,,,,-RA BR,,,,,,,,KLGA 110205Z AUTO 04011KT 3SM -RA BR OVC004 04/02 A2984 RMK P0001 T00400020 MADISHF,
LGA,2026-01-10 21:10,-73.8803,40.7794,9.0,,,,40.0,11.0,0.01,29.84,,5.0,,OVC,,,,400.0,,,,-DZ BR,,,,,,,,KLGA 110210Z AUTO 04011KT 5SM -DZ BR OVC004 04/02 A2984 RMK P0001 T00400020 MADISHF,
LGA,2026-01-10 21:15,-73.8803,40.7794,9.0,,,,40.0,11.0,0.01,29.84,,6.0,,OVC,,,,400.0,,,,-DZ BR,,,,,,,,KLGA 110215Z AUTO 04011KT 6SM -DZ BR OVC004 04/02 A2984 RMK P0001 T00400020 MADISHF,
LGA,2026-01-10 21:20,-73.8803,40.7794,9.0,,,,40.0,12.0,0.01,29.83,,6.0,,OVC,,,,400.0,,,,-DZ BR,,,,,,,,KLGA 110220Z AUTO 04012KT 6SM -DZ BR OVC004 04/02 A2983 RMK P0001 T00400020 MADISHF,
LGA,2026-01-10 21:25,-73.8803,40.7794,9.0,,,,40.0,12.0,0.01,29.83,,7.0,,OVC,,,,400.0,,,,-DZ,,,,,,,,KLGA 110225Z AUTO 04012KT 7SM -DZ OVC004 04/02 A2983 RMK P0001 T00400020 MADISHF,
LGA,2026-01-10 21:30,-73.8803,40.7794,9.0,,,,40.0,12.0,0.01,29.82,,6.0,,OVC,,,,400.0,,,,-DZ BR,,,,,,,,KLGA 110230Z AUTO 04012KT 6SM -DZ BR OVC004 04/02 A2982 RMK P0001 T00400020 MADISHF,
LGA,2026-01-10 21:35,-73.8803,40.7794,9.0,,,,50.0,13.0,0.01,29.82,,5.0,,OVC,,,,400.0,,,,-DZ BR,,,,,,,,KLGA 110235Z AUTO 05013KT 5SM -DZ BR OVC004 04/02 A2982 RMK P0001 T00400020 MADISHF,
LGA,2026-01-10 21:40,-73.8803,40.7794,9.0,,,,40.0,11.0,0.01,29.81,,5.0,,OVC,,,,400.0,,,,-DZ BR,,,,,,,,KLGA 110240Z AUTO 04011KT 5SM -DZ BR OVC004 04/02 A2981 RMK P0001 T00400020 MADISHF,
LGA,2026-01-10 21:45,-73.8803,40.7794,9.0,,,,40.0,13.0,0.01,29.81,,4.0,,OVC,,,,400.0,,,,-DZ BR,,,,,,,,KLGA 110245Z AUTO 04013KT 3SM -DZ BR OVC004 04/02 A2981 RMK P0001 T00400020 MADISHF,
LGA,2026-01-10 21:50,-73.8803,40.7794,9.0,,,,30.0,12.0,0.01,29.81,,4.0,,OVC,,,,400.0,,,,-DZ BR,,,,,,,,KLGA 110250Z AUTO 03012KT 3SM -DZ BR OVC004 04/02 A2981 RMK P0001 T00400020 MADISHF,
LGA,2026-01-10 21:51,-73.8803,40.7794,9.0,39.0,36.0,88.87,30.0,12.0,0.01,29.8,1009.2,4.0,,OVC,,,,400.0,,,,-DZ BR,,,,,,,30.91,KLGA 110251Z 03012KT 4SM -DZ BR OVC004 04/02 A2980 RMK AO2 RAE09DZB09 SLP092 P0001 60014 T00390022 58048,
LGA,2026-01-10 21:55,-73.8803,40.7794,9.0,,,,40.0,13.0,,29.8,,5.0,,OVC,,,,400.0,,,,-DZ BR,,,,,,,,KLGA 110255Z AUTO 04013KT 5SM -DZ BR OVC004 04/02 A2980 RMK T00400020 MADISHF,
LGA,2026-01-10 22:00,-73.8803,40.7794,9.0,,,,30.0,11.0,,29.8,,6.0,,OVC,,,,400.0,,,,-DZ BR,,,,,,,,KLGA 110300Z AUTO 03011KT 6SM -DZ BR OVC004 04/02 A2980 RMK T00400020 MADISHF,
LGA,2026-01-10 22:05,-73.8803,40.7794,9.0,,,,30.0,9.0,,29.8,,4.0,,OVC,,,,400.0,,,,-DZ BR,,,,,,,,KLGA 110305Z AUTO 03009KT 3SM -DZ BR OVC004 04/02 A2980 RMK T00400020 MADISHF,
LGA,2026-01-10 22:10,-73.8803,40.7794,9.0,,,,40.0,11.0,,29.79,,4.0,,OVC,,,,400.0,,,,-DZ BR,,,,,,,,KLGA 110310Z AUTO 04011KT 3SM -DZ BR OVC004 04/02 A2979 RMK T00400020 MADISHF,
LGA,2026-01-10 22:15,-73.8803,40.7794,9.0,,,,20.0,10.0,,29.8,,4.0,,OVC,,,,400.0,,,,-RA BR,,,,,,,,KLGA 110315Z AUTO 02010KT 3SM -RA BR OVC004 04/02 A2980 RMK T00400020 MADISHF,
LGA,2026-01-10 22:20,-73.8803,40.7794,9.0,,,,40.0,14.0,0.01,29.78,,4.0,,OVC,,,,400.0,,,,-RA BR,,,,,,,,KLGA 110320Z AUTO 04014KT 3SM -RA BR OVC004 04/02 A2978 RMK P0001 T00400020 MADISHF,
LGA,2026-01-10 22:25,-73.8803,40.7794,9.0,,,,30.0,12.0,0.01,29.79,,4.0,,OVC,,,,400.0,,,,-RA BR,,,,,,,,KLGA 110325Z AUTO 03012KT 3SM -RA BR OVC004 04/02 A2979 RMK P0001 T00400020 MADISHF,
LGA,2026-01-10 22:30,-73.8803,40.7794,9.0,,,,40.0,12.0,0.02,29.77,,4.0,,OVC,,,,400.0,,,,-RA BR,,,,,,,,KLGA 110330Z AUTO 04012KT 3SM -RA BR OVC004 04/02 A2977 RMK P0002 T00400020 MADISHF,
LGA,2026-01-10 22:35,-73.8803,40.7794,9.0,,,,50.0,14.0,0.02,29.76,,4.0,,OVC,,,,400.0,,,,-RA BR,,,,,,,,KLGA 110335Z AUTO 05014KT 3SM -RA BR OVC004 04/02 A2976 RMK P0002 T00400020 MADISHF,
LGA,2026-01-10 22:40,-73.8803,40.7794,9.0,,,,50.0,11.0,0.02,29.76,,4.0,,OVC,,,,400.0,,,,-RA BR,,,,,,,,KLGA 110340Z AUTO 05011KT 3SM -RA BR OVC004 04/02 A2976 RMK P0002 T00400020 MADISHF,
LGA,2026-01-10 22:45,-73.8803,40.7794,9.0,,,,50.0,12.0,0.02,29.76,,4.0,,OVC,,,,400.0,,,,-RA BR,,,,,,,,KLGA 110345Z AUTO 05012KT 3SM -RA BR OVC004 04/02 A2976 RMK P0002 T00400020 MADISHF,
LGA,2026-01-10 22:50,-73.8803,40.7794,9.0,,,,50.0,10.0,0.02,29.75,,5.0,,OVC,,,,400.0,,,,-RA BR,,,,,,,,KLGA 110350Z AUTO 05010KT 5SM -RA BR OVC004 04/02 A2975 RMK P0002 T00400020 MADISHF,
LGA,2026-01-10 22:51,-73.8803,40.7794,9.0,39.0,36.0,88.87,50.0,11.0,0.02,29.75,1007.4,5.0,,OVC,,,,400.0,,,,-RA BR,,,,,,,31.31,KLGA 110351Z 05011KT 5SM -RA BR OVC004 04/02 A2975 RMK AO2 DZE14RAB14 SLP074 P0002 T00390022,
LGA,2026-01-10 22:55,-73.8803,40.7794,9.0,,,,50.0,11.0,,29.75,,5.0,,OVC,,,,400.0,,,,-RA BR,,,,,,,,KLGA 110355Z AUTO 05011KT 5SM -RA BR OVC004 04/02 A2975 RMK T00400020 MADISHF,
LGA,2026-01-10 23:00,-73.8803,40.7794,9.0,,,,40.0,9.0,,29.75,,5.0,,OVC,,,,400.0,,,,-RA BR,,,,,,,,KLGA 110400Z AUTO 04009KT 5SM -RA BR OVC004 04/02 A2975 RMK T00400020 MADISHF,
LGA,2026-01-10 23:05,-73.8803,40.7794,9.0,,,,40.0,8.0,,29.75,,5.0,,OVC,,,,400.0,,,,-RA BR,,,,,,,,KLGA 110405Z AUTO 04008KT 5SM -RA BR OVC004 04/02 A2975 RMK T00400020 MADISHF,
LGA,2026-01-10 23:10,-73.8803,40.7794,9.0,,,,40.0,9.0,0.01,29.75,,5.0,,OVC,,,,400.0,,,,-RA BR,,,,,,,,KLGA 110410Z AUTO 04009KT 5SM -RA BR OVC004 04/02 A2975 RMK P0001 T00400020 MADISHF,
LGA,2026-01-10 23:15,-73.8803,40.7794,9.0,,,,40.0,10.0,0.01,29.74,,5.0,,OVC,,,,400.0,,,,-RA BR,,,,,,,,KLGA 110415Z AUTO 04010KT 5SM -RA BR OVC004 04/02 A2974 RMK P0001 T00400020 MADISHF,
LGA,2026-01-10 23:25,-73.8803,40.7794,9.0,,,,40.0,11.0,0.01,29.73,,5.0,,OVC,,,,400.0,,,,-RA BR,,,,,,,,KLGA 110425Z AUTO 04011KT 5SM -RA BR OVC004 04/02 A2973 RMK P0001 T00400020 MADISHF,
LGA,2026-01-10 23:30,-73.8803,40.7794,9.0,,,,40.0,9.0,0.01,29.73,,5.0,,OVC,,,,400.0,,,,-RA BR,,,,,,,,KLGA 110430Z AUTO 04009KT 5SM -RA BR OVC004 04/02 A2973 RMK P0001 T00400020 MADISHF,
LGA,2026-01-10 23:35,-73.8803,40.7794,9.0,,,,40.0,9.0,0.01,29.73,,5.0,,OVC,,,,400.0,,,,-RA BR,,,,,,,,KLGA 110435Z AUTO 04009KT 5SM -RA BR OVC004 04/02 A2973 RMK P0001 T00400020 MADISHF,
LGA,2026-01-10 23:40,-73.8803,40.7794,9.0,,,,30.0,9.0,0.01,29.74,,5.0,,OVC,,,,400.0,,,,-RA BR,,,,,,,,KLGA 110440Z AUTO 03009KT 5SM -RA BR OVC004 04/02 A2974 RMK P0001 T00400020 MADISHF,
LGA,2026-01-10 23:45,-73.8803,40.7794,9.0,,,,20.0,8.0,0.02,29.74,,5.0,,OVC,,,,400.0,,,,-RA BR,,,,,,,,KLGA 110445Z AUTO 02008KT 5SM -RA BR OVC004 04/02 A2974 RMK P0002 T00400020 MADISHF,
LGA,2026-01-10 23:50,-73.8803,40.7794,9.0,,,,10.0,7.0,0.02,29.74,,4.0,,OVC,,,,400.0,,,,-RA BR,,,,,,,,KLGA 110450Z AUTO 01007KT 3SM -RA BR OVC004 04/03 A2974 RMK P0002 T00400030 MADISHF,
LGA,2026-01-10 23:51,-73.8803,40.7794,9.0,39.0,37.0,92.45,20.0,8.0,0.02,29.74,1006.9,4.0,,OVC,,,,400.0,,,,-RA BR,,,,,,,32.74,KLGA 110451Z 02008KT 4SM -RA BR OVC004 04/03 A2974 RMK AO2 SLP069 P0002 T00390028 401170033,
LGA,2026-01-10 23:55,-73.8803,40.7794,9.0,,,,20.0,8.0,,29.73,,5.0,,OVC,,,,400.0,,,,-RA BR,,,,,,,,KLGA 110455Z AUTO 02008KT 5SM -RA BR OVC004 04/03 A2973 RMK T00400030 MADISHF,
LGA,2026-01-11 00:00,-73.8803,40.7794,9.0,,,,10.0,9.0,,29.73,,5.0,,OVC,,,,400.0,,,,-RA BR,,,,,,,,KLGA 110500Z AUTO 01009KT 5SM -RA BR OVC004 04/03 A2973 RMK T00400030 MADISHF,
LGA,2026-01-11 00:05,-73.8803,40.7794,9.0,,,,350.0,9.0,0.01,29.74,,5.0,,OVC,,,,400.0,,,,-RA BR,,,,,,,,KLGA 110505Z AUTO 35009KT 5SM -RA BR OVC004 04/03 A2974 RMK P0001 T00400030 MADISHF,
LGA,2026-01-11 00:10,-73.8803,40.7794,9.0,,,,10.0,7.0,0.01,29.73,,5.0,,OVC,,,,400.0,,,,-RA BR,,,,,,,,KLGA 110510Z AUTO 01007KT 5SM -RA BR OVC004 04/03 A2973 RMK P0001 T00400030 WND 33V04 MADISHF,
LGA,2026-01-11 00:15,-73.8803,40.7794,9.0,,,,10.0,8.0,0.01,29.73,,5.0,,OVC,,,,400.0,,,,-RA BR,,,,,,,,KLGA 110515Z AUTO 01008KT 5SM -RA BR OVC004 04/03 A2973 RMK P0001 T00400030 MADISHF,
LGA,2026-01-11 00:20,-73.8803,40.7794,9.0,,,,360.0,6.0,0.01,29.74,,5.0,,OVC,,,,400.0,,,,-RA BR,,,,,,,,KLGA 110520Z AUTO 36006KT 5SM -RA BR OVC004 04/03 A2974 RMK P0001 T00400030 MADISHF,
LGA,2026-01-11 00:25,-73.8803,40.7794,9.0,,,,10.0,5.0,0.01,29.74,,5.0,,OVC,,,,400.0,,,,-RA BR,,,,,,,,KLGA 110525Z AUTO 01005KT 5SM -RA BR OVC004 04/03 A2974 RMK P0001 T00400030 MADISHF,
LGA,2026-01-11 00:30,-73.8803,40.7794,9.0,,,,360.0,6.0,0.01,29.74,,5.0,,OVC,,,,400.0,,,,-DZ BR,,,,,,,,KLGA 110530Z AUTO 36006KT 5SM -DZ BR OVC004 04/03 A2974 RMK P0001 T00400030 MADISHF,
LGA,2026-01-11 00:35,-73.8803,40.7794,9.0,,,,10.0,5.0,0.01,29.74,,5.0,,OVC,,,,400.0,,,,-DZ BR,,,,,,,,KLGA 110535Z AUTO 01005KT 5SM -DZ BR OVC004 04/03 A2974 RMK P0001 T00400030 MADISHF,
LGA,2026-01-11 00:40,-73.8803,40.7794,9.0,,,,10.0,3.0,0.01,29.74,,5.0,,OVC,,,,400.0,,,,-DZ BR,,,,,,,,KLGA 110540Z AUTO 01003KT 5SM -DZ BR OVC004 04/03 A2974 RMK P0001 T00400030 MADISHF,
LGA,2026-01-11 00:45,-73.8803,40.7794,9.0,,,,360.0,3.0,0.01,29.74,,5.0,,OVC,,,,400.0,,,,-DZ BR,,,,,,,,KLGA 110545Z AUTO 36003KT 5SM -DZ BR OVC004 04/03 A2974 RMK P0001 T00400030 MADISHF,
LGA,2026-01-11 00:50,-73.8803,40.7794,9.0,,,,20.0,4.0,0.01,29.74,,5.0,,OVC,,,,400.0,,,,-DZ BR,,,,,,,,KLGA 110550Z AUTO 02004KT 5SM -DZ BR OVC004 05/03 A2974 RMK P0001 T00500030 MADISHF,
LGA,2026-01-11 00:51,-73.8803,40.7794,9.0,41.0,38.0,88.96,20.0,4.0,0.01,29.74,1006.9,5.0,,OVC,,,,400.0,,,,-DZ BR,,,,,,,37.93,KLGA 110551Z 02004KT 5SM -DZ BR OVC004 05/03 A2974 RMK AO2 RAE30DZB30 SLP069 P0001 60019 T00500033 10050 20033 56023,
LGA,2026-01-11 00:55,-73.8803,40.7794,9.0,,,,340.0,3.0,,29.74,,5.0,,OVC,,,,400.0,,,,-DZ BR,,,,,,,,KLGA 110555Z AUTO 34003KT 5SM -DZ BR OVC004 05/03 A2974 RMK T00500030 MADISHF,
LGA,2026-01-11 01:00,-73.8803,40.7794,9.0,,,,320.0,5.0,,29.75,,5.0,,OVC,,,,400.0,,,,-DZ BR,,,,,,,,KLGA 110600Z AUTO 32005KT 5SM -DZ BR OVC004 05/03 A2975 RMK T00500030 MADISHF,
LGA,2026-01-11 01:05,-73.8803,40.7794,9.0,,,,330.0,5.0,,29.74,,5.0,,OVC,,,,400.0,,,,-DZ BR,,,,,,,,KLGA 110605Z AUTO 33005KT 5SM -DZ BR OVC004 05/04 A2974 RMK T00500040 MADISHF,
LGA,2026-01-11 01:10,-73.8803,40.7794,9.0,,,,340.0,6.0,,29.74,,5.0,,OVC,,,,400.0,,,,-DZ BR,,,,,,,,KLGA 110610Z AUTO 34006KT 5SM -DZ BR OVC004 05/04 A2974 RMK T00500040 MADISHF,
LGA,2026-01-11 01:15,-73.8803,40.7794,9.0,,,,330.0,6.0,,29.74,,5.0,,OVC,,,,400.0,,,,-DZ BR,,,,,,,,KLGA 110615Z AUTO 33006KT 5SM -DZ BR OVC004 05/04 A2974 RMK T00500040 MADISHF,
LGA,2026-01-11 01:20,-73.8803,40.7794,9.0,,,,340.0,3.0,,29.74,,5.0,,OVC,,,,400.0,,,,-DZ BR,,,,,,,,KLGA 110620Z AUTO 34003KT 5SM -DZ BR OVC004 06/04 A2974 RMK T00600040 MADISHF,
LGA,2026-01-11 01:25,-73.8803,40.7794,9.0,,,,320.0,6.0,,29.74,,5.0,,OVC,,,,400.0,,,,-DZ BR,,,,,,,,KLGA 110625Z AUTO 32006KT 5SM -DZ BR OVC004 06/04 A2974 RMK T00600040 MADISHF,
LGA,2026-01-11 01:30,-73.8803,40.7794,9.0,,,,320.0,9.0,,29.74,,5.0,,OVC,,,,400.0,,,,-DZ BR,,,,,,,,KLGA 110630Z AUTO 32009KT 5SM -DZ BR OVC004 05/04 A2974 RMK T00500040 MADISHF,
LGA,2026-01-11 01:35,-73.8803,40.7794,9.0,,,,310.0,8.0,,29.75,,5.0,,OVC,,,,400.0,,,,-DZ BR,,,,,,,,KLGA 110635Z AUTO 31008KT 5SM -DZ BR OVC004 05/03 A2975 RMK T00500030 MADISHF,
LGA,2026-01-11 01:40,-73.8803,40.7794,9.0,,,,320.0,7.0,,29.75,,5.0,,OVC,,,,400.0,,,,BR,,,,,,,,KLGA 110640Z AUTO 32007KT 5SM BR OVC004 05/03 A2975 RMK T00500030 MADISHF,
LGA,2026-01-11 01:45,-73.8803,40.7794,9.0,,,,320.0,6.0,,29.74,,5.0,,OVC,,,,400.0,,,,BR,,,,,,,,KLGA 110645Z AUTO 32006KT 5SM BR OVC004 05/03 A2974 RMK T00500030 MADISHF,
LGA,2026-01-11 01:50,-73.8803,40.7794,9.0,,,,310.0,6.0,,29.75,,6.0,,OVC,,,,400.0,,,,BR,,,,,,,,KLGA 110650Z AUTO 31006KT 6SM BR OVC004 05/03 A2975 RMK T00500030 MADISHF,
LGA,2026-01-11 01:51,-73.8803,40.7794,9.0,41.0,38.0,88.96,320.0,6.0,T,29.75,1007.3,6.0,,OVC,,,,400.0,,,,BR,,,,,,,36.37,KLGA 110651Z 32006KT 6SM BR OVC004 05/03 A2975 RMK AO2 DZE37 SLP073 P0000 T00500033,
LGA,2026-01-11 01:55,-73.8803,40.7794,9.0,,,,310.0,8.0,,29.75,,6.0,,OVC,,,,400.0,,,,BR,,,,,,,,KLGA 110655Z AUTO 31008KT 6SM BR OVC004 05/03 A2975 RMK T00500030 MADISHF,
LGA,2026-01-11 02:00,-73.8803,40.7794,9.0,,,,320.0,6.0,,29.75,,6.0,,OVC,,,,400.0,,,,BR,,,,,,,,KLGA 110700Z AUTO 32006KT 6SM BR OVC004 05/03 A2975 RMK T00500030 MADISHF,
LGA,2026-01-11 02:05,-73.8803,40.7794,9.0,,,,310.0,6.0,,29.75,,6.0,,OVC,,,,400.0,,,,BR,,,,,,,,KLGA 110705Z AUTO 31006KT 6SM BR OVC004 05/03 A2975 RMK T00500030 MADISHF,
LGA,2026-01-11 02:10,-73.8803,40.7794,9.0,,,,300.0,6.0,,29.76,,6.0,,OVC,,,,400.0,,,,BR,,,,,,,,KLGA 110710Z AUTO 30006KT 6SM BR OVC004 05/03 A2976 RMK T00500030 MADISHF,
LGA,2026-01-11 02:15,-73.8803,40.7794,9.0,,,,300.0,5.0,,29.75,,6.0,,OVC,,,,400.0,,,,BR,,,,,,,,KLGA 110715Z AUTO 30005KT 6SM BR OVC004 05/04 A2975 RMK T00500040 MADISHF,
LGA,2026-01-11 02:20,-73.8803,40.7794,9.0,,,,300.0,5.0,,29.76,,6.0,,OVC,,,,400.0,,,,BR,,,,,,,,KLGA 110720Z AUTO 30005KT 6SM BR OVC004 05/04 A2976 RMK T00500040 MADISHF,
LGA,2026-01-11 02:25,-73.8803,40.7794,9.0,,,,310.0,5.0,,29.75,,6.0,,OVC,,,,400.0,,,,BR,,,,,,,,KLGA 110725Z AUTO 31005KT 6SM BR OVC004 05/04 A2975 RMK T00500040 MADISHF,
LGA,2026-01-11 02:30,-73.8803,40.7794,9.0,,,,310.0,5.0,,29.75,,6.0,,OVC,,,,400.0,,,,BR,,,,,,,,KLGA 110730Z AUTO 31005KT 6SM BR OVC004 05/04 A2975 RMK T00500040 MADISHF,
LGA,2026-01-11 02:35,-73.8803,40.7794,9.0,,,,300.0,4.0,,29.75,,6.0,,OVC,,,,400.0,,,,BR,,,,,,,,KLGA 110735Z AUTO 30004KT 6SM BR OVC004 05/04 A2975 RMK T00500040 MADISHF,
LGA,2026-01-11 02:40,-73.8803,40.7794,9.0,,,,310.0,5.0,,29.75,,6.0,,OVC,,,,400.0,,,,BR,,,,,,,,KLGA 110740Z AUTO 31005KT 6SM BR OVC004 05/04 A2975 RMK T00500040 MADISHF,
LGA,2026-01-11 02:45,-73.8803,40.7794,9.0,,,,310.0,6.0,,29.75,,6.0,,OVC,,,,400.0,,,,BR,,,,,,,,KLGA 110745Z AUTO 31006KT 6SM BR OVC004 05/03 A2975 RMK T00500030 MADISHF,
LGA,2026-01-11 02:50,-73.8803,40.7794,9.0,,,,310.0,5.0,,29.75,,6.0,,BKN,BKN,OVC,,400.0,1000.0,7500.0,,BR,,,,,,,,KLGA 110750Z AUTO 31005KT 6SM BR BKN004 BKN010 OVC075 05/03 A2975 RMK T00500030 MADISHF,
LGA,2026-01-11 02:51,-73.8803,40.7794,9.0,41.0,38.0,88.96,310.0,5.0,0.00,29.75,1007.4,6.0,,BKN,BKN,OVC,,400.0,1000.0,7500.0,,BR,,,,,,,37.08,KLGA 110751Z 31005KT 6SM BR BKN004 BKN010 OVC075 05/03 A2975 RMK AO2 SLP074 T00500033,
LGA,2026-01-11 02:55,-73.8803,40.7794,9.0,,,,310.0,4.0,,29.76,,6.0,,BKN,BKN,OVC,,400.0,1000.0,7500.0,,BR,,,,,,,,KLGA 110755Z AUTO 31004KT 6SM BR BKN004 BKN010 OVC075 05/04 A2976 RMK T00500040 MADISHF,
LGA,2026-01-11 03:00,-73.8803,40.7794,9.0,,,,270.0,3.0,,29.76,,6.0,,BKN,BKN,OVC,,400.0,1000.0,7500.0,,BR,,,,,,,,KLGA 110800Z AUTO 27003KT 6SM BR BKN004 BKN010 OVC075 05/04 A2976 RMK T00500040 MADISHF,
LGA,2026-01-11 03:05,-73.8803,40.7794,9.0,,,,280.0,3.0,,29.76,,6.0,,BKN,BKN,OVC,,400.0,1000.0,7500.0,,BR,,,,,,,,KLGA 110805Z AUTO 28003KT 6SM BR BKN004 BKN010 OVC075 06/04 A2976 RMK T00600040 MADISHF,
LGA,2026-01-11 03:10,-73.8803,40.7794,9.0,,,,310.0,4.0,,29.76,,8.0,,SCT,BKN,OVC,,400.0,1000.0,7500.0,,,,,,,,,,KLGA 110810Z AUTO 31004KT 7SM SCT004 BKN010 OVC075 06/04 A2976 RMK T00600040 MADISHF,
LGA,2026-01-11 03:14,-73.8803,40.7794,9.0,42.0,39.0,89.01,310.0,7.0,0.00,29.76,,8.0,,SCT,BKN,OVC,,400.0,1000.0,7500.0,,,,,,,,,36.97,KLGA 110814Z 31007KT 8SM SCT004 BKN010 OVC075 06/04 A2976 RMK AO2 T00560039,
LGA,2026-01-11 03:15,-73.8803,40.7794,9.0,,,,310.0,8.0,,29.76,,10.0,,SCT,BKN,OVC,,400.0,1000.0,7500.0,,,,,,,,,,KLGA 110815Z AUTO 31008KT 10SM SCT004 BKN010 OVC075 06/04 A2976 RMK T00600040 MADISHF,
LGA,2026-01-11 03:20,-73.8803,40.7794,9.0,,,,310.0,7.0,,29.76,,10.0,,SCT,BKN,OVC,,400.0,1000.0,7500.0,,,,,,,,,,KLGA 110820Z AUTO 31007KT 10SM SCT004 BKN010 OVC075 06/04 A2976 RMK T00600040 MADISHF,
LGA,2026-01-11 03:25,-73.8803,40.7794,9.0,,,,320.0,6.0,,29.75,,10.0,,SCT,BKN,OVC,,400.0,1000.0,7500.0,,,,,,,,,,KLGA 110825Z AUTO 32006KT 10SM SCT004 BKN010 OVC075 06/04 A2975 RMK T00600040 MADISHF,
LGA,2026-01-11 03:30,-73.8803,40.7794,9.0,,,,310.0,6.0,,29.76,,10.0,,SCT,BKN,OVC,,400.0,1000.0,7500.0,,,,,,,,,,KLGA 110830Z AUTO 31006KT 10SM SCT004 BKN010 OVC075 06/04 A2976 RMK T00600040 MADISHF,
LGA,2026-01-11 03:35,-73.8803,40.7794,9.0,,,,310.0,8.0,,29.76,,10.0,,SCT,BKN,OVC,,400.0,1000.0,7500.0,,,,,,,,,,KLGA 110835Z AUTO 31008KT 10SM SCT004 BKN010 OVC075 06/04 A2976 RMK T00600040 MADISHF,
LGA,2026-01-11 03:40,-73.8803,40.7794,9.0,,,,310.0,5.0,,29.76,,10.0,,SCT,BKN,OVC,,400.0,1000.0,7500.0,,-RA,,,,,,,,KLGA 110840Z AUTO 31005KT 10SM -RA SCT004 BKN010 OVC075 06/04 A2976 RMK T00600040 MADISHF,
LGA,2026-01-11 03:45,-73.8803,40.7794,9.0,,,,320.0,5.0,,29.76,,10.0,,SCT,BKN,OVC,,400.0,1000.0,7500.0,,-RA,,,,,,,,KLGA 110845Z AUTO 32005KT 10SM -RA SCT004 BKN010 OVC075 06/04 A2976 RMK T00600040 MADISHF,
LGA,2026-01-11 03:50,-73.8803,40.7794,9.0,,,,320.0,6.0,,29.75,,10.0,,SCT,BKN,OVC,,400.0,1000.0,8000.0,,-RA,,,,,,,,KLGA 110850Z AUTO 32006KT 10SM -RA SCT004 BKN010 OVC080 06/04 A2975 RMK T00600040 MADISHF,
LGA,2026-01-11 03:51,-73.8803,40.7794,9.0,42.0,39.0,89.01,330.0,6.0,T,29.74,1007.2,10.0,,SCT,BKN,OVC,,400.0,1000.0,8000.0,,-RA,,,,,,,37.57,KLGA 110851Z 33006KT 10SM -RA SCT004 BKN010 OVC080 06/04 A2974 RMK AO2 RAB40 SLP072 P0000 60000 T00560039 50003,
LGA,2026-01-11 03:55,-73.8803,40.7794,9.0,,,,330.0,5.0,,29.74,,10.0,,SCT,BKN,OVC,,400.0,1000.0,8000.0,,-RA,,,,,,,,KLGA 110855Z AUTO 33005KT 10SM -RA SCT004 BKN010 OVC080 06/04 A2974 RMK T00600040 MADISHF,
LGA,2026-01-11 04:05,-73.8803,40.7794,9.0,,,,290.0,8.0,,29.77,,10.0,,SCT,BKN,OVC,,400.0,1000.0,8000.0,,,,,,,,,,KLGA 110905Z AUTO 29008KT 10SM SCT004 BKN010 OVC080 06/03 A2977 RMK T00600030 MADISHF,
LGA,2026-01-11 04:10,-73.8803,40.7794,9.0,,,,260.0,6.0,,29.79,,10.0,,FEW,BKN,OVC,,400.0,1000.0,8000.0,,,,,,,,,,KLGA 110910Z AUTO 26006KT 10SM FEW004 BKN010 OVC080 06/04 A2979 RMK T00600040 MADISHF,
LGA,2026-01-11 04:15,-73.8803,40.7794,9.0,,,,290.0,5.0,,29.77,,10.0,,FEW,BKN,OVC,,400.0,1000.0,8000.0,,,,,,,,,,KLGA 110915Z AUTO 29005KT 10SM FEW004 BKN010 OVC080 06/04 A2977 RMK T00600040 VRB05KT MADISHF,
LGA,2026-01-11 04:20,-73.8803,40.7794,9.0,,,,270.0,4.0,,29.77,,10.0,,FEW,BKN,OVC,,400.0,1000.0,8000.0,,,,,,,,,,KLGA 110920Z AUTO 27004KT 10SM FEW004 BKN010 OVC080 06/04 A2977 RMK T00600040 VRB04KT MADISHF,
LGA,2026-01-11 04:25,-73.8803,40.7794,9.0,,,,280.0,6.0,,29.78,,10.0,,FEW,BKN,OVC,,400.0,1000.0,8000.0,,,,,,,,,,KLGA 110925Z AUTO 28006KT 10SM FEW004 BKN010 OVC080 06/04 A2978 RMK T00600040 MADISHF,
LGA,2026-01-11 04:30,-73.8803,40.7794,9.0,,,,280.0,5.0,,29.78,,10.0,,FEW,BKN,OVC,,400.0,1000.0,8000.0,,,,,,,,,,KLGA 110930Z AUTO 28005KT 10SM FEW004 BKN010 OVC080 06/04 A2978 RMK T00600040 MADISHF,
LGA,2026-01-11 04:35,-73.8803,40.7794,9.0,,,,280.0,5.0,,29.78,,10.0,,FEW,BKN,OVC,,400.0,1000.0,8000.0,,,,,,,,,,KLGA 110935Z AUTO 28005KT 10SM FEW004 BKN010 OVC080 06/04 A2978 RMK T00600040 MADISHF,
LGA,2026-01-11 04:40,-73.8803,40.7794,9.0,,,,280.0,5.0,,29.78,,10.0,,FEW,BKN,OVC,,400.0,1000.0,8000.0,,,,,,,,,,KLGA 110940Z AUTO 28005KT 10SM FEW004 BKN010 OVC080 06/04 A2978 RMK T00600040 MADISHF,
LGA,2026-01-11 04:45,-73.8803,40.7794,9.0,,,,250.0,7.0,,29.79,,10.0,,FEW,BKN,OVC,,400.0,1300.0,8500.0,,,,,,,,,,KLGA 110945Z AUTO 25007KT 10SM FEW004 BKN013 OVC085 06/04 A2979 RMK T00600040 MADISHF,
LGA,2026-01-11 04:50,-73.8803,40.7794,9.0,,,,270.0,6.0,,29.8,,10.0,,FEW,BKN,OVC,,400.0,1300.0,8500.0,,,,,,,,,,KLGA 110950Z AUTO 27006KT 10SM FEW004 BKN013 OVC085 06/04 A2980 RMK T00600040 MADISHF,
LGA,2026-01-11 04:51,-73.8803,40.7794,9.0,43.0,39.0,85.65,270.0,5.0,T,29.8,1009.0,10.0,,FEW,BKN,OVC,,400.0,1300.0,8500.0,,,,,,,,,39.46,KLGA 110951Z 27005KT 10SM FEW004 BKN013 OVC085 06/04 A2980 RMK AO2 RAE05 SLP090 P0000 T00610039,
LGA,2026-01-11 04:55,-73.8803,40.7794,9.0,,,,0.0,0.0,,29.78,,10.0,,BKN,OVC,,,1300.0,8500.0,,,-RA,,,,,,,,KLGA 110955Z AUTO 00000KT 10SM -RA BKN013 OVC085 06/04 A2978 RMK T00600040 MADISHF,
LGA,2026-01-11 05:00,-73.8803,40.7794,9.0,,,,280.0,4.0,,29.78,,10.0,,BKN,OVC,,,1300.0,8500.0,,,-RA,,,,,,,,KLGA 111000Z AUTO 28004KT 10SM -RA BKN013 OVC085 06/04 A2978 RMK T00600040 MADISHF,
LGA,2026-01-11 05:05,-73.8803,40.7794,9.0,,,,290.0,6.0,0.01,29.78,,10.0,,BKN,OVC,,,1300.0,8500.0,,,-RA,,,,,,,,KLGA 111005Z AUTO 29006KT 10SM -RA BKN013 OVC085 06/04 A2978 RMK P0001 T00600040 MADISHF,
LGA,2026-01-11 05:10,-73.8803,40.7794,9.0,,,,310.0,7.0,0.01,29.78,,10.0,,BKN,OVC,,,1300.0,8500.0,,,-RA,,,,,,,,KLGA 111010Z AUTO 31007KT 10SM -RA BKN013 OVC085 06/03 A2978 RMK P0001 T00600030 MADISHF,
LGA,2026-01-11 05:15,-73.8803,40.7794,9.0,,,,290.0,4.0,0.01,29.78,,10.0,,BKN,OVC,,,1300.0,8500.0,,,-RA,,,,,,,,KLGA 111015Z AUTO 29004KT 10SM -RA BKN013 OVC085 06/03 A2978 RMK P0001 T00600030 MADISHF,
LGA,2026-01-11 05:20,-73.8803,40.7794,9.0,,,,280.0,4.0,0.01,29.78,,10.0,,BKN,OVC,,,1300.0,8500.0,,,,,,,,,,,KLGA 111020Z AUTO 28004KT 10SM BKN013 OVC085 06/04 A2978 RMK P0001 T00600040 MADISHF,
LGA,2026-01-11 05:25,-73.8803,40.7794,9.0,,,,280.0,3.0,0.01,29.77,,10.0,,BKN,OVC,,,1300.0,8500.0,,,,,,,,,,,KLGA 111025Z AUTO 28003KT 10SM BKN013 OVC085 06/04 A2977 RMK P0001 T00600040 MADISHF,
LGA,2026-01-11 05:30,-73.8803,40.7794,9.0,,,,280.0,4.0,0.01,29.78,,10.0,,BKN,OVC,,,1300.0,8500.0,,,,,,,,,,,KLGA 111030Z AUTO 28004KT 10SM BKN013 OVC085 06/04 A2978 RMK P0001 T00600040 MADISHF,
LGA,2026-01-11 05:35,-73.8803,40.7794,9.0,,,,270.0,6.0,0.01,29.8,,10.0,,BKN,OVC,,,1300.0,8000.0,,,,,,,,,,,KLGA 111035Z AUTO 27006KT 10SM BKN013 OVC080 06/04 A2980 RMK P0001 T00600040 MADISHF,
LGA,2026-01-11 05:40,-73.8803,40.7794,9.0,,,,270.0,6.0,0.01,29.8,,10.0,,BKN,OVC,,,1300.0,8000.0,,,,,,,,,,,KLGA 111040Z AUTO 27006KT 10SM BKN013 OVC080 06/04 A2980 RMK P0001 T00600040 MADISHF,
LGA,2026-01-11 05:45,-73.8803,40.7794,9.0,,,,280.0,5.0,0.01,29.8,,10.0,,BKN,OVC,,,1300.0,8000.0,,,,,,,,,,,KLGA 111045Z AUTO 28005KT 10SM BKN013 OVC080 06/04 A2980 RMK P0001 T00600040 MADISHF,
LGA,2026-01-11 05:50,-73.8803,40.7794,9.0,,,,270.0,7.0,0.01,29.81,,10.0,,BKN,OVC,,,1300.0,8000.0,,,,,,,,,,,KLGA 111050Z AUTO 27007KT 10SM BKN013 OVC080 06/04 A2981 RMK P0001 T00600040 MADISHF,
LGA,2026-01-11 05:51,-73.8803,40.7794,9.0,43.0,39.0,85.65,270.0,7.0,0.01,29.81,1009.3,10.0,,BKN,OVC,,,1300.0,8000.0,,,,,,,,,,38.19,KLGA 111051Z 27007KT 10SM BKN013 OVC080 06/04 A2981 RMK AO2 RAB0954E16 SLP093 P0001 T00610039,
LGA,2026-01-11 05:55,-73.8803,40.7794,9.0,,,,270.0,4.0,,29.8,,10.0,,BKN,BKN,OVC,,1300.0,6500.0,8500.0,,,,,,,,,,KLGA 111055Z AUTO 27004KT 10SM BKN013 BKN065 OVC085 07/04 A2980 RMK T00700040 MADISHF,
LGA,2026-01-11 06:00,-73.8803,40.7794,9.0,,,,270.0,5.0,,29.81,,10.0,,BKN,BKN,OVC,,1300.0,6500.0,8500.0,,,,,,,,,,KLGA 111100Z AUTO 27005KT 10SM BKN013 BKN065 OVC085 07/04 A2981 RMK T00700040 MADISHF,
LGA,2026-01-11 06:05,-73.8803,40.7794,9.0,,,,280.0,5.0,,29.81,,10.0,,BKN,BKN,OVC,,1300.0,6500.0,8500.0,,,,,,,,,,KLGA 111105Z AUTO 28005KT 10SM BKN013 BKN065 OVC085 07/04 A2981 RMK T00700040 MADISHF,
LGA,2026-01-11 06:10,-73.8803,40.7794,9.0,,,,270.0,5.0,,29.81,,10.0,,BKN,BKN,OVC,,1300.0,6500.0,8500.0,,,,,,,,,,KLGA 111110Z AUTO 27005KT 10SM BKN013 BKN065 OVC085 07/04 A2981 RMK T00700040 MADISHF,
LGA,2026-01-11 06:15,-73.8803,40.7794,9.0,,,,260.0,5.0,,29.81,,10.0,,BKN,BKN,OVC,,1300.0,6500.0,8500.0,,,,,,,,,,KLGA 111115Z AUTO 26005KT 10SM BKN013 BKN065 OVC085 07/04 A2981 RMK T00700040 MADISHF,
LGA,2026-01-11 06:20,-73.8803,40.7794,9.0,,,,290.0,4.0,,29.81,,10.0,,BKN,BKN,OVC,,1300.0,6500.0,8500.0,,,,,,,,,,KLGA 111120Z AUTO 29004KT 10SM BKN013 BKN065 OVC085 07/04 A2981 RMK T00700040 MADISHF,
LGA,2026-01-11 06:25,-73.8803,40.7794,9.0,,,,300.0,8.0,,29.81,,10.0,,BKN,BKN,OVC,,1300.0,6500.0,8500.0,,,,,,,,,,KLGA 111125Z AUTO 30008KT 10SM BKN013 BKN065 OVC085 07/04 A2981 RMK T00700040 MADISHF,
LGA,2026-01-11 06:30,-73.8803,40.7794,9.0,,,,300.0,7.0,,29.82,,10.0,,BKN,BKN,OVC,,1300.0,6500.0,8500.0,,,,,,,,,,KLGA 111130Z AUTO 30007KT 10SM BKN013 BKN065 OVC085 07/03 A2982 RMK T00700030 MADISHF,
LGA,2026-01-11 06:35,-73.8803,40.7794,9.0,,,,290.0,8.0,,29.81,,10.0,,SCT,BKN,BKN,,1300.0,4500.0,9000.0,,,,,,,,,,KLGA 111135Z AUTO 29008KT 10SM SCT013 BKN045 BKN090 07/03 A2981 RMK T00700030 MADISHF,
LGA,2026-01-11 06:35,-73.8803,40.7794,9.0,44.0,38.0,79.27,300.0,7.0,0.00,29.81,,10.0,,SCT,BKN,BKN,,1300.0,4500.0,9000.0,,,,,,,,,39.41,KLGA 111135Z 30007KT 10SM SCT013 BKN045 BKN090 07/03 A2981 RMK AO2 T00670033,
LGA,2026-01-11 06:40,-73.8803,40.7794,9.0,,,,320.0,8.0,,29.8,,10.0,,SCT,BKN,BKN,,1300.0,4500.0,9000.0,,,,,,,,,,KLGA 111140Z AUTO 32008KT 10SM SCT013 BKN045 BKN090 07/03 A2980 RMK T00700030 MADISHF,
LGA,2026-01-11 06:45,-73.8803,40.7794,9.0,,,,310.0,5.0,,29.81,,10.0,,SCT,BKN,BKN,,1300.0,4500.0,9000.0,,,,,,,,,,KLGA 111145Z AUTO 31005KT 10SM SCT013 BKN045 BKN090 06/03 A2981 RMK T00600030 MADISHF,
LGA,2026-01-11 06:50,-73.8803,40.7794,9.0,,,,300.0,7.0,,29.82,,10.0,,SCT,BKN,BKN,,1300.0,4500.0,9000.0,,,,,,,,,,KLGA 111150Z AUTO 30007KT 10SM SCT013 BKN045 BKN090 06/03 A2982 RMK T00600030 MADISHF,
LGA,2026-01-11 06:51,-73.8803,40.7794,9.0,43.0,38.0,82.36,300.0,7.0,0.00,29.82,1009.6,10.0,,SCT,BKN,BKN,,1300.0,4500.0,9000.0,,,,,,,,,38.19,KLGA 111151Z 30007KT 10SM SCT013 BKN045 BKN090 06/03 A2982 RMK AO2 SLP096 60001 70048 T00610033 10067 20050 51024,
LGA,2026-01-11 06:55,-73.8803,40.7794,9.0,,,,300.0,10.0,,29.82,,10.0,,OVC,,,,10000.0,,,,,,,,,,,,KLGA 111155Z AUTO 30010KT 10SM OVC100 06/03 A2982 RMK T00600030 MADISHF,
LGA,2026-01-11 07:00,-73.8803,40.7794,9.0,,,,300.0,8.0,,29.81,,10.0,,OVC,,,,10000.0,,,,,,,,,,,,KLGA 111200Z AUTO 30008KT 10SM OVC100 07/03 A2981 RMK T00700030 MADISHF,
LGA,2026-01-11 07:05,-73.8803,40.7794,9.0,,,,290.0,8.0,,29.82,,10.0,,OVC,,,,10000.0,,,,,,,,,,,,KLGA 111205Z AUTO 29008KT 10SM OVC100 07/03 A2982 RMK T00700030 MADISHF,
LGA,2026-01-11 07:10,-73.8803,40.7794,9.0,,,,300.0,9.0,,29.82,,10.0,,OVC,,,,10000.0,,,,,,,,,,,,KLGA 111210Z AUTO 30009KT 10SM OVC100 07/03 A2982 RMK T00700030 MADISHF,
LGA,2026-01-11 07:15,-73.8803,40.7794,9.0,,,,300.0,9.0,,29.82,,10.0,14.0,BKN,,,,10000.0,,,,,,,,,,,,KLGA 111215Z AUTO 30009G14KT 10SM BKN100 07/03 A2982 RMK T00700030 MADISHF,
LGA,2026-01-11 07:20,-73.8803,40.7794,9.0,,,,300.0,7.0,,29.82,,10.0,,BKN,,,,11000.0,,,,,,,,,,,,KLGA 111220Z AUTO 30007KT 10SM BKN110 07/03 A2982 RMK T00700030 MADISHF,
LGA,2026-01-11 07:25,-73.8803,40.7794,9.0,,,,290.0,9.0,,29.83,,10.0,,BKN,,,,11000.0,,,,,,,,,,,,KLGA 111225Z AUTO 29009KT 10SM BKN110 07/03 A2983 RMK T00700030 MADISHF,
LGA,2026-01-11 07:30,-73.8803,40.7794,9.0,,,,290.0,11.0,,29.82,,10.0,,BKN,,,,11000.0,,,,,,,,,,,,KLGA 111230Z AUTO 29011KT 10SM BKN110 07/03 A2982 RMK T00700030 MADISHF,
LGA,2026-01-11 07:35,-73.8803,40.7794,9.0,,,,290.0,9.0,,29.82,,10.0,,SCT,,,,10000.0,,,,,,,,,,,,KLGA 111235Z AUTO 29009KT 10SM SCT100 07/03 A2982 RMK T00700030 MADISHF,
LGA,2026-01-11 07:40,-73.8803,40.7794,9.0,,,,290.0,10.0,,29.83,,10.0,,SCT,,,,10000.0,,,,,,,,,,,,KLGA 111240Z AUTO 29010KT 10SM SCT100 07/03 A2983 RMK T00700030 MADISHF,
LGA,2026-01-11 07:45,-73.8803,40.7794,9.0,,,,290.0,11.0,,29.81,,10.0,16.0,BKN,,,,10000.0,,,,,,,,,,,,KLGA 111245Z AUTO 29011G16KT 10SM BKN100 07/03 A2981 RMK T00700030 MADISHF,
LGA,2026-01-11 07:50,-73.8803,40.7794,9.0,,,,290.0,10.0,,29.81,,10.0,,FEW,SCT,BKN,,1600.0,5000.0,10000.0,,,,,,,,,,KLGA 111250Z AUTO 29010KT 10SM FEW016 SCT050 BKN100 07/03 A2981 RMK T00700030 MADISHF,
LGA,2026-01-11 07:51,-73.8803,40.7794,9.0,44.0,37.0,76.21,290.0,10.0,0.00,29.8,1009.2,10.0,,FEW,SCT,BKN,,1600.0,5000.0,10000.0,,,,,,,,,38.02,KLGA 111251Z 29010KT 10SM FEW016 SCT050 BKN100 07/03 A2980 RMK AO2 SLP092 T00670028,
LGA,2026-01-11 07:55,-73.8803,40.7794,9.0,,,,290.0,10.0,,29.81,,10.0,,BKN,,,,10000.0,,,,,,,,,,,,KLGA 111255Z AUTO 29010KT 10SM BKN100 07/03 A2981 RMK T00700030 MADISHF,
LGA,2026-01-11 08:00,-73.8803,40.7794,9.0,,,,290.0,10.0,,29.81,,10.0,,BKN,,,,11000.0,,,,,,,,,,,,KLGA 111300Z AUTO 29010KT 10SM BKN110 07/03 A2981 RMK T00700030 MADISHF,
LGA,2026-01-11 08:05,-73.8803,40.7794,9.0,,,,300.0,10.0,,29.8,,10.0,,BKN,,,,10000.0,,,,,,,,,,,,KLGA 111305Z AUTO 30010KT 10SM BKN100 07/03 A2980 RMK T00700030 MADISHF,
LGA,2026-01-11 08:10,-73.8803,40.7794,9.0,,,,300.0,9.0,,29.8,,10.0,,BKN,,,,10000.0,,,,,,,,,,,,KLGA 111310Z AUTO 30009KT 10SM BKN100 07/03 A2980 RMK T00700030 MADISHF,
LGA,2026-01-11 08:15,-73.8803,40.7794,9.0,,,,300.0,7.0,,29.8,,10.0,,BKN,,,,11000.0,,,,,,,,,,,,KLGA 111315Z AUTO 30007KT 10SM BKN110 07/03 A2980 RMK T00700030 MADISHF,
LGA,2026-01-11 08:20,-73.8803,40.7794,9.0,,,,310.0,6.0,,29.8,,10.0,,OVC,,,,10000.0,,,,,,,,,,,,KLGA 111320Z AUTO 31006KT 10SM OVC100 07/03 A2980 RMK T00700030 MADISHF,
LGA,2026-01-11 08:25,-73.8803,40.7794,9.0,,,,290.0,7.0,,29.81,,10.0,,OVC,,,,10000.0,,,,,,,,,,,,KLGA 111325Z AUTO 29007KT 10SM OVC100 07/03 A2981 RMK T00700030 MADISHF,
LGA,2026-01-11 08:30,-73.8803,40.7794,9.0,,,,300.0,11.0,,29.81,,10.0,,BKN,,,,10000.0,,,,,,,,,,,,KLGA 111330Z AUTO 30011KT 10SM BKN100 07/03 A2981 RMK T00700030 MADISHF,
LGA,2026-01-11 08:35,-73.8803,40.7794,9.0,,,,300.0,11.0,,29.81,,10.0,,SCT,,,,11000.0,,,,,,,,,,,,KLGA 111335Z AUTO 30011KT 10SM SCT110 07/03 A2981 RMK T00700030 MADISHF,
LGA,2026-01-11 08:40,-73.8803,40.7794,9.0,,,,300.0,11.0,,29.8,,10.0,,SCT,,,,10000.0,,,,,,,,,,,,KLGA 111340Z AUTO 30011KT 10SM SCT100 07/02 A2980 RMK T00700020 MADISHF,
LGA,2026-01-11 08:45,-73.8803,40.7794,9.0,,,,290.0,9.0,,29.8,,10.0,,SCT,,,,11000.0,,,,,,,,,,,,KLGA 111345Z AUTO 29009KT 10SM SCT110 07/02 A2980 RMK T00700020 MADISHF,
LGA,2026-01-11 08:50,-73.8803,40.7794,9.0,,,,290.0,10.0,,29.81,,10.0,,FEW,SCT,BKN,,2200.0,7000.0,11000.0,,,,,,,,,,KLGA 111350Z AUTO 29010KT 10SM FEW022 SCT070 BKN110 07/02 A2981 RMK T00700020 MADISHF,
LGA,2026-01-11 08:51,-73.8803,40.7794,9.0,44.0,36.0,73.25,300.0,10.0,0.00,29.81,1009.5,10.0,,FEW,SCT,BKN,BKN,2200.0,7000.0,11000.0,13000.0,,,,,,,,38.02,KLGA 111351Z 30010KT 10SM FEW022 SCT070 BKN110 BKN130 07/02 A2981 RMK AO2 SLP095 T00670022,
LGA,2026-01-11 09:00,-73.8803,40.7794,9.0,,,,290.0,12.0,,29.81,,10.0,18.0,FEW,,,,12000.0,,,,,,,,,,,,KLGA 111400Z AUTO 29012G18KT 10SM FEW120 07/02 A2981 RMK T00700020 MADISHF,
LGA,2026-01-11 09:05,-73.8803,40.7794,9.0,,,,300.0,12.0,,29.81,,10.0,,SCT,,,,11000.0,,,,,,,,,,,,KLGA 111405Z AUTO 30012KT 10SM SCT110 07/02 A2981 RMK T00700020 MADISHF,
LGA,2026-01-11 09:10,-73.8803,40.7794,9.0,,,,290.0,11.0,,29.82,,10.0,,SCT,,,,11000.0,,,,,,,,,,,,KLGA 111410Z AUTO 29011KT 10SM SCT110 07/02 A2982 RMK T00700020 MADISHF,
LGA,2026-01-11 09:15,-73.8803,40.7794,9.0,,,,300.0,12.0,,29.82,,10.0,,SCT,,,,11000.0,,,,,,,,,,,,KLGA 111415Z AUTO 30012KT 10SM SCT110 07/02 A2982 RMK T00700020 MADISHF,
LGA,2026-01-11 09:20,-73.8803,40.7794,9.0,,,,300.0,12.0,,29.82,,10.0,,BKN,,,,11000.0,,,,,,,,,,,,KLGA 111420Z AUTO 30012KT 10SM BKN110 07/02 A2982 RMK T00700020 MADISHF,
LGA,2026-01-11 09:25,-73.8803,40.7794,9.0,,,,300.0,12.0,,29.83,,10.0,,BKN,,,,11000.0,,,,,,,,,,,,KLGA 111425Z AUTO 30012KT 10SM BKN110 07/02 A2983 RMK T00700020 MADISHF,
LGA,2026-01-11 09:30,-73.8803,40.7794,9.0,,,,300.0,13.0,,29.81,,10.0,,BKN,,,,11000.0,,,,,,,,,,,,KLGA 111430Z AUTO 30013KT 10SM BKN110 07/01 A2981 RMK T00700010 MADISHF,
LGA,2026-01-11 09:35,-73.8803,40.7794,9.0,,,,300.0,13.0,,29.81,,10.0,,BKN,,,,11000.0,,,,,,,,,,,,KLGA 111435Z AUTO 30013KT 10SM BKN110 07/01 A2981 RMK T00700010 MADISHF,
LGA,2026-01-11 09:40,-73.8803,40.7794,9.0,,,,300.0,13.0,,29.81,,10.0,,BKN,,,,11000.0,,,,,,,,,,,,KLGA 111440Z AUTO 30013KT 10SM BKN110 07/01 A2981 RMK T00700010 MADISHF,
LGA,2026-01-11 09:45,-73.8803,40.7794,9.0,,,,300.0,15.0,,29.81,,10.0,22.0,BKN,,,,10000.0,,,,,,,,,,,,KLGA 111445Z AUTO 30015G22KT 10SM BKN100 07/01 A2981 RMK T00700010 MADISHF,
LGA,2026-01-11 09:50,-73.8803,40.7794,9.0,,,,310.0,13.0,,29.81,,10.0,,FEW,SCT,BKN,,2700.0,7000.0,10000.0,,,,,,,,,,KLGA 111450Z AUTO 31013KT 10SM FEW027 SCT070 BKN100 06/M00 A2981 RMK T00601000 MADISHF,
LGA,2026-01-11 09:51,-73.8803,40.7794,9.0,43.0,32.0,64.86,300.0,13.0,0.00,29.82,1009.6,10.0,22.0,FEW,SCT,BKN,BKN,2700.0,7000.0,10000.0,13000.0,,,,,,,,35.66,KLGA 111451Z 30013G22KT 10SM FEW027 SCT070 BKN100 BKN130 06/00 A2982 RMK AO2 SLP096 T00610000 55000,
LGA,2026-01-11 09:55,-73.8803,40.7794,9.0,,,,300.0,15.0,,29.81,,10.0,,BKN,,,,10000.0,,,,,,,,,,,,KLGA 111455Z AUTO 30015KT 10SM BKN100 07/M00 A2981 RMK T00701000 MADISHF,
LGA,2026-01-11 10:00,-73.8803,40.7794,9.0,,,,310.0,11.0,,29.81,,10.0,,BKN,,,,10000.0,,,,,,,,,,,,KLGA 111500Z AUTO 31011KT 10SM BKN100 06/M00 A2981 RMK T00601000 MADISHF,
LGA,2026-01-11 10:05,-73.8803,40.7794,9.0,,,,310.0,15.0,,29.81,,10.0,,OVC,,,,10000.0,,,,,,,,,,,,KLGA 111505Z AUTO 31015KT 10SM OVC100 06/M00 A2981 RMK T00601000 MADISHF,
LGA,2026-01-11 10:10,-73.8803,40.7794,9.0,,,,300.0,13.0,,29.82,,10.0,,OVC,,,,10000.0,,,,,,,,,,,,KLGA 111510Z AUTO 30013KT 10SM OVC100 06/M01 A2982 RMK T00601010 MADISHF,
LGA,2026-01-11 10:15,-73.8803,40.7794,9.0,,,,290.0,14.0,,29.82,,10.0,,OVC,,,,10000.0,,,,,,,,,,,,KLGA 111515Z AUTO 29014KT 10SM OVC100 06/M01 A2982 RMK T00601010 MADISHF,
LGA,2026-01-11 10:20,-73.8803,40.7794,9.0,,,,300.0,15.0,,29.82,,10.0,,OVC,,,,10000.0,,,,,,,,,,,,KLGA 111520Z AUTO 30015KT 10SM OVC100 06/M01 A2982 RMK T00601010 MADISHF,
LGA,2026-01-11 10:25,-73.8803,40.7794,9.0,,,,300.0,14.0,,29.82,,10.0,,OVC,,,,10000.0,,,,,,,,,,,,KLGA 111525Z AUTO 30014KT 10SM OVC100 06/M01 A2982 RMK T00601010 MADISHF,
LGA,2026-01-11 10:30,-73.8803,40.7794,9.0,,,,300.0,13.0,,29.82,,10.0,19.0,OVC,,,,10000.0,,,,,,,,,,,,KLGA 111530Z AUTO 30013G19KT 10SM OVC100 06/M02 A2982 RMK T00601020 MADISHF,
LGA,2026-01-11 10:35,-73.8803,40.7794,9.0,,,,300.0,16.0,,29.82,,10.0,21.0,OVC,,,,10000.0,,,,,,,,,,,,KLGA 111535Z AUTO 30016G21KT 10SM OVC100 06/M02 A2982 RMK T00601020 MADISHF,
LGA,2026-01-11 10:40,-73.8803,40.7794,9.0,,,,300.0,14.0,,29.82,,10.0,,OVC,,,,11000.0,,,,,,,,,,,,KLGA 111540Z AUTO 30014KT 10SM OVC110 06/M03 A2982 RMK T00601030 MADISHF,
LGA,2026-01-11 10:45,-73.8803,40.7794,9.0,,,,300.0,17.0,,29.82,,10.0,,FEW,SCT,,,4000.0,11000.0,,,,,,,,,,,KLGA 111545Z AUTO 30017KT 10SM FEW040 SCT110 06/M03 A2982 RMK T00601030 MADISHF,
LGA,2026-01-11 10:50,-73.8803,40.7794,9.0,,,,300.0,13.0,,29.81,,10.0,,FEW,SCT,,,4000.0,11000.0,,,,,,,,,,,KLGA 111550Z AUTO 30013KT 10SM FEW040 SCT110 06/M03 A2981 RMK T00601030 MADISHF,
LGA,2026-01-11 10:51,-73.8803,40.7794,9.0,43.0,26.0,50.75,290.0,14.0,0.00,29.81,1009.5,10.0,25.0,FEW,SCT,BKN,BKN,4000.0,11000.0,17000.0,25000.0,,,,,,,,35.34,KLGA 111551Z 29014G25KT 10SM FEW040 SCT110 BKN170 BKN250 06/M03 A2981 RMK AO2 SLP095 T00611033,
LGA,2026-01-11 10:55,-73.8803,40.7794,9.0,,,,300.0,13.0,,29.81,,10.0,19.0,BKN,,,,11000.0,,,,,,,,,,,,KLGA 111555Z AUTO 30013G19KT 10SM BKN110 06/M03 A2981 RMK T00601030 MADISHF,
LGA,2026-01-11 11:00,-73.8803,40.7794,9.0,,,,310.0,14.0,,29.8,,10.0,,SCT,,,,11000.0,,,,,,,,,,,,KLGA 111600Z AUTO 31014KT 10SM SCT110 06/M03 A2980 RMK T00601030 MADISHF,
LGA,2026-01-11 11:05,-73.8803,40.7794,9.0,,,,300.0,12.0,,29.8,,10.0,,SCT,,,,11000.0,,,,,,,,,,,,KLGA 111605Z AUTO 30012KT 10SM SCT110 07/M03 A2980 RMK T00701030 MADISHF,
LGA,2026-01-11 11:10,-73.8803,40.7794,9.0,,,,300.0,15.0,,29.8,,10.0,,SCT,,,,11000.0,,,,,,,,,,,,KLGA 111610Z AUTO 30015KT 10SM SCT110 07/M02 A2980 RMK T00701020 MADISHF,
LGA,2026-01-11 11:15,-73.8803,40.7794,9.0,,,,310.0,14.0,,29.79,,10.0,,SCT,,,,10000.0,,,,,,,,,,,,KLGA 111615Z AUTO 31014KT 10SM SCT100 07/M02 A2979 RMK T00701020 MADISHF,
LGA,2026-01-11 11:20,-73.8803,40.7794,9.0,,,,290.0,14.0,,29.79,,10.0,,SCT,,,,10000.0,,,,,,,,,,,,KLGA 111620Z AUTO 29014KT 10SM SCT100 07/M02 A2979 RMK T00701020 MADISHF,
LGA,2026-01-11 11:25,-73.8803,40.7794,9.0,,,,300.0,15.0,,29.78,,10.0,,FEW,,,,10000.0,,,,,,,,,,,,KLGA 111625Z AUTO 30015KT 10SM FEW100 07/M02 A2978 RMK T00701020 MADISHF,
LGA,2026-01-11 11:30,-73.8803,40.7794,9.0,,,,290.0,14.0,,29.78,,10.0,,FEW,,,,10000.0,,,,,,,,,,,,KLGA 111630Z AUTO 29014KT 10SM FEW100 07/M03 A2978 RMK T00701030 MADISHF,
LGA,2026-01-11 11:35,-73.8803,40.7794,9.0,,,,320.0,14.0,,29.77,,10.0,,FEW,,,,10000.0,,,,,,,,,,,,KLGA 111635Z AUTO 32014KT 10SM FEW100 07/M03 A2977 RMK T00701030 MADISHF,
LGA,2026-01-11 11:40,-73.8803,40.7794,9.0,,,,310.0,12.0,,29.77,,10.0,,SCT,,,,9500.0,,,,,,,,,,,,KLGA 111640Z AUTO 31012KT 10SM SCT095 07/M02 A2977 RMK T00701020 MADISHF,
LGA,2026-01-11 11:45,-73.8803,40.7794,9.0,,,,320.0,11.0,,29.76,,10.0,,SCT,,,,9000.0,,,,,,,,,,,,KLGA 111645Z AUTO 32011KT 10SM SCT090 07/M02 A2976 RMK T00701020 MADISHF,
LGA,2026-01-11 11:51,-73.8803,40.7794,9.0,44.0,27.0,50.9,310.0,11.0,0.00,29.76,1007.7,10.0,,FEW,BKN,BKN,BKN,4000.0,9000.0,17000.0,25000.0,,,,,,,,37.63,KLGA 111651Z 31011KT 10SM FEW040 BKN090 BKN170 BKN250 07/M03 A2976 RMK AO2 SLP077 T00671028,
LGA,2026-01-11 11:55,-73.8803,40.7794,9.0,,,,310.0,12.0,,29.76,,10.0,,SCT,SCT,,,9000.0,11000.0,,,,,,,,,,,KLGA 111655Z AUTO 31012KT 10SM SCT090 SCT110 07/M03 A2976 RMK T00701030 MADISHF,
LGA,2026-01-11 12:00,-73.8803,40.7794,9.0,,,,320.0,11.0,,29.75,,10.0,,SCT,BKN,,,9000.0,11000.0,,,,,,,,,,,KLGA 111700Z AUTO 32011KT 10SM SCT090 BKN110 07/M03 A2975 RMK T00701030 MADISHF,
LGA,2026-01-11 12:05,-73.8803,40.7794,9.0,,,,300.0,10.0,,29.75,,10.0,,SCT,BKN,,,9000.0,11000.0,,,,,,,,,,,KLGA 111705Z AUTO 30010KT 10SM SCT090 BKN110 07/M03 A2975 RMK T00701030 MADISHF,
LGA,2026-01-11 12:10,-73.8803,40.7794,9.0,,,,300.0,12.0,,29.74,,10.0,,FEW,BKN,,,9000.0,11000.0,,,,,,,,,,,KLGA 111710Z AUTO 30012KT 10SM FEW090 BKN110 07/M03 A2974 RMK T00701030 MADISHF,
LGA,2026-01-11 12:15,-73.8803,40.7794,9.0,,,,300.0,13.0,,29.75,,10.0,,FEW,OVC,,,9000.0,11000.0,,,,,,,,,,,KLGA 111715Z AUTO 30013KT 10SM FEW090 OVC110 07/M04 A2975 RMK T00701040 MADISHF,
LGA,2026-01-11 12:20,-73.8803,40.7794,9.0,,,,310.0,13.0,,29.74,,10.0,,OVC,,,,11000.0,,,,,,,,,,,,KLGA 111720Z AUTO 31013KT 10SM OVC110 07/M03 A2974 RMK T00701030 MADISHF,
LGA,2026-01-11 12:25,-73.8803,40.7794,9.0,,,,320.0,12.0,,29.74,,10.0,,OVC,,,,11000.0,,,,,,,,,,,,KLGA 111725Z AUTO 32012KT 10SM OVC110 07/M04 A2974 RMK T00701040 MADISHF,
LGA,2026-01-11 12:30,-73.8803,40.7794,9.0,,,,310.0,13.0,,29.74,,10.0,,OVC,,,,11000.0,,,,,,,,,,,,KLGA 111730Z AUTO 31013KT 10SM OVC110 07/M04 A2974 RMK T00701040 MADISHF,
LGA,2026-01-11 12:35,-73.8803,40.7794,9.0,,,,310.0,9.0,,29.74,,10.0,,SCT,OVC,,,10000.0,11000.0,,,,,,,,,,,KLGA 111735Z AUTO 31009KT 10SM SCT100 OVC110 07/M03 A2974 RMK T00701030 MADISHF,
LGA,2026-01-11 12:40,-73.8803,40.7794,9.0,,,,300.0,10.0,,29.74,,10.0,15.0,BKN,OVC,,,10000.0,11000.0,,,,,,,,,,,KLGA 111740Z AUTO 30010G15KT 10SM BKN100 OVC110 07/M04 A2974 RMK T00701040 MADISHF,
LGA,2026-01-11 12:45,-73.8803,40.7794,9.0,,,,300.0,10.0,,29.74,,10.0,,OVC,,,,11000.0,,,,,,,,,,,,KLGA 111745Z AUTO 30010KT 10SM OVC110 07/M04 A2974 RMK T00701040 MADISHF,
LGA,2026-01-11 12:50,-73.8803,40.7794,9.0,,,,290.0,12.0,,29.74,,10.0,,FEW,BKN,,,4000.0,11000.0,,,,,,,,,,,KLGA 111750Z AUTO 29012KT 10SM FEW040 BKN110 07/M04 A2974 RMK T00701040 MADISHF,
LGA,2026-01-11 12:51,-73.8803,40.7794,9.0,45.0,24.0,43.25,300.0,14.0,0.00,29.74,1006.9,10.0,,FEW,BKN,BKN,BKN,4000.0,11000.0,17000.0,25000.0,,,,,,,,37.92,KLGA 111751Z 30014KT 10SM FEW040 BKN110 BKN170 BKN250 07/M04 A2974 RMK AO2 SLP069 T00721044 10072 20061 58027,
LGA,2026-01-11 12:55,-73.8803,40.7794,9.0,,,,300.0,12.0,,29.73,,10.0,,SCT,OVC,,,10000.0,11000.0,,,,,,,,,,,KLGA 111755Z AUTO 30012KT 10SM SCT100 OVC110 07/M05 A2973 RMK T00701050 MADISHF,
LGA,2026-01-11 13:00,-73.8803,40.7794,9.0,,,,300.0,13.0,,29.74,,10.0,,OVC,,,,11000.0,,,,,,,,,,,,KLGA 111800Z AUTO 30013KT 10SM OVC110 07/M05 A2974 RMK T00701050 MADISHF,
LGA,2026-01-11 13:05,-73.8803,40.7794,9.0,,,,300.0,11.0,,29.74,,10.0,,OVC,,,,11000.0,,,,,,,,,,,,KLGA 111805Z AUTO 30011KT 10SM OVC110 07/M04 A2974 RMK T00701040 MADISHF,
LGA,2026-01-11 13:10,-73.8803,40.7794,9.0,,,,290.0,8.0,,29.74,,10.0,,OVC,,,,11000.0,,,,,,,,,,,,KLGA 111810Z AUTO 29008KT 10SM OVC110 07/M04 A2974 RMK T00701040 MADISHF,
LGA,2026-01-11 13:15,-73.8803,40.7794,9.0,,,,270.0,10.0,,29.74,,10.0,,BKN,,,,11000.0,,,,,,,,,,,,KLGA 111815Z AUTO 27010KT 10SM BKN110 08/M04 A2974 RMK T00801040 MADISHF,
LGA,2026-01-11 13:20,-73.8803,40.7794,9.0,,,,250.0,10.0,,29.74,,10.0,,BKN,,,,11000.0,,,,,,,,,,,,KLGA 111820Z AUTO 25010KT 10SM BKN110 08/M04 A2974 RMK T00801040 MADISHF,
LGA,2026-01-11 13:30,-73.8803,40.7794,9.0,,,,270.0,13.0,,29.74,,10.0,,SCT,BKN,,,6000.0,11000.0,,,,,,,,,,,KLGA 111830Z AUTO 27013KT 10SM SCT060 BKN110 08/M04 A2974 RMK T00801040 MADISHF,
LGA,2026-01-11 13:35,-73.8803,40.7794,9.0,,,,290.0,11.0,,29.73,,10.0,,SCT,BKN,,,6000.0,11000.0,,,,,,,,,,,KLGA 111835Z AUTO 29011KT 10SM SCT060 BKN110 08/M05 A2973 RMK T00801050 MADISHF,
LGA,2026-01-11 13:40,-73.8803,40.7794,9.0,,,,280.0,16.0,,29.73,,10.0,,BKN,,,,6000.0,,,,,,,,,,,,KLGA 111840Z AUTO 28016KT 10SM BKN060 08/M05 A2973 RMK T00801050 MADISHF,
LGA,2026-01-11 13:45,-73.8803,40.7794,9.0,,,,290.0,17.0,,29.73,,10.0,,BKN,,,,6000.0,,,,,,,,,,,,KLGA 111845Z AUTO 29017KT 10SM BKN060 08/M06 A2973 RMK T00801060 MADISHF,
LGA,2026-01-11 13:51,-73.8803,40.7794,9.0,47.0,22.0,36.86,270.0,16.0,0.00,29.73,1006.6,10.0,25.0,FEW,SCT,BKN,BKN,5000.0,6000.0,11000.0,17000.0,,,,,,,,39.97,KLGA 111851Z 27016G25KT 10SM FEW050 SCT060 BKN110 BKN170 BKN250 08/M06 A2973 RMK AO2 SLP066 T00831056,
LGA,2026-01-11 14:00,-73.8803,40.7794,9.0,,,,290.0,17.0,,29.72,,10.0,23.0,SCT,,,,6000.0,,,,,,,,,,,,KLGA 111900Z AUTO 29017G23KT 10SM SCT060 08/M06 A2972 RMK T00801060 MADISHF,
LGA,2026-01-11 14:05,-73.8803,40.7794,9.0,,,,280.0,18.0,,29.73,,10.0,,SCT,,,,6000.0,,,,,,,,,,,,KLGA 111905Z AUTO 28018KT 10SM SCT060 08/M07 A2973 RMK T00801070 MADISHF,
LGA,2026-01-11 14:10,-73.8803,40.7794,9.0,,,,260.0,15.0,,29.73,,10.0,,FEW,,,,6500.0,,,,,,,,,,,,KLGA 111910Z AUTO 26015KT 10SM FEW065 08/M07 A2973 RMK T00801070 MADISHF,
LGA,2026-01-11 14:15,-73.8803,40.7794,9.0,,,,260.0,15.0,,29.73,,10.0,,FEW,,,,6000.0,,,,,,,,,,,,KLGA 111915Z AUTO 26015KT 10SM FEW060 08/M07 A2973 RMK T00801070 MADISHF,
LGA,2026-01-11 14:35,-73.8803,40.7794,9.0,,,,260.0,16.0,,29.74,,10.0,24.0,CLR,,,,,,,,,,,,,,,,KLGA 111935Z AUTO 26016G24KT 10SM CLR 08/M08 A2974 RMK T00801080 MADISHF,
LGA,2026-01-11 14:40,-73.8803,40.7794,9.0,,,,260.0,20.0,,29.74,,10.0,25.0,FEW,FEW,,,7500.0,12000.0,,,,,,,,,,,KLGA 111940Z AUTO 26020G25KT 10SM FEW075 FEW120 08/M08 A2974 RMK T00801080 MADISHF,
LGA,2026-01-11 14:45,-73.8803,40.7794,9.0,,,,260.0,18.0,,29.75,,10.0,29.0,FEW,SCT,,,7500.0,12000.0,,,,,,,,,,,KLGA 111945Z AUTO 26018G29KT 10SM FEW075 SCT120 08/M08 A2975 RMK T00801080 MADISHF,
LGA,2026-01-11 14:50,-73.8803,40.7794,9.0,,,,270.0,15.0,,29.75,,10.0,,FEW,BKN,BKN,,6000.0,7500.0,12000.0,,,,,,,,,,KLGA 111950Z AUTO 27015KT 10SM FEW060 BKN075 BKN120 08/M08 A2975 RMK T00801080 MADISHF,
LGA,2026-01-11 14:51,-73.8803,40.7794,9.0,46.0,18.0,32.28,270.0,15.0,0.00,29.75,1007.4,10.0,29.0,SCT,BKN,BKN,BKN,6000.0,7500.0,12000.0,25000.0,,,,,30.0,250.0,2026-01-11 14:22,38.93,KLGA 111951Z 27015G29KT 10SM SCT060 BKN075 BKN120 BKN250 08/M08 A2975 RMK AO2 PK WND 25030/1922 SLP074 T00781078 $,
LGA,2026-01-11 14:55,-73.8803,40.7794,9.0,,,,270.0,17.0,,29.75,,10.0,22.0,SCT,BKN,BKN,,6000.0,7500.0,12000.0,,,,,,,,,,KLGA 111955Z AUTO 27017G22KT 10SM SCT060 BKN075 BKN120 08/M08 A2975 RMK T00801080 MADISHF,
LGA,2026-01-11 15:10,-73.8803,40.7794,9.0,,,,,,,29.76,,10.0,31.0,SCT,BKN,BKN,,6000.0,7500.0,12000.0,,,,,,,,,,KLGA 112010Z AUTO /////G31KT 10SM SCT060 BKN075 BKN120 08/M07 A2976 RMK T00801070 MADISHF,
LGA,2026-01-11 15:15,-73.8803,40.7794,9.0,,,,,24.0,,29.76,,10.0,40.0,SCT,BKN,BKN,,6000.0,7500.0,12000.0,,,,,,,,,,KLGA 112015Z AUTO ///24G40KT 10SM SCT060 BKN075 BKN120 07/M07 A2976 RMK T00701070 MADISHF,
LGA,2026-01-11 15:20,-73.8803,40.7794,9.0,,,,280.0,19.0,,29.77,,10.0,29.0,SCT,BKN,BKN,,6000.0,7500.0,12000.0,,,,,,,,,,KLGA 112020Z AUTO 28019G29KT 10SM SCT060 BKN075 BKN120 07/M07 A2977 RMK T00701070 MADISHF,
LGA,2026-01-11 15:25,-73.8803,40.7794,9.0,,,,280.0,20.0,,29.77,,10.0,29.0,SCT,BKN,BKN,,6000.0,7500.0,12000.0,,,,,,,,,,KLGA 112025Z AUTO 28020G29KT 10SM SCT060 BKN075 BKN120 07/M07 A2977 RMK T00701070 MADISHF,
LGA,2026-01-11 15:30,-73.8803,40.7794,9.0,,,,270.0,19.0,,29.77,,10.0,28.0,SCT,BKN,BKN,,6000.0,7500.0,12000.0,,,,,,,,,,KLGA 112030Z AUTO 27019G28KT 10SM SCT060 BKN075 BKN120 07/M07 A2977 RMK T00701070 MADISHF,
LGA,2026-01-11 15:35,-73.8803,40.7794,9.0,,,,270.0,14.0,,29.77,,10.0,19.0,SCT,BKN,BKN,,6000.0,7500.0,12000.0,,,,,,,,,,KLGA 112035Z AUTO 27014G19KT 10SM SCT060 BKN075 BKN120 07/M07 A2977 RMK T00701070 MADISHF,
LGA,2026-01-11 15:40,-73.8803,40.7794,9.0,,,,290.0,16.0,,29.77,,10.0,,SCT,BKN,BKN,,6000.0,7500.0,12000.0,,,,,,,,,,KLGA 112040Z AUTO 29016KT 10SM SCT060 BKN075 BKN120 07/M07 A2977 RMK T00701070 MADISHF,
LGA,2026-01-11 15:50,-73.8803,40.7794,9.0,,,,280.0,17.0,,29.77,,10.0,24.0,SCT,SCT,SCT,,6500.0,7500.0,12000.0,,,,,,,,,,KLGA 112050Z AUTO 28017G24KT 10SM SCT065 SCT075 SCT120 07/M08 A2977 RMK T00701080 MADISHF,
LGA,2026-01-11 15:51,-73.8803,40.7794,9.0,44.0,18.0,34.83,270.0,18.0,0.00,29.77,1008.2,10.0,25.0,SCT,SCT,SCT,,6500.0,7500.0,12000.0,,,,,,41.0,290.0,2026-01-11 15:16,35.55,KLGA 112051Z 27018G25KT 10SM SCT065 SCT075 SCT120 07/M08 A2977 RMK AO2 PK WND 29041/2016 SLP082 T00671078 53013 $,
LGA,2026-01-11 16:00,-73.8803,40.7794,9.0,,,,290.0,21.0,,29.78,,10.0,26.0,FEW,,,,6000.0,,,,,,,,,,,,KLGA 112100Z AUTO 29021G26KT 10SM FEW060 06/M08 A2978 RMK T00601080 MADISHF,
LGA,2026-01-11 16:05,-73.8803,40.7794,9.0,,,,290.0,17.0,,29.78,,10.0,,CLR,,,,,,,,,,,,,,,,KLGA 112105Z AUTO 29017KT 10SM CLR 06/M08 A2978 RMK T00601080 MADISHF,
LGA,2026-01-11 16:10,-73.8803,40.7794,9.0,,,,300.0,16.0,,29.78,,10.0,21.0,FEW,,,,6500.0,,,,,,,,,,,,KLGA 112110Z AUTO 30016G21KT 10SM FEW065 06/M08 A2978 RMK T00601080 MADISHF,
LGA,2026-01-11 16:15,-73.8803,40.7794,9.0,,,,300.0,18.0,,29.78,,10.0,23.0,FEW,,,,6500.0,,,,,,,,,,,,KLGA 112115Z AUTO 30018G23KT 10SM FEW065 06/M08 A2978 RMK T00601080 MADISHF,
LGA,2026-01-11 16:20,-73.8803,40.7794,9.0,,,,300.0,15.0,,29.78,,10.0,,FEW,,,,6000.0,,,,,,,,,,,,KLGA 112120Z AUTO 30015KT 10SM FEW060 06/M08 A2978 RMK T00601080 MADISHF,
LGA,2026-01-11 16:35,-73.8803,40.7794,9.0,,,,290.0,10.0,,29.79,,10.0,,SCT,SCT,,,6500.0,12000.0,,,,,,,,,,,KLGA 112135Z AUTO 29010KT 10SM SCT065 SCT120 A2979 RMK T0060 MADISHF,
LGA,2026-01-11 16:40,-73.8803,40.7794,9.0,,,,280.0,11.0,,29.79,,10.0,16.0,SCT,SCT,,,6500.0,12000.0,,,,,,,,,,,KLGA 112140Z AUTO 28011G16KT 10SM SCT065 SCT120 A2979 RMK T0060 MADISHF,
LGA,2026-01-11 16:45,-73.8803,40.7794,9.0,,,,280.0,13.0,,29.79,,10.0,,SCT,SCT,SCT,,6000.0,9000.0,12000.0,,,,,,,,,,KLGA 112145Z AUTO 28013KT 10SM SCT060 SCT090 SCT120 06/M08 A2979 RMK T00601080 MADISHF,
LGA,2026-01-11 16:50,-73.8803,40.7794,9.0,,,,270.0,12.0,,29.79,,10.0,21.0,SCT,BKN,BKN,,6000.0,9000.0,12000.0,,,,,,,,,,KLGA 112150Z AUTO 27012G21KT 10SM SCT060 BKN090 BKN120 A2979 RMK T0060 MADISHF,
LGA,2026-01-11 16:51,-73.8803,40.7794,9.0,42.0,19.0,39.26,270.0,15.0,0.00,29.79,1008.8,10.0,23.0,SCT,BKN,BKN,,6000.0,9000.0,12000.0,,,,,,29.0,310.0,2026-01-11 15:58,33.74,KLGA 112151Z 27015G23KT 10SM SCT060 BKN090 BKN120 06/M07 A2979 RMK AO2 PK WND 31029/2058 SLP088 T00561072 $,
LGA,2026-01-11 16:55,-73.8803,40.7794,9.0,,,,280.0,20.0,,29.79,,10.0,28.0,SCT,BKN,BKN,,6000.0,9000.0,12000.0,,,,,,,,,,KLGA 112155Z AUTO 28020G28KT 10SM SCT060 BKN090 BKN120 06/M07 A2979 RMK T00601070 MADISHF,
LGA,2026-01-11 17:00,-73.8803,40.7794,9.0,,,,290.0,17.0,,29.8,,10.0,23.0,SCT,BKN,BKN,,6000.0,9000.0,12000.0,,,,,,,,,,KLGA 112200Z AUTO 29017G23KT 10SM SCT060 BKN090 BKN120 06/M07 A2980 RMK T00601070 MADISHF,
LGA,2026-01-11 17:20,-73.8803,40.7794,9.0,,,,290.0,15.0,,29.81,,10.0,,BKN,BKN,BKN,,6000.0,7500.0,12000.0,,,,,,,,,,KLGA 112220Z AUTO 29015KT 10SM BKN060 BKN075 BKN120 A2981 RMK T0060 MADISHF,
LGA,2026-01-11 17:25,-73.8803,40.7794,9.0,,,,,,,29.82,,10.0,32.0,BKN,BKN,BKN,,6000.0,7500.0,12000.0,,,,,,,,,,KLGA 112225Z AUTO /////G32KT 10SM BKN060 BKN075 BKN120 05/M06 A2982 RMK T00501060 MADISHF,
LGA,2026-01-11 17:30,-73.8803,40.7794,9.0,,,,,,,29.83,,10.0,,BKN,BKN,BKN,,6000.0,7500.0,12000.0,,,,,,,,,,KLGA 112230Z AUTO /////KT 10SM BKN060 BKN075 BKN120 04/M05 A2983 RMK T00401050 MADISHF,
LGA,2026-01-11 17:35,-73.8803,40.7794,9.0,,,,,,,29.83,,10.0,29.0,SCT,BKN,BKN,,4500.0,6000.0,9500.0,,,,,,,,,,KLGA 112235Z AUTO /////G29KT 10SM SCT045 BKN060 BKN095 04/M05 A2983 RMK T00401050 MADISHF,
LGA,2026-01-11 17:50,-73.8803,40.7794,9.0,,,,290.0,18.0,,29.85,,8.0,24.0,SCT,BKN,BKN,,3500.0,4500.0,10000.0,,-RA,,,,,,,,KLGA 112250Z AUTO 29018G24KT 7SM -RA SCT035 BKN045 BKN100 03/M05 A2985 RMK T00301050 MADISHF,
LGA,2026-01-11 17:51,-73.8803,40.7794,9.0,38.0,24.0,56.69,290.0,18.0,T,29.85,1010.6,10.0,,SCT,BKN,BKN,,3500.0,4500.0,10000.0,,-RA,,,,33.0,320.0,2026-01-11 17:23,27.65,KLGA 112251Z 29018KT 10SM -RA SCT035 BKN045 BKN100 03/M04 A2985 RMK AO2 PK WND 32033/2223 RAB50 SLP106 P0000 T00331044 $,
LGA,2026-01-11 17:55,-73.8803,40.7794,9.0,,,,290.0,15.0,,29.85,,10.0,21.0,SCT,BKN,BKN,,3500.0,4600.0,5500.0,,-RA,,,,,,,,KLGA 112255Z AUTO 29015G21KT 10SM -RA SCT035 BKN046 BKN055 03/M04 A2985 RMK T00301040 MADISHF,
LGA,2026-01-11 18:00,-73.8803,40.7794,9.0,,,,270.0,15.0,,29.85,,10.0,26.0,BKN,BKN,BKN,,3900.0,4700.0,5500.0,,,,,,,,,,KLGA 112300Z AUTO 27015G26KT 10SM BKN039 BKN047 BKN055 03/M04 A2985 RMK T00301040 MADISHF,
LGA,2026-01-11 18:05,-73.8803,40.7794,9.0,,,,290.0,17.0,,29.86,,10.0,22.0,BKN,BKN,BKN,,3900.0,4700.0,5500.0,,,,,,,,,,KLGA 112305Z AUTO 29017G22KT 10SM BKN039 BKN047 BKN055 03/M04 A2986 RMK T00301040 MADISHF,
LGA,2026-01-11 18:10,-73.8803,40.7794,9.0,,,,300.0,18.0,,29.86,,10.0,27.0,BKN,BKN,BKN,,3900.0,4700.0,5500.0,,,,,,,,,,KLGA 112310Z AUTO 30018G27KT 10SM BKN039 BKN047 BKN055 03/M04 A2986 RMK T00301040 MADISHF,
LGA,2026-01-11 18:20,-73.8803,40.7794,9.0,,,,280.0,17.0,,29.86,,10.0,,BKN,BKN,OVC,,3000.0,4000.0,5500.0,,-RA -SN,,,,,,,,KLGA 112320Z AUTO 28017KT 10SM -RA -SN BKN030 BKN040 OVC055 03/M04 A2986 RMK T00301040 MADISHF,
LGA,2026-01-11 18:22,-73.8803,40.7794,9.0,38.0,25.0,59.11,280.0,22.0,T,29.86,,10.0,34.0,BKN,BKN,OVC,,3000.0,4000.0,5500.0,,-SNRA,,,,34.0,290.0,2026-01-11 18:21,26.61,KLGA 112322Z 28022G34KT 10SM -SNRA BKN030 BKN040 OVC055 03/M04 A2986 RMK AO2 PK WND 29034/2321 RAE2259B16SNB16 P0000 T00331039 $,
LGA,2026-01-11 18:25,-73.8803,40.7794,9.0,,,,,,,29.86,,10.0,27.0,BKN,BKN,OVC,,3000.0,4000.0,5500.0,,-RA -SN,,,,,,,,KLGA 112325Z AUTO /////G27KT 10SM -RA -SN BKN030 BKN040 OVC055 03/M04 A2986 RMK T00301040 MADISHF,
LGA,2026-01-11 18:30,-73.8803,40.7794,9.0,,,,270.0,17.0,,29.86,,10.0,22.0,BKN,BKN,OVC,,3000.0,4000.0,5500.0,,-RA -SN,,,,,,,,KLGA 112330Z AUTO 27017G22KT 10SM -RA -SN BKN030 BKN040 OVC055 03/M04 A2986 RMK T00301040 MADISHF,
LGA,2026-01-11 18:35,-73.8803,40.7794,9.0,,,,270.0,16.0,,29.86,,10.0,21.0,BKN,BKN,OVC,,3000.0,4000.0,5500.0,,-RA -SN,,,,,,,,KLGA 112335Z AUTO 27016G21KT 10SM -RA -SN BKN030 BKN040 OVC055 03/M04 A2986 RMK T00301040 MADISHF,
LGA,2026-01-11 18:39,-73.8803,40.7794,9.0,37.0,24.0,58.96,290.0,14.0,T,29.86,,10.0,24.0,FEW,BKN,BKN,,3300.0,5500.0,8000.0,,,,,,34.0,290.0,2026-01-11 18:21,27.61,KLGA 112339Z 29014G24KT 10SM FEW033 BKN055 BKN080 03/M04 A2986 RMK AO2 PK WND 29034/2321 RAE2259B16E38SNB16E38 P0000 T00281044 $,
LGA,2026-01-11 18:40,-73.8803,40.7794,9.0,,,,290.0,15.0,,29.86,,10.0,,FEW,BKN,BKN,,3300.0,5500.0,8000.0,,,,,,,,,,KLGA 112340Z AUTO 29015KT 10SM FEW033 BKN055 BKN080 03/M04 A2986 RMK T00301040 MADISHF,
LGA,2026-01-11 18:45,-73.8803,40.7794,9.0,,,,290.0,13.0,,29.86,,10.0,,FEW,BKN,BKN,,3300.0,5500.0,8000.0,,,,,,,,,,KLGA 112345Z AUTO 29013KT 10SM FEW033 BKN055 BKN080 03/M04 A2986 RMK T00301040 MADISHF,
LGA,2026-01-11 18:51,-73.8803,40.7794,9.0,37.0,24.0,58.96,290.0,15.0,T,29.86,1011.2,10.0,24.0,FEW,BKN,BKN,,3300.0,5500.0,8000.0,,,,,,34.0,290.0,2026-01-11 18:21,27.26,KLGA 112351Z 29015G24KT 10SM FEW033 BKN055 BKN080 03/M04 A2986 RMK AO2 PK WND 29034/2321 RAE2259B16E38SNB16E38 SLP112 P0000 60000 T00281044 10083 20028 53030 $,
LGA,2026-01-11 18:55,-73.8803,40.7794,9.0,,,,290.0,18.0,,29.87,,10.0,,FEW,FEW,,,6000.0,8000.0,,,,,,,,,,,KLGA 112355Z AUTO 29018KT 10SM FEW060 FEW080 03/M04 A2987 RMK T00301040 MADISHF,
LGA,2026-01-11 19:00,-73.8803,40.7794,9.0,,,,290.0,14.0,,29.87,,10.0,,FEW,,,,8000.0,,,,,,,,,,,,KLGA 120000Z AUTO 29014KT 10SM FEW080 03/M04 A2987 RMK T00301040 MADISHF,
LGA,2026-01-11 19:10,-73.8803,40.7794,9.0,,,,290.0,14.0,,29.87,,10.0,19.0,FEW,,,,5000.0,,,,,,,,,,,,KLGA 120010Z AUTO 29014G19KT 10SM FEW050 03/M04 A2987 RMK T00301040 MADISHF,
LGA,2026-01-11 19:15,-73.8803,40.7794,9.0,,,,280.0,11.0,,29.87,,10.0,,FEW,,,,5000.0,,,,,,,,,,,,KLGA 120015Z AUTO 28011KT 10SM FEW050 03/M04 A2987 RMK T00301040 MADISHF,
LGA,2026-01-11 19:20,-73.8803,40.7794,9.0,,,,280.0,11.0,,29.88,,10.0,,FEW,,,,5000.0,,,,,,,,,,,,KLGA 120020Z AUTO 28011KT 10SM FEW050 03/M05 A2988 RMK T00301050 MADISHF,
LGA,2026-01-11 19:25,-73.8803,40.7794,9.0,,,,270.0,11.0,,29.88,,10.0,16.0,FEW,,,,5000.0,,,,,,,,,,,,KLGA 120025Z AUTO 27011G16KT 10SM FEW050 03/M05 A2988 RMK T00301050 MADISHF,
LGA,2026-01-11 19:30,-73.8803,40.7794,9.0,,,,280.0,15.0,,29.88,,10.0,,FEW,,,,5000.0,,,,,,,,,,,,KLGA 120030Z AUTO 28015KT 10SM FEW050 03/M05 A2988 RMK T00301050 MADISHF,
LGA,2026-01-11 19:35,-73.8803,40.7794,9.0,,,,270.0,14.0,,29.88,,10.0,,FEW,,,,5000.0,,,,,,,,,,,,KLGA 120035Z AUTO 27014KT 10SM FEW050 03/M06 A2988 RMK T00301060 MADISHF,
LGA,2026-01-11 19:45,-73.8803,40.7794,9.0,,,,280.0,14.0,,29.88,,10.0,,SCT,,,,5000.0,,,,,,,,,,,,KLGA 120045Z AUTO 28014KT 10SM SCT050 03/M06 A2988 RMK T00301060 MADISHF,
LGA,2026-01-11 19:50,-73.8803,40.7794,9.0,,,,280.0,16.0,,29.88,,10.0,21.0,SCT,,,,5000.0,,,,,,,,,,,,KLGA 120050Z AUTO 28016G21KT 10SM SCT050 03/M07 A2988 RMK T00301070 MADISHF,
LGA,2026-01-11 19:51,-73.8803,40.7794,9.0,38.0,19.0,45.87,290.0,16.0,0.00,29.88,1011.9,10.0,27.0,SCT,,,,5000.0,,,,,,,,27.0,280.0,2026-01-11 19:46,28.24,KLGA 120051Z 29016G27KT 10SM SCT050 03/M07 A2988 RMK AO2 PK WND 28027/0046 SLP119 T00331072 $,
LGA,2026-01-11 19:55,-73.8803,40.7794,9.0,,,,270.0,17.0,,29.88,,10.0,23.0,CLR,,,,,,,,,,,,,,,,KLGA 120055Z AUTO 27017G23KT 10SM CLR 03/M08 A2988 RMK T00301080 MADISHF,
LGA,2026-01-11 20:05,-73.8803,40.7794,9.0,,,,290.0,19.0,,29.89,,10.0,,CLR,,,,,,,,,,,,,,,,KLGA 120105Z AUTO 29019KT 10SM CLR 03/M08 A2989 RMK T00301080 MADISHF,
LGA,2026-01-11 20:10,-73.8803,40.7794,9.0,,,,280.0,13.0,,29.89,,10.0,18.0,CLR,,,,,,,,,,,,,,,,KLGA 120110Z AUTO 28013G18KT 10SM CLR 03/M09 A2989 RMK T00301090 MADISHF,
LGA,2026-01-11 20:15,-73.8803,40.7794,9.0,,,,280.0,17.0,,29.89,,10.0,,CLR,,,,,,,,,,,,,,,,KLGA 120115Z AUTO 28017KT 10SM CLR 03/M09 A2989 RMK T00301090 MADISHF,
LGA,2026-01-11 20:20,-73.8803,40.7794,9.0,,,,,,,29.9,,10.0,30.0,FEW,,,,4800.0,,,,,,,,,,,,KLGA 120120Z AUTO /////G30KT 10SM FEW048 03/M09 A2990 RMK T00301090 MADISHF,
LGA,2026-01-11 20:25,-73.8803,40.7794,9.0,,,,290.0,21.0,,29.9,,10.0,27.0,FEW,,,,4800.0,,,,,,,,,,,,KLGA 120125Z AUTO 29021G27KT 10SM FEW048 03/M09 A2990 RMK T00301090 MADISHF,
LGA,2026-01-11 20:30,-73.8803,40.7794,9.0,,,,,,,29.9,,10.0,29.0,FEW,,,,4600.0,,,,,,,,,,,,KLGA 120130Z AUTO /////G29KT 10SM FEW046 03/M09 A2990 RMK T00301090 MADISHF,
LGA,2026-01-11 20:35,-73.8803,40.7794,9.0,,,,290.0,17.0,,29.9,,10.0,,FEW,,,,4600.0,,,,,,,,,,,,KLGA 120135Z AUTO 29017KT 10SM FEW046 03/M09 A2990 RMK T00301090 MADISHF,
LGA,2026-01-11 20:40,-73.8803,40.7794,9.0,,,,280.0,19.0,,29.9,,10.0,24.0,FEW,,,,4600.0,,,,,,,,,,,,KLGA 120140Z AUTO 28019G24KT 10SM FEW046 03/M09 A2990 RMK T00301090 MADISHF,
LGA,2026-01-11 20:45,-73.8803,40.7794,9.0,,,,280.0,18.0,,29.91,,10.0,26.0,FEW,,,,4600.0,,,,,,,,,,,,KLGA 120145Z AUTO 28018G26KT 10SM FEW046 03/M09 A2991 RMK T00301090 MADISHF,
LGA,2026-01-11 20:50,-73.8803,40.7794,9.0,,,,280.0,16.0,,29.9,,10.0,23.0,FEW,,,,4600.0,,,,,,,,,,,,KLGA 120150Z AUTO 28016G23KT 10SM FEW046 03/M09 A2990 RMK T00301090 MADISHF,
LGA,2026-01-11 20:51,-73.8803,40.7794,9.0,37.0,16.0,41.91,290.0,17.0,0.00,29.91,1012.6,10.0,29.0,FEW,,,,4600.0,,,,,,,,39.0,290.0,2026-01-11 20:28,26.63,KLGA 120151Z 29017G29KT 10SM FEW046 03/M09 A2991 RMK AO2 PK WND 29039/0128 SLP126 T00281089 $,
LGA,2026-01-11 20:55,-73.8803,40.7794,9.0,,,,280.0,17.0,,29.91,,10.0,27.0,CLR,,,,,,,,,,,,,,,,KLGA 120155Z AUTO 28017G27KT 10SM CLR 03/M09 A2991 RMK T00301090 MADISHF,
LGA,2026-01-11 21:00,-73.8803,40.7794,9.0,,,,280.0,17.0,,29.9,,10.0,25.0,CLR,,,,,,,,,,,,,,,,KLGA 120200Z AUTO 28017G25KT 10SM CLR 03/M09 A2990 RMK T00301090 MADISHF,
LGA,2026-01-11 21:05,-73.8803,40.7794,9.0,,,,280.0,20.0,,29.9,,10.0,31.0,CLR,,,,,,,,,,,,,,,,KLGA 120205Z AUTO 28020G31KT 10SM CLR 03/M09 A2990 RMK T00301090 MADISHF,
LGA,2026-01-11 21:10,-73.8803,40.7794,9.0,,,,280.0,17.0,,29.91,,10.0,24.0,CLR,,,,,,,,,,,,,,,,KLGA 120210Z AUTO 28017G24KT 10SM CLR 03/M09 A2991 RMK T00301090 MADISHF,
LGA,2026-01-11 21:15,-73.8803,40.7794,9.0,,,,270.0,18.0,,29.91,,10.0,,CLR,,,,,,,,,,,,,,,,KLGA 120215Z AUTO 27018KT 10SM CLR 03/M09 A2991 RMK T00301090 MADISHF,
LGA,2026-01-11 21:20,-73.8803,40.7794,9.0,,,,270.0,14.0,,29.91,,10.0,21.0,CLR,,,,,,,,,,,,,,,,KLGA 120220Z AUTO 27014G21KT 10SM CLR 03/M09 A2991 RMK T00301090 MADISHF,
LGA,2026-01-11 21:25,-73.8803,40.7794,9.0,,,,270.0,20.0,,29.91,,10.0,,CLR,,,,,,,,,,,,,,,,KLGA 120225Z AUTO 27020KT 10SM CLR 03/M09 A2991 RMK T00301090 MADISHF,
LGA,2026-01-11 21:30,-73.8803,40.7794,9.0,,,,260.0,15.0,,29.91,,10.0,25.0,CLR,,,,,,,,,,,,,,,,KLGA 120230Z AUTO 26015G25KT 10SM CLR 03/M09 A2991 RMK T00301090 MADISHF,
LGA,2026-01-11 21:35,-73.8803,40.7794,9.0,,,,260.0,18.0,,29.92,,10.0,25.0,CLR,,,,,,,,,,,,,,,,KLGA 120235Z AUTO 26018G25KT 10SM CLR 02/M09 A2992 RMK T00201090 MADISHF,
LGA,2026-01-11 21:40,-73.8803,40.7794,9.0,,,,260.0,19.0,,29.92,,10.0,29.0,FEW,,,,7000.0,,,,,,,,,,,,KLGA 120240Z AUTO 26019G29KT 10SM FEW070 03/M09 A2992 RMK T00301090 MADISHF,
LGA,2026-01-11 21:45,-73.8803,40.7794,9.0,,,,260.0,20.0,,29.92,,10.0,,SCT,,,,7000.0,,,,,,,,,,,,KLGA 120245Z AUTO 26020KT 10SM SCT070 02/M09 A2992 RMK T00201090 MADISHF,
LGA,2026-01-11 21:50,-73.8803,40.7794,9.0,,,,250.0,17.0,,29.93,,10.0,24.0,FEW,BKN,BKN,,5500.0,7000.0,12000.0,,,,,,,,,,KLGA 120250Z AUTO 25017G24KT 10SM FEW055 BKN070 BKN120 02/M09 A2993 RMK T00201090 MADISHF,
LGA,2026-01-11 21:51,-73.8803,40.7794,9.0,36.0,15.0,41.74,260.0,16.0,0.00,29.93,1013.4,10.0,30.0,FEW,BKN,BKN,,5500.0,7000.0,12000.0,,,,,,32.0,280.0,2026-01-11 21:41,25.63,KLGA 120251Z 26016G30KT 10SM FEW055 BKN070 BKN120 02/M09 A2993 RMK AO2 PK WND 28032/0241 SLP134 T00221094 53022 $,
LGA,2026-01-11 21:55,-73.8803,40.7794,9.0,,,,260.0,20.0,,29.93,,10.0,29.0,BKN,,,,7000.0,,,,,,,,,,,,KLGA 120255Z AUTO 26020G29KT 10SM BKN070 02/M09 A2993 RMK T00201090 MADISHF,
LGA,2026-01-11 22:00,-73.8803,40.7794,9.0,,,,270.0,16.0,,29.93,,10.0,21.0,FEW,BKN,,,4400.0,6500.0,,,,,,,,,,,KLGA 120300Z AUTO 27016G21KT 10SM FEW044 BKN065 02/M09 A2993 RMK T00201090 MADISHF,
LGA,2026-01-11 22:05,-73.8803,40.7794,9.0,,,,260.0,17.0,,29.94,,10.0,26.0,SCT,BKN,,,5500.0,7000.0,,,,,,,,,,,KLGA 120305Z AUTO 26017G26KT 10SM SCT055 BKN070 02/M09 A2994 RMK T00201090 MADISHF,
LGA,2026-01-11 22:10,-73.8803,40.7794,9.0,,,,290.0,19.0,,29.94,,10.0,26.0,FEW,BKN,OVC,,4500.0,6500.0,8000.0,,,,,,,,,,KLGA 120310Z AUTO 29019G26KT 10SM FEW045 BKN065 OVC080 02/M09 A2994 RMK T00201090 MADISHF,
LGA,2026-01-11 22:15,-73.8803,40.7794,9.0,,,,290.0,16.0,,29.95,,10.0,,FEW,BKN,OVC,,4500.0,6500.0,8000.0,,,,,,,,,,KLGA 120315Z AUTO 29016KT 10SM FEW045 BKN065 OVC080 02/M08 A2995 RMK T00201080 MADISHF,
LGA,2026-01-11 22:20,-73.8803,40.7794,9.0,,,,290.0,14.0,,29.95,,10.0,24.0,SCT,BKN,OVC,,4700.0,6500.0,8000.0,,,,,,,,,,KLGA 120320Z AUTO 29014G24KT 10SM SCT047 BKN065 OVC080 02/M08 A2995 RMK T00201080 MADISHF,
LGA,2026-01-11 22:25,-73.8803,40.7794,9.0,,,,290.0,18.0,,29.95,,10.0,25.0,BKN,BKN,OVC,,4900.0,6000.0,8000.0,,,,,,,,,,KLGA 120325Z AUTO 29018G25KT 10SM BKN049 BKN060 OVC080 02/M08 A2995 RMK T00201080 MADISHF,
LGA,2026-01-11 22:30,-73.8803,40.7794,9.0,,,,290.0,17.0,,29.95,,10.0,22.0,BKN,BKN,,,4900.0,8000.0,,,,,,,,,,,KLGA 120330Z AUTO 29017G22KT 10SM BKN049 BKN080 02/M09 A2995 RMK T00201090 MADISHF,
LGA,2026-01-11 22:35,-73.8803,40.7794,9.0,,,,,23.0,,29.95,,10.0,29.0,BKN,BKN,,,4900.0,8000.0,,,,,,,,,,,KLGA 120335Z AUTO ///23G29KT 10SM BKN049 BKN080 02/M08 A2995 RMK T00201080 MADISHF,
LGA,2026-01-11 22:40,-73.8803,40.7794,9.0,,,,300.0,21.0,,29.95,,10.0,26.0,BKN,BKN,,,4900.0,8000.0,,,,,,,,,,,KLGA 120340Z AUTO 30021G26KT 10SM BKN049 BKN080 02/M09 A2995 RMK T00201090 MADISHF,
LGA,2026-01-11 22:45,-73.8803,40.7794,9.0,,,,300.0,20.0,,29.95,,10.0,27.0,BKN,,,,5000.0,,,,,,,,,,,,KLGA 120345Z AUTO 30020G27KT 10SM BKN050 02/M09 A2995 RMK T00201090 MADISHF,
LGA,2026-01-11 22:50,-73.8803,40.7794,9.0,,,,290.0,19.0,,29.96,,10.0,25.0,BKN,,,,5000.0,,,,,,,,,,,,KLGA 120350Z AUTO 29019G25KT 10SM BKN050 02/M09 A2996 RMK T00201090 MADISHF,
LGA,2026-01-11 22:51,-73.8803,40.7794,9.0,35.0,15.0,43.44,290.0,18.0,0.00,29.96,1014.5,10.0,32.0,BKN,,,,5000.0,,,,,,,,37.0,270.0,2026-01-11 21:56,23.7,KLGA 120351Z 29018G32KT 10SM BKN050 02/M09 A2996 RMK AO2 PK WND 27037/0256 SLP145 T00171094 $,
LGA,2026-01-11 22:55,-73.8803,40.7794,9.0,,,,,,,29.96,,10.0,32.0,SCT,,,,5000.0,,,,,,,,,,,,KLGA 120355Z AUTO /////G32KT 10SM SCT050 02/M09 A2996 RMK T00201090 MADISHF,
LGA,2026-01-11 23:00,-73.8803,40.7794,9.0,,,,290.0,20.0,,29.97,,10.0,26.0,SCT,,,,5000.0,,,,,,,,,,,,KLGA 120400Z AUTO 29020G26KT 10SM SCT050 02/M10 A2997 RMK T00201100 MADISHF,
LGA,2026-01-11 23:05,-73.8803,40.7794,9.0,,,,300.0,18.0,,29.96,,10.0,,SCT,,,,5000.0,,,,,,,,,,,,KLGA 120405Z AUTO 30018KT 10SM SCT050 02/M11 A2996 RMK T00201110 MADISHF,
LGA,2026-01-11 23:10,-73.8803,40.7794,9.0,,,,300.0,15.0,,29.97,,10.0,23.0,SCT,,,,5000.0,,,,,,,,,,,,KLGA 120410Z AUTO 30015G23KT 10SM SCT050 02/M10 A2997 RMK T00201100 MADISHF,
LGA,2026-01-11 23:15,-73.8803,40.7794,9.0,,,,310.0,17.0,,29.97,,10.0,23.0,BKN,,,,5000.0,,,,,,,,,,,,KLGA 120415Z AUTO 31017G23KT 10SM BKN050 02/M10 A2997 RMK T00201100 MADISHF,
LGA,2026-01-11 23:20,-73.8803,40.7794,9.0,,,,300.0,17.0,,29.97,,10.0,,BKN,,,,5000.0,,,,,,,,,,,,KLGA 120420Z AUTO 30017KT 10SM BKN050 02/M10 A2997 RMK T00201100 MADISHF,
LGA,2026-01-11 23:25,-73.8803,40.7794,9.0,,,,290.0,20.0,,29.97,,10.0,25.0,BKN,,,,5000.0,,,,,,,,,,,,KLGA 120425Z AUTO 29020G25KT 10SM BKN050 02/M10 A2997 RMK T00201100 MADISHF,
LGA,2026-01-11 23:30,-73.8803,40.7794,9.0,,,,300.0,20.0,,29.98,,10.0,,BKN,,,,5000.0,,,,,,,,,,,,KLGA 120430Z AUTO 30020KT 10SM BKN050 02/M10 A2998 RMK T00201100 MADISHF,
LGA,2026-01-11 23:35,-73.8803,40.7794,9.0,,,,290.0,16.0,,29.97,,10.0,,BKN,,,,5000.0,,,,,,,,,,,,KLGA 120435Z AUTO 29016KT 10SM BKN050 02/M10 A2997 RMK T00201100 MADISHF,
LGA,2026-01-11 23:40,-73.8803,40.7794,9.0,,,,,,,29.97,,10.0,34.0,BKN,,,,5000.0,,,,,,,,,,,,KLGA 120440Z AUTO /////G34KT 10SM BKN050 02/M10 A2997 RMK T00201100 MADISHF,
LGA,2026-01-11 23:45,-73.8803,40.7794,9.0,,,,,,,29.98,,10.0,29.0,BKN,,,,5000.0,,,,,,,,,,,,KLGA 120445Z AUTO /////G29KT 10SM BKN050 02/M10 A2998 RMK T00201100 MADISHF,
LGA,2026-01-11 23:50,-73.8803,40.7794,9.0,,,,,,,29.98,,10.0,30.0,BKN,,,,5000.0,,,,,,,,,,,,KLGA 120450Z AUTO /////G30KT 10SM BKN050 02/M11 A2998 RMK T00201110 MADISHF,
LGA,2026-01-11 23:51,-73.8803,40.7794,9.0,35.0,14.0,41.57,300.0,25.0,0.00,29.98,1015.2,10.0,34.0,BKN,,,,5000.0,,,,,,,,37.0,290.0,2026-01-11 23:40,21.87,KLGA 120451Z 30025G34KT 10SM BKN050 02/M10 A2998 RMK AO2 PK WND 29037/0440 SLP152 T00171100 400830017 $,
LGA,2026-01-11 23:55,-73.8803,40.7794,9.0,,,,,,,29.98,,10.0,28.0,BKN,,,,5000.0,,,,,,,,,,,,KLGA 120455Z AUTO /////G28KT 10SM BKN050 02/M10 A2998 RMK T00201100 MADISHF,
LGA,2026-01-12 00:00,-73.8803,40.7794,9.0,,,,300.0,22.0,,29.98,,10.0,30.0,BKN,,,,5000.0,,,,,,,,,,,,KLGA 120500Z AUTO 30022G30KT 10SM BKN050 01/M10 A2998 RMK T00101100 MADISHF,
LGA,2026-01-12 00:05,-73.8803,40.7794,9.0,,,,,,,29.98,,10.0,30.0,BKN,,,,5000.0,,,,,,,,,,,,KLGA 120505Z AUTO /////G30KT 10SM BKN050 01/M10 A2998 RMK T00101100 MADISHF,
LGA,2026-01-12 00:10,-73.8803,40.7794,9.0,,,,310.0,23.0,,29.98,,10.0,31.0,BKN,,,,5000.0,,,,,,,,,,,,KLGA 120510Z AUTO 31023G31KT 10SM BKN050 01/M10 A2998 RMK T00101100 MADISHF,
LGA,2026-01-12 00:15,-73.8803,40.7794,9.0,,,,300.0,25.0,,29.98,,10.0,36.0,SCT,,,,5000.0,,,,,,,,,,,,KLGA 120515Z AUTO 30025G36KT 10SM SCT050 01/M09 A2998 RMK T00101090 MADISHF,
LGA,2026-01-12 00:20,-73.8803,40.7794,9.0,,,,300.0,20.0,,29.98,,10.0,26.0,SCT,,,,5000.0,,,,,,,,,,,,KLGA 120520Z AUTO 30020G26KT 10SM SCT050 01/M10 A2998 RMK T00101100 MADISHF,
LGA,2026-01-12 00:25,-73.8803,40.7794,9.0,,,,,,,29.99,,10.0,35.0,SCT,,,,5000.0,,,,,,,,,,,,KLGA 120525Z AUTO /////G35KT 10SM SCT050 01/M10 A2999 RMK T00101100 MADISHF,
LGA,2026-01-12 00:30,-73.8803,40.7794,9.0,,,,300.0,16.0,,29.99,,10.0,,SCT,,,,5000.0,,,,,,,,,,,,KLGA 120530Z AUTO 30016KT 10SM SCT050 01/M10 A2999 RMK T00101100 MADISHF,
LGA,2026-01-12 00:35,-73.8803,40.7794,9.0,,,,300.0,17.0,,30.0,,10.0,23.0,SCT,,,,5000.0,,,,,,,,,,,,KLGA 120535Z AUTO 30017G23KT 10SM SCT050 01/M10 A3000 RMK T00101100 MADISHF,
LGA,2026-01-12 00:40,-73.8803,40.7794,9.0,,,,300.0,19.0,,30.0,,10.0,,SCT,,,,5000.0,,,,,,,,,,,,KLGA 120540Z AUTO 30019KT 10SM SCT050 01/M10 A3000 RMK T00101100 MADISHF,
LGA,2026-01-12 00:45,-73.8803,40.7794,9.0,,,,300.0,19.0,,30.01,,10.0,26.0,SCT,,,,5000.0,,,,,,,,,,,,KLGA 120545Z AUTO 30019G26KT 10SM SCT050 01/M10 A3001 RMK T00101100 MADISHF,
LGA,2026-01-12 00:50,-73.8803,40.7794,9.0,,,,300.0,16.0,,30.01,,10.0,,SCT,,,,5000.0,,,,,,,,,,,,KLGA 120550Z AUTO 30016KT 10SM SCT050 01/M10 A3001 RMK T00101100 MADISHF,
LGA,2026-01-12 00:51,-73.8803,40.7794,9.0,34.0,14.0,43.27,300.0,14.0,0.00,30.01,1016.1,10.0,29.0,SCT,,,,5000.0,,,,,,,,38.0,310.0,2026-01-12 00:04,23.74,KLGA 120551Z 30014G29KT 10SM SCT050 01/M10 A3001 RMK AO2 PK WND 31038/0504 SLP161 T00111100 10033 20011 51027 $,
LGA,2026-01-12 00:55,-73.8803,40.7794,9.0,,,,300.0,20.0,,30.01,,10.0,,SCT,,,,4800.0,,,,,,,,,,,,KLGA 120555Z AUTO 30020KT 10SM SCT048 01/M10 A3001 RMK T00101100 MADISHF,
LGA,2026-01-12 01:00,-73.8803,40.7794,9.0,,,,300.0,16.0,,30.02,,10.0,21.0,SCT,,,,4800.0,,,,,,,,,,,,KLGA 120600Z AUTO 30016G21KT 10SM SCT048 01/M10 A3002 RMK T00101100 MADISHF,
LGA,2026-01-12 01:05,-73.8803,40.7794,9.0,,,,310.0,17.0,,30.02,,10.0,23.0,SCT,,,,4800.0,,,,,,,,,,,,KLGA 120605Z AUTO 31017G23KT 10SM SCT048 01/M10 A3002 RMK T00101100 MADISHF,
LGA,2026-01-12 01:10,-73.8803,40.7794,9.0,,,,310.0,16.0,,30.02,,10.0,,SCT,,,,4800.0,,,,,,,,,,,,KLGA 120610Z AUTO 31016KT 10SM SCT048 01/M10 A3002 RMK T00101100 MADISHF,
LGA,2026-01-12 01:15,-73.8803,40.7794,9.0,,,,300.0,17.0,,30.02,,10.0,24.0,SCT,,,,4800.0,,,,,,,,,,,,KLGA 120615Z AUTO 30017G24KT 10SM SCT048 01/M10 A3002 RMK T00101100 MADISHF,
LGA,2026-01-12 01:20,-73.8803,40.7794,9.0,,,,,,,30.03,,10.0,27.0,SCT,,,,4800.0,,,,,,,,,,,,KLGA 120620Z AUTO /////G27KT 10SM SCT048 01/M10 A3003 RMK T00101100 MADISHF,
LGA,2026-01-12 01:25,-73.8803,40.7794,9.0,,,,300.0,19.0,,30.03,,10.0,,FEW,,,,5000.0,,,,,,,,,,,,KLGA 120625Z AUTO 30019KT 10SM FEW050 01/M11 A3003 RMK T00101110 MADISHF,
LGA,2026-01-12 01:30,-73.8803,40.7794,9.0,,,,300.0,19.0,,30.03,,10.0,25.0,FEW,,,,5000.0,,,,,,,,,,,,KLGA 120630Z AUTO 30019G25KT 10SM FEW050 01/M10 A3003 RMK T00101100 MADISHF,
LGA,2026-01-12 01:35,-73.8803,40.7794,9.0,,,,300.0,17.0,,30.03,,10.0,22.0,FEW,,,,5000.0,,,,,,,,,,,,KLGA 120635Z AUTO 30017G22KT 10SM FEW050 01/M11 A3003 RMK T00101110 MADISHF,
LGA,2026-01-12 01:40,-73.8803,40.7794,9.0,,,,,,,30.04,,10.0,31.0,FEW,,,,5000.0,,,,,,,,,,,,KLGA 120640Z AUTO /////G31KT 10SM FEW050 01/M11 A3004 RMK T00101110 MADISHF,
LGA,2026-01-12 01:45,-73.8803,40.7794,9.0,,,,300.0,20.0,,30.04,,10.0,,FEW,,,,5000.0,,,,,,,,,,,,KLGA 120645Z AUTO 30020KT 10SM FEW050 01/M11 A3004 RMK T00101110 MADISHF,
LGA,2026-01-12 01:50,-73.8803,40.7794,9.0,,,,300.0,17.0,,30.04,,10.0,,FEW,,,,5000.0,,,,,,,,,,,,KLGA 120650Z AUTO 30017KT 10SM FEW050 01/M11 A3004 RMK T00101110 MADISHF,
LGA,2026-01-12 01:51,-73.8803,40.7794,9.0,33.0,13.0,43.1,300.0,16.0,0.00,30.04,1017.2,10.0,26.0,FEW,,,,5000.0,,,,,,,,34.0,290.0,2026-01-12 01:23,21.72,KLGA 120651Z 30016G26KT 10SM FEW050 01/M11 A3004 RMK AO2 PK WND 29034/0623 SLP172 T00061106 $,
LGA,2026-01-12 01:55,-73.8803,40.7794,9.0,,,,300.0,15.0,,30.04,,10.0,,CLR,,,,,,,,,,,,,,,,KLGA 120655Z AUTO 30015KT 10SM CLR 01/M10 A3004 RMK T00101100 MADISHF,
LGA,2026-01-12 02:00,-73.8803,40.7794,9.0,,,,300.0,17.0,,30.04,,10.0,23.0,CLR,,,,,,,,,,,,,,,,KLGA 120700Z AUTO 30017G23KT 10SM CLR 01/M11 A3004 RMK T00101110 MADISHF,
LGA,2026-01-12 02:05,-73.8803,40.7794,9.0,,,,310.0,16.0,,30.04,,10.0,,CLR,,,,,,,,,,,,,,,,KLGA 120705Z AUTO 31016KT 10SM CLR 01/M11 A3004 RMK T00101110 MADISHF,
LGA,2026-01-12 02:10,-73.8803,40.7794,9.0,,,,300.0,14.0,,30.04,,10.0,,FEW,,,,5000.0,,,,,,,,,,,,KLGA 120710Z AUTO 30014KT 10SM FEW050 01/M11 A3004 RMK T00101110 MADISHF,
LGA,2026-01-12 02:15,-73.8803,40.7794,9.0,,,,300.0,15.0,,30.05,,10.0,22.0,FEW,,,,5000.0,,,,,,,,,,,,KLGA 120715Z AUTO 30015G22KT 10SM FEW050 01/M10 A3005 RMK T00101100 MADISHF,
LGA,2026-01-12 02:20,-73.8803,40.7794,9.0,,,,300.0,12.0,,30.05,,10.0,,FEW,,,,5000.0,,,,,,,,,,,,KLGA 120720Z AUTO 30012KT 10SM FEW050 01/M11 A3005 RMK T00101110 MADISHF,
LGA,2026-01-12 02:25,-73.8803,40.7794,9.0,,,,300.0,13.0,,30.06,,10.0,,FEW,,,,5000.0,,,,,,,,,,,,KLGA 120725Z AUTO 30013KT 10SM FEW050 01/M11 A3006 RMK T00101110 MADISHF,
LGA,2026-01-12 02:30,-73.8803,40.7794,9.0,,,,300.0,16.0,,30.05,,10.0,,FEW,,,,5000.0,,,,,,,,,,,,KLGA 120730Z AUTO 30016KT 10SM FEW050 01/M11 A3005 RMK T00101110 MADISHF,
LGA,2026-01-12 02:40,-73.8803,40.7794,9.0,,,,300.0,14.0,,30.06,,10.0,,FEW,,,,5000.0,,,,,,,,,,,,KLGA 120740Z AUTO 30014KT 10SM FEW050 01/M11 A3006 RMK T00101110 MADISHF,
LGA,2026-01-12 02:45,-73.8803,40.7794,9.0,,,,300.0,11.0,,30.06,,10.0,21.0,FEW,,,,5000.0,,,,,,,,,,,,KLGA 120745Z AUTO 30011G21KT 10SM FEW050 01/M11 A3006 RMK T00101110 MADISHF,
LGA,2026-01-12 02:50,-73.8803,40.7794,9.0,,,,300.0,14.0,,30.06,,10.0,,FEW,,,,5000.0,,,,,,,,,,,,KLGA 120750Z AUTO 30014KT 10SM FEW050 01/M11 A3006 RMK T00101110 MADISHF,
LGA,2026-01-12 02:51,-73.8803,40.7794,9.0,33.0,13.0,43.1,310.0,13.0,0.00,30.06,1017.9,10.0,21.0,FEW,,,,5000.0,,,,,,,,29.0,280.0,2026-01-12 02:29,22.85,KLGA 120751Z 31013G21KT 10SM FEW050 01/M11 A3006 RMK AO2 PK WND 28029/0729 SLP179 T00061106 $,
LGA,2026-01-12 02:55,-73.8803,40.7794,9.0,,,,300.0,12.0,,30.06,,10.0,,CLR,,,,,,,,,,,,,,,,KLGA 120755Z AUTO 30012KT 10SM CLR 01/M10 A3006 RMK T00101100 MADISHF,
LGA,2026-01-12 03:00,-73.8803,40.7794,9.0,,,,300.0,12.0,,30.06,,10.0,18.0,CLR,,,,,,,,,,,,,,,,KLGA 120800Z AUTO 30012G18KT 10SM CLR 01/M11 A3006 RMK T00101110 MADISHF,
LGA,2026-01-12 03:05,-73.8803,40.7794,9.0,,,,300.0,11.0,,30.06,,10.0,,CLR,,,,,,,,,,,,,,,,KLGA 120805Z AUTO 30011KT 10SM CLR 01/M11 A3006 RMK T00101110 MADISHF,
LGA,2026-01-12 03:10,-73.8803,40.7794,9.0,,,,300.0,13.0,,30.06,,10.0,,CLR,,,,,,,,,,,,,,,,KLGA 120810Z AUTO 30013KT 10SM CLR M00/M11 A3006 RMK T10001110 MADISHF,
LGA,2026-01-12 03:15,-73.8803,40.7794,9.0,,,,310.0,12.0,,30.07,,10.0,,CLR,,,,,,,,,,,,,,,,KLGA 120815Z AUTO 31012KT 10SM CLR M00/M11 A3007 RMK T10001110 MADISHF,
LGA,2026-01-12 03:20,-73.8803,40.7794,9.0,,,,300.0,14.0,,30.07,,10.0,,CLR,,,,,,,,,,,,,,,,KLGA 120820Z AUTO 30014KT 10SM CLR M00/M11 A3007 RMK T10001110 MADISHF,
LGA,2026-01-12 03:25,-73.8803,40.7794,9.0,,,,290.0,12.0,,30.07,,10.0,,CLR,,,,,,,,,,,,,,,,KLGA 120825Z AUTO 29012KT 10SM CLR 01/M11 A3007 RMK T00101110 MADISHF,
LGA,2026-01-12 03:30,-73.8803,40.7794,9.0,,,,300.0,14.0,,30.07,,10.0,19.0,CLR,,,,,,,,,,,,,,,,KLGA 120830Z AUTO 30014G19KT 10SM CLR M00/M11 A3007 RMK T10001110 MADISHF,
LGA,2026-01-12 03:35,-73.8803,40.7794,9.0,,,,290.0,14.0,,30.07,,10.0,,CLR,,,,,,,,,,,,,,,,KLGA 120835Z AUTO 29014KT 10SM CLR M00/M11 A3007 RMK T10001110 MADISHF,
LGA,2026-01-12 03:40,-73.8803,40.7794,9.0,,,,300.0,14.0,,30.07,,10.0,21.0,CLR,,,,,,,,,,,,,,,,KLGA 120840Z AUTO 30014G21KT 10SM CLR M00/M11 A3007 RMK T10001110 MADISHF,
LGA,2026-01-12 03:45,-73.8803,40.7794,9.0,,,,290.0,13.0,,30.08,,10.0,,CLR,,,,,,,,,,,,,,,,KLGA 120845Z AUTO 29013KT 10SM CLR M00/M11 A3008 RMK T10001110 MADISHF,
LGA,2026-01-12 03:50,-73.8803,40.7794,9.0,,,,300.0,12.0,,30.07,,10.0,,FEW,,,,5000.0,,,,,,,,,,,,KLGA 120850Z AUTO 30012KT 10SM FEW050 M00/M11 A3007 RMK T10001110 MADISHF,
LGA,2026-01-12 03:51,-73.8803,40.7794,9.0,32.0,12.0,42.93,300.0,14.0,0.00,30.08,1018.4,10.0,24.0,FEW,,,,5000.0,,,,,,,,,,,21.16,KLGA 120851Z 30014G24KT 10SM FEW050 00/M11 A3008 RMK AO2 SLP184 T00001111 51023 $,
LGA,2026-01-12 03:55,-73.8803,40.7794,9.0,,,,,,,30.08,,10.0,27.0,CLR,,,,,,,,,,,,,,,,KLGA 120855Z AUTO /////G27KT 10SM CLR M00/M11 A3008 RMK T10001110 MADISHF,
LGA,2026-01-12 04:00,-73.8803,40.7794,9.0,,,,,,,30.08,,10.0,23.0,FEW,,,,5000.0,,,,,,,,,,,,KLGA 120900Z AUTO /////G23KT 10SM FEW050 M00/M11 A3008 RMK T10001110 MADISHF,
LGA,2026-01-12 04:05,-73.8803,40.7794,9.0,,,,300.0,18.0,,30.08,,10.0,25.0,FEW,,,,5000.0,,,,,,,,,,,,KLGA 120905Z AUTO 30018G25KT 10SM FEW050 M00/M11 A3008 RMK T10001110 MADISHF,
LGA,2026-01-12 04:10,-73.8803,40.7794,9.0,,,,300.0,17.0,,30.08,,10.0,,FEW,,,,5000.0,,,,,,,,,,,,KLGA 120910Z AUTO 30017KT 10SM FEW050 M00/M11 A3008 RMK T10001110 MADISHF,
LGA,2026-01-12 04:15,-73.8803,40.7794,9.0,,,,300.0,18.0,,30.08,,10.0,24.0,FEW,,,,5000.0,,,,,,,,,,,,KLGA 120915Z AUTO 30018G24KT 10SM FEW050 M00/M11 A3008 RMK T10001110 MADISHF,
LGA,2026-01-12 04:20,-73.8803,40.7794,9.0,,,,300.0,16.0,,30.09,,10.0,21.0,FEW,,,,5000.0,,,,,,,,,,,,KLGA 120920Z AUTO 30016G21KT 10SM FEW050 M00/M11 A3009 RMK T10001110 MADISHF,
LGA,2026-01-12 04:25,-73.8803,40.7794,9.0,,,,,,,30.09,,10.0,,FEW,,,,5000.0,,,,,,,,,,,,KLGA 120925Z AUTO /////KT 10SM FEW050 M00/M10 A3009 RMK T10001100 MADISHF,
LGA,2026-01-12 04:30,-73.8803,40.7794,9.0,,,,290.0,14.0,,30.1,,10.0,21.0,FEW,,,,5000.0,,,,,,,,,,,,KLGA 120930Z AUTO 29014G21KT 10SM FEW050 M00/M11 A3010 RMK T10001110 MADISHF,
LGA,2026-01-12 04:35,-73.8803,40.7794,9.0,,,,300.0,12.0,,30.11,,10.0,,FEW,,,,5000.0,,,,,,,,,,,,KLGA 120935Z AUTO 30012KT 10SM FEW050 M00/M11 A3011 RMK T10001110 MADISHF,
LGA,2026-01-12 04:40,-73.8803,40.7794,9.0,,,,300.0,15.0,,30.11,,10.0,,FEW,,,,5000.0,,,,,,,,,,,,KLGA 120940Z AUTO 30015KT 10SM FEW050 M00/M11 A3011 RMK T10001110 MADISHF,
LGA,2026-01-12 04:45,-73.8803,40.7794,9.0,,,,300.0,14.0,,30.11,,10.0,,FEW,,,,5000.0,,,,,,,,,,,,KLGA 120945Z AUTO 30014KT 10SM FEW050 M00/M11 A3011 RMK T10001110 MADISHF,
LGA,2026-01-12 04:50,-73.8803,40.7794,9.0,,,,300.0,9.0,,30.11,,10.0,,FEW,,,,5000.0,,,,,,,,,,,,KLGA 120950Z AUTO 30009KT 10SM FEW050 M00/M11 A3011 RMK T10001110 MADISHF,
LGA,2026-01-12 04:51,-73.8803,40.7794,9.0,32.0,13.0,44.87,300.0,9.0,0.00,30.11,1019.5,10.0,30.0,FEW,,,,5000.0,,,,,,,,30.0,290.0,2026-01-12 03:57,23.51,KLGA 120951Z 30009G30KT 10SM FEW050 00/M11 A3011 RMK AO2 PK WND 29030/0857 SLP195 T00001106 $,
LGA,2026-01-12 04:55,-73.8803,40.7794,9.0,,,,300.0,12.0,,30.11,,10.0,,CLR,,,,,,,,,,,,,,,,KLGA 120955Z AUTO 30012KT 10SM CLR M00/M11 A3011 RMK T10001110 MADISHF,
LGA,2026-01-12 05:00,-73.8803,40.7794,9.0,,,,300.0,14.0,,30.11,,10.0,,CLR,,,,,,,,,,,,,,,,KLGA 121000Z AUTO 30014KT 10SM CLR M00/M11 A3011 RMK T10001110 MADISHF,
LGA,2026-01-12 05:05,-73.8803,40.7794,9.0,,,,310.0,10.0,,30.11,,10.0,,CLR,,,,,,,,,,,,,,,,KLGA 121005Z AUTO 31010KT 10SM CLR M00/M11 A3011 RMK T10001110 MADISHF,
LGA,2026-01-12 05:10,-73.8803,40.7794,9.0,,,,310.0,9.0,,30.12,,10.0,,CLR,,,,,,,,,,,,,,,,KLGA 121010Z AUTO 31009KT 10SM CLR M00/M11 A3012 RMK T10001110 MADISHF,
LGA,2026-01-12 05:15,-73.8803,40.7794,9.0,,,,310.0,13.0,,30.12,,10.0,,CLR,,,,,,,,,,,,,,,,KLGA 121015Z AUTO 31013KT 10SM CLR M00/M11 A3012 RMK T10001110 MADISHF,
LGA,2026-01-12 05:20,-73.8803,40.7794,9.0,,,,310.0,12.0,,30.12,,10.0,,CLR,,,,,,,,,,,,,,,,KLGA 121020Z AUTO 31012KT 10SM CLR M00/M11 A3012 RMK T10001110 MADISHF,
LGA,2026-01-12 05:25,-73.8803,40.7794,9.0,,,,300.0,12.0,,30.12,,10.0,18.0,CLR,,,,,,,,,,,,,,,,KLGA 121025Z AUTO 30012G18KT 10SM CLR M00/M11 A3012 RMK T10001110 MADISHF,
LGA,2026-01-12 05:30,-73.8803,40.7794,9.0,,,,,,,30.12,,10.0,24.0,CLR,,,,,,,,,,,,,,,,KLGA 121030Z AUTO /////G24KT 10SM CLR M00/M11 A3012 RMK T10001110 MADISHF,
LGA,2026-01-12 05:35,-73.8803,40.7794,9.0,,,,300.0,15.0,,30.13,,10.0,,CLR,,,,,,,,,,,,,,,,KLGA 121035Z AUTO 30015KT 10SM CLR M00/M11 A3013 RMK T10001110 MADISHF,
LGA,2026-01-12 05:40,-73.8803,40.7794,9.0,,,,290.0,15.0,,30.13,,10.0,,FEW,,,,5000.0,,,,,,,,,,,,KLGA 121040Z AUTO 29015KT 10SM FEW050 M00/M11 A3013 RMK T10001110 MADISHF,
LGA,2026-01-12 05:45,-73.8803,40.7794,9.0,,,,310.0,11.0,,30.13,,10.0,,FEW,,,,5000.0,,,,,,,,,,,,KLGA 121045Z AUTO 31011KT 10SM FEW050 M00/M11 A3013 RMK T10001110 MADISHF,
LGA,2026-01-12 05:50,-73.8803,40.7794,9.0,,,,290.0,11.0,,30.13,,10.0,,FEW,,,,5000.0,,,,,,,,,,,,KLGA 121050Z AUTO 29011KT 10SM FEW050 M00/M10 A3013 RMK T10001100 MADISHF,
LGA,2026-01-12 05:51,-73.8803,40.7794,9.0,32.0,14.0,46.89,290.0,11.0,0.00,30.13,1020.2,10.0,18.0,FEW,,,,5000.0,,,,,,,,,,,22.47,KLGA 121051Z 29011G18KT 10SM FEW050 00/M10 A3013 RMK AO2 SLP202 T00001100 $,
LGA,2026-01-12 05:55,-73.8803,40.7794,9.0,,,,300.0,15.0,,30.13,,10.0,,CLR,,,,,,,,,,,,,,,,KLGA 121055Z AUTO 30015KT 10SM CLR M00/M11 A3013 RMK T10001110 MADISHF,
LGA,2026-01-12 06:00,-73.8803,40.7794,9.0,,,,290.0,12.0,,30.14,,10.0,,FEW,,,,5000.0,,,,,,,,,,,,KLGA 121100Z AUTO 29012KT 10SM FEW050 M00/M11 A3014 RMK T10001110 MADISHF,
LGA,2026-01-12 06:05,-73.8803,40.7794,9.0,,,,290.0,11.0,,30.14,,10.0,16.0,FEW,,,,5000.0,,,,,,,,,,,,KLGA 121105Z AUTO 29011G16KT 10SM FEW050 M00/M11 A3014 RMK T10001110 MADISHF,
LGA,2026-01-12 06:10,-73.8803,40.7794,9.0,,,,280.0,12.0,,30.14,,10.0,,FEW,,,,5000.0,,,,,,,,,,,,KLGA 121110Z AUTO 28012KT 10SM FEW050 01/M11 A3014 RMK T00101110 MADISHF,
LGA,2026-01-12 06:15,-73.8803,40.7794,9.0,,,,290.0,11.0,,30.14,,10.0,17.0,FEW,,,,5000.0,,,,,,,,,,,,KLGA 121115Z AUTO 29011G17KT 10SM FEW050 01/M11 A3014 RMK T00101110 MADISHF,
LGA,2026-01-12 06:20,-73.8803,40.7794,9.0,,,,290.0,16.0,,30.14,,10.0,,FEW,,,,5000.0,,,,,,,,,,,,KLGA 121120Z AUTO 29016KT 10SM FEW050 01/M11 A3014 RMK T00101110 MADISHF,
LGA,2026-01-12 06:25,-73.8803,40.7794,9.0,,,,,,,30.14,,10.0,24.0,FEW,,,,5000.0,,,,,,,,,,,,KLGA 121125Z AUTO /////G24KT 10SM FEW050 01/M11 A3014 RMK T00101110 MADISHF,
LGA,2026-01-12 06:30,-73.8803,40.7794,9.0,,,,290.0,13.0,,30.15,,10.0,,FEW,,,,5000.0,,,,,,,,,,,,KLGA 121130Z AUTO 29013KT 10SM FEW050 01/M11 A3015 RMK T00101110 MADISHF,
LGA,2026-01-12 06:35,-73.8803,40.7794,9.0,,,,290.0,14.0,,30.15,,10.0,,FEW,,,,5000.0,,,,,,,,,,,,KLGA 121135Z AUTO 29014KT 10SM FEW050 01/M11 A3015 RMK T00101110 MADISHF,
LGA,2026-01-12 06:40,-73.8803,40.7794,9.0,,,,280.0,12.0,,30.15,,10.0,,FEW,,,,5000.0,,,,,,,,,,,,KLGA 121140Z AUTO 28012KT 10SM FEW050 01/M11 A3015 RMK T00101110 MADISHF,
LGA,2026-01-12 06:45,-73.8803,40.7794,9.0,,,,300.0,14.0,,30.15,,10.0,,FEW,,,,5000.0,,,,,,,,,,,,KLGA 121145Z AUTO 30014KT 10SM FEW050 01/M11 A3015 RMK T00101110 MADISHF,
LGA,2026-01-12 06:51,-73.8803,40.7794,9.0,33.0,13.0,43.1,290.0,14.0,0.00,30.16,1021.1,10.0,,FEW,,,,5000.0,,,,,,,,,,,22.45,KLGA 121151Z 29014KT 10SM FEW050 01/M11 A3016 RMK AO2 SLP211 T00061106 10011 20000 51027 $,
LGA,2026-01-12 06:55,-73.8803,40.7794,9.0,,,,290.0,11.0,,30.16,,10.0,,CLR,,,,,,,,,,,,,,,,KLGA 121155Z AUTO 29011KT 10SM CLR 01/M11 A3016 RMK T00101110 MADISHF,
LGA,2026-01-12 07:00,-73.8803,40.7794,9.0,,,,290.0,12.0,,30.16,,10.0,,CLR,,,,,,,,,,,,,,,,KLGA 121200Z AUTO 29012KT 10SM CLR 01/M11 A3016 RMK T00101110 MADISHF,
LGA,2026-01-12 07:05,-73.8803,40.7794,9.0,,,,280.0,12.0,,30.16,,10.0,17.0,FEW,,,,5000.0,,,,,,,,,,,,KLGA 121205Z AUTO 28012G17KT 10SM FEW050 01/M11 A3016 RMK T00101110 MADISHF,
LGA,2026-01-12 07:10,-73.8803,40.7794,9.0,,,,280.0,11.0,,30.17,,10.0,,FEW,,,,5000.0,,,,,,,,,,,,KLGA 121210Z AUTO 28011KT 10SM FEW050 01/M11 A3017 RMK T00101110 MADISHF,
LGA,2026-01-12 07:15,-73.8803,40.7794,9.0,,,,260.0,12.0,,30.17,,10.0,,FEW,,,,5000.0,,,,,,,,,,,,KLGA 121215Z AUTO 26012KT 10SM FEW050 01/M11 A3017 RMK T00101110 MADISHF,
LGA,2026-01-12 07:20,-73.8803,40.7794,9.0,,,,280.0,12.0,,30.17,,10.0,,FEW,,,,5000.0,,,,,,,,,,,,KLGA 121220Z AUTO 28012KT 10SM FEW050 01/M11 A3017 RMK T00101110 MADISHF,
LGA,2026-01-12 07:25,-73.8803,40.7794,9.0,,,,280.0,12.0,,30.17,,10.0,,FEW,,,,5000.0,,,,,,,,,,,,KLGA 121225Z AUTO 28012KT 10SM FEW050 01/M11 A3017 RMK T00101110 MADISHF,
LGA,2026-01-12 07:30,-73.8803,40.7794,9.0,,,,290.0,12.0,,30.17,,10.0,,FEW,,,,5000.0,,,,,,,,,,,,KLGA 121230Z AUTO 29012KT 10SM FEW050 01/M10 A3017 RMK T00101100 MADISHF,
LGA,2026-01-12 07:35,-73.8803,40.7794,9.0,,,,270.0,10.0,,30.18,,10.0,,FEW,,,,5000.0,,,,,,,,,,,,KLGA 121235Z AUTO 27010KT 10SM FEW050 01/M11 A3018 RMK T00101110 MADISHF,
LGA,2026-01-12 07:40,-73.8803,40.7794,9.0,,,,260.0,13.0,,30.18,,10.0,18.0,FEW,,,,5000.0,,,,,,,,,,,,KLGA 121240Z AUTO 26013G18KT 10SM FEW050 01/M11 A3018 RMK T00101110 MADISHF,
LGA,2026-01-12 07:45,-73.8803,40.7794,9.0,,,,260.0,13.0,,30.19,,10.0,,FEW,,,,5000.0,,,,,,,,,,,,KLGA 121245Z AUTO 26013KT 10SM FEW050 01/M11 A3019 RMK T00101110 MADISHF,
LGA,2026-01-12 07:50,-73.8803,40.7794,9.0,,,,260.0,13.0,,30.19,,10.0,22.0,FEW,,,,5000.0,,,,,,,,,,,,KLGA 121250Z AUTO 26013G22KT 10SM FEW050 01/M11 A3019 RMK T00101110 MADISHF,
LGA,2026-01-12 07:51,-73.8803,40.7794,9.0,33.0,13.0,43.1,270.0,15.0,0.00,30.19,1022.2,10.0,23.0,FEW,SCT,,,5000.0,25000.0,,,,,,,,,,22.08,KLGA 121251Z 27015G23KT 10SM FEW050 SCT250 01/M11 A3019 RMK AO2 SLP222 T00061106 $,
LGA,2026-01-12 07:55,-73.8803,40.7794,9.0,,,,260.0,12.0,,30.19,,10.0,18.0,CLR,,,,,,,,,,,,,,,,KLGA 121255Z AUTO 26012G18KT 10SM CLR 01/M11 A3019 RMK T00101110 MADISHF,
LGA,2026-01-12 08:00,-73.8803,40.7794,9.0,,,,250.0,13.0,,30.19,,10.0,,CLR,,,,,,,,,,,,,,,,KLGA 121300Z AUTO 25013KT 10SM CLR 01/M11 A3019 RMK T00101110 MADISHF,
LGA,2026-01-12 08:05,-73.8803,40.7794,9.0,,,,270.0,12.0,,30.19,,10.0,17.0,CLR,,,,,,,,,,,,,,,,KLGA 121305Z AUTO 27012G17KT 10SM CLR 01/M11 A3019 RMK T00101110 MADISHF,
LGA,2026-01-12 08:10,-73.8803,40.7794,9.0,,,,260.0,10.0,,30.2,,10.0,,CLR,,,,,,,,,,,,,,,,KLGA 121310Z AUTO 26010KT 10SM CLR 01/M11 A3020 RMK T00101110 MADISHF,
LGA,2026-01-12 08:15,-73.8803,40.7794,9.0,,,,260.0,13.0,,30.2,,10.0,,CLR,,,,,,,,,,,,,,,,KLGA 121315Z AUTO 26013KT 10SM CLR 01/M11 A3020 RMK T00101110 MADISHF,
LGA,2026-01-12 08:20,-73.8803,40.7794,9.0,,,,250.0,12.0,,30.2,,10.0,,CLR,,,,,,,,,,,,,,,,KLGA 121320Z AUTO 25012KT 10SM CLR 01/M11 A3020 RMK T00101110 MADISHF,
LGA,2026-01-12 08:25,-73.8803,40.7794,9.0,,,,250.0,10.0,,30.2,,10.0,,FEW,,,,5000.0,,,,,,,,,,,,KLGA 121325Z AUTO 25010KT 10SM FEW050 01/M11 A3020 RMK T00101110 MADISHF,
LGA,2026-01-12 08:30,-73.8803,40.7794,9.0,,,,250.0,12.0,,30.21,,10.0,,FEW,,,,5000.0,,,,,,,,,,,,KLGA 121330Z AUTO 25012KT 10SM FEW050 01/M11 A3021 RMK T00101110 MADISHF,
LGA,2026-01-12 08:35,-73.8803,40.7794,9.0,,,,250.0,12.0,,30.2,,10.0,,FEW,,,,5000.0,,,,,,,,,,,,KLGA 121335Z AUTO 25012KT 10SM FEW050 01/M11 A3020 RMK T00101110 MADISHF,
LGA,2026-01-12 08:40,-73.8803,40.7794,9.0,,,,250.0,11.0,,30.21,,10.0,,FEW,,,,5000.0,,,,,,,,,,,,KLGA 121340Z AUTO 25011KT 10SM FEW050 01/M11 A3021 RMK T00101110 MADISHF,
LGA,2026-01-12 08:45,-73.8803,40.7794,9.0,,,,250.0,12.0,,30.21,,10.0,,FEW,,,,5000.0,,,,,,,,,,,,KLGA 121345Z AUTO 25012KT 10SM FEW050 01/M11 A3021 RMK T00101110 MADISHF,
LGA,2026-01-12 08:50,-73.8803,40.7794,9.0,,,,250.0,14.0,,30.21,,10.0,,FEW,,,,5000.0,,,,,,,,,,,,KLGA 121350Z AUTO 25014KT 10SM FEW050 01/M11 A3021 RMK T00101110 MADISHF,
LGA,2026-01-12 08:51,-73.8803,40.7794,9.0,34.0,13.0,41.4,250.0,11.0,0.00,30.21,1022.9,10.0,20.0,FEW,BKN,BKN,,5000.0,18000.0,25000.0,,,,,,,,,24.99,KLGA 121351Z 25011G20KT 10SM FEW050 BKN180 BKN250 01/M11 A3021 RMK AO2 SLP229 T00111106 $,
LGA,2026-01-12 08:55,-73.8803,40.7794,9.0,,,,260.0,13.0,,30.21,,10.0,,FEW,,,,5000.0,,,,,,,,,,,,KLGA 121355Z AUTO 26013KT 10SM FEW050 01/M11 A3021 RMK T00101110 MADISHF,
LGA,2026-01-12 09:00,-73.8803,40.7794,9.0,,,,250.0,10.0,,30.2,,10.0,,FEW,,,,5000.0,,,,,,,,,,,,KLGA 121400Z AUTO 25010KT 10SM FEW050 01/M11 A3020 RMK T00101110 MADISHF,
LGA,2026-01-12 09:05,-73.8803,40.7794,9.0,,,,250.0,12.0,,30.2,,10.0,17.0,FEW,,,,5000.0,,,,,,,,,,,,KLGA 121405Z AUTO 25012G17KT 10SM FEW050 01/M11 A3020 RMK T00101110 MADISHF,
LGA,2026-01-12 09:10,-73.8803,40.7794,9.0,,,,250.0,12.0,,30.21,,10.0,,FEW,,,,5000.0,,,,,,,,,,,,KLGA 121410Z AUTO 25012KT 10SM FEW050 01/M11 A3021 RMK T00101110 MADISHF,
LGA,2026-01-12 09:15,-73.8803,40.7794,9.0,,,,250.0,11.0,,30.2,,10.0,,FEW,,,,5000.0,,,,,,,,,,,,KLGA 121415Z AUTO 25011KT 10SM FEW050 01/M11 A3020 RMK T00101110 MADISHF,
LGA,2026-01-12 09:20,-73.8803,40.7794,9.0,,,,250.0,10.0,,30.2,,10.0,16.0,FEW,,,,5000.0,,,,,,,,,,,,KLGA 121420Z AUTO 25010G16KT 10SM FEW050 01/M11 A3020 RMK T00101110 MADISHF,
LGA,2026-01-12 09:25,-73.8803,40.7794,9.0,,,,250.0,11.0,,30.2,,10.0,,FEW,,,,5500.0,,,,,,,,,,,,KLGA 121425Z AUTO 25011KT 10SM FEW055 01/M11 A3020 RMK T00101110 MADISHF,
LGA,2026-01-12 09:30,-73.8803,40.7794,9.0,,,,250.0,12.0,,30.2,,10.0,,FEW,,,,5500.0,,,,,,,,,,,,KLGA 121430Z AUTO 25012KT 10SM FEW055 02/M11 A3020 RMK T00201110 MADISHF,
LGA,2026-01-12 09:35,-73.8803,40.7794,9.0,,,,250.0,13.0,,30.2,,10.0,,FEW,,,,5500.0,,,,,,,,,,,,KLGA 121435Z AUTO 25013KT 10SM FEW055 01/M11 A3020 RMK T00101110 MADISHF,
LGA,2026-01-12 09:40,-73.8803,40.7794,9.0,,,,250.0,14.0,,30.2,,10.0,,FEW,,,,5500.0,,,,,,,,,,,,KLGA 121440Z AUTO 25014KT 10SM FEW055 02/M11 A3020 RMK T00201110 MADISHF,
LGA,2026-01-12 09:45,-73.8803,40.7794,9.0,,,,260.0,12.0,,30.2,,10.0,,FEW,,,,5500.0,,,,,,,,,,,,KLGA 121445Z AUTO 26012KT 10SM FEW055 02/M11 A3020 RMK T00201110 MADISHF,
LGA,2026-01-12 09:50,-73.8803,40.7794,9.0,,,,260.0,14.0,,30.19,,10.0,,FEW,,,,5500.0,,,,,,,,,,,,KLGA 121450Z AUTO 26014KT 10SM FEW055 02/M11 A3019 RMK T00201110 MADISHF,
LGA,2026-01-12 09:51,-73.8803,40.7794,9.0,35.0,13.0,39.79,260.0,15.0,0.00,30.19,1022.4,10.0,,FEW,FEW,SCT,,5500.0,18000.0,25000.0,,,,,,,,,24.67,KLGA 121451Z 26015KT 10SM FEW055 FEW180 SCT250 02/M11 A3019 RMK AO2 SLP224 T00171106 50013 $,
LGA,2026-01-12 09:55,-73.8803,40.7794,9.0,,,,280.0,9.0,,30.19,,10.0,,CLR,,,,,,,,,,,,,,,,KLGA 121455Z AUTO 28009KT 10SM CLR 02/M11 A3019 RMK T00201110 MADISHF,
LGA,2026-01-12 10:00,-73.8803,40.7794,9.0,,,,270.0,11.0,,30.2,,10.0,,CLR,,,,,,,,,,,,,,,,KLGA 121500Z AUTO 27011KT 10SM CLR 02/M10 A3020 RMK T00201100 WND 24V30 MADISHF,
LGA,2026-01-12 10:05,-73.8803,40.7794,9.0,,,,270.0,10.0,,30.19,,10.0,,CLR,,,,,,,,,,,,,,,,KLGA 121505Z AUTO 27010KT 10SM CLR 02/M10 A3019 RMK T00201100 MADISHF,
LGA,2026-01-12 10:10,-73.8803,40.7794,9.0,,,,270.0,10.0,,30.19,,10.0,,CLR,,,,,,,,,,,,,,,,KLGA 121510Z AUTO 27010KT 10SM CLR 02/M10 A3019 RMK T00201100 MADISHF,
LGA,2026-01-12 10:15,-73.8803,40.7794,9.0,,,,260.0,9.0,,30.19,,10.0,,CLR,,,,,,,,,,,,,,,,KLGA 121515Z AUTO 26009KT 10SM CLR 02/M10 A3019 RMK T00201100 MADISHF,
LGA,2026-01-12 10:20,-73.8803,40.7794,9.0,,,,260.0,14.0,,30.19,,10.0,,CLR,,,,,,,,,,,,,,,,KLGA 121520Z AUTO 26014KT 10SM CLR 02/M10 A3019 RMK T00201100 MADISHF,
LGA,2026-01-12 10:25,-73.8803,40.7794,9.0,,,,260.0,15.0,,30.19,,10.0,,CLR,,,,,,,,,,,,,,,,KLGA 121525Z AUTO 26015KT 10SM CLR 02/M10 A3019 RMK T00201100 MADISHF,
LGA,2026-01-12 10:30,-73.8803,40.7794,9.0,,,,260.0,12.0,,30.19,,10.0,18.0,CLR,,,,,,,,,,,,,,,,KLGA 121530Z AUTO 26012G18KT 10SM CLR 02/M10 A3019 RMK T00201100 MADISHF,
LGA,2026-01-12 10:35,-73.8803,40.7794,9.0,,,,270.0,10.0,,30.19,,10.0,19.0,CLR,,,,,,,,,,,,,,,,KLGA 121535Z AUTO 27010G19KT 10SM CLR 02/M10 A3019 RMK T00201100 MADISHF,
LGA,2026-01-12 10:40,-73.8803,40.7794,9.0,,,,260.0,12.0,,30.19,,10.0,,CLR,,,,,,,,,,,,,,,,KLGA 121540Z AUTO 26012KT 10SM CLR 02/M10 A3019 RMK T00201100 MADISHF,
LGA,2026-01-12 10:45,-73.8803,40.7794,9.0,,,,280.0,11.0,,30.18,,10.0,,CLR,,,,,,,,,,,,,,,,KLGA 121545Z AUTO 28011KT 10SM CLR 02/M10 A3018 RMK T00201100 MADISHF,
LGA,2026-01-12 10:50,-73.8803,40.7794,9.0,,,,260.0,12.0,,30.18,,10.0,,CLR,,,,,,,,,,,,,,,,KLGA 121550Z AUTO 26012KT 10SM CLR 02/M10 A3018 RMK T00201100 MADISHF,
LGA,2026-01-12 10:51,-73.8803,40.7794,9.0,37.0,14.0,38.41,270.0,13.0,0.00,30.18,1022.0,10.0,21.0,FEW,FEW,SCT,,5500.0,18000.0,25000.0,,,,,,,,,27.97,KLGA 121551Z COR 27013G21KT 10SM FEW055 FEW180 SCT250 03/M10 A3018 RMK AO2 SLP220 T00281100 $,
LGA,2026-01-12 10:55,-73.8803,40.7794,9.0,,,,260.0,7.0,,30.18,,10.0,,CLR,,,,,,,,,,,,,,,,KLGA 121555Z AUTO 26007KT 10SM CLR 03/M10 A3018 RMK T00301100 MADISHF,
LGA,2026-01-12 11:00,-73.8803,40.7794,9.0,,,,250.0,12.0,,30.18,,10.0,,CLR,,,,,,,,,,,,,,,,KLGA 121600Z AUTO 25012KT 10SM CLR 03/M10 A3018 RMK T00301100 MADISHF,
LGA,2026-01-12 11:05,-73.8803,40.7794,9.0,,,,270.0,10.0,,30.18,,10.0,,CLR,,,,,,,,,,,,,,,,KLGA 121605Z AUTO 27010KT 10SM CLR 03/M11 A3018 RMK T00301110 MADISHF,
LGA,2026-01-12 11:10,-73.8803,40.7794,9.0,,,,260.0,16.0,,30.17,,10.0,,CLR,,,,,,,,,,,,,,,,KLGA 121610Z AUTO 26016KT 10SM CLR 03/M11 A3017 RMK T00301110 MADISHF,
LGA,2026-01-12 11:15,-73.8803,40.7794,9.0,,,,260.0,9.0,,30.17,,10.0,,CLR,,,,,,,,,,,,,,,,KLGA 121615Z AUTO 26009KT 10SM CLR A3017 RMK T0030 MADISHF,
LGA,2026-01-12 11:20,-73.8803,40.7794,9.0,,,,260.0,12.0,,30.17,,10.0,,CLR,,,,,,,,,,,,,,,,KLGA 121620Z AUTO 26012KT 10SM CLR A3017 RMK T0030 MADISHF,
LGA,2026-01-12 11:25,-73.8803,40.7794,9.0,,,,250.0,11.0,,30.17,,10.0,,CLR,,,,,,,,,,,,,,,,KLGA 121625Z AUTO 25011KT 10SM CLR 03/M11 A3017 RMK T00301110 MADISHF,
LGA,2026-01-12 11:30,-73.8803,40.7794,9.0,,,,250.0,11.0,,30.17,,10.0,,CLR,,,,,,,,,,,,,,,,KLGA 121630Z AUTO 25011KT 10SM CLR 03/M10 A3017 RMK T00301100 MADISHF,
LGA,2026-01-12 11:35,-73.8803,40.7794,9.0,,,,250.0,13.0,,30.17,,10.0,,CLR,,,,,,,,,,,,,,,,KLGA 121635Z AUTO 25013KT 10SM CLR 03/M10 A3017 RMK T00301100 MADISHF,
LGA,2026-01-12 11:40,-73.8803,40.7794,9.0,,,,250.0,15.0,,30.16,,10.0,,CLR,,,,,,,,,,,,,,,,KLGA 121640Z AUTO 25015KT 10SM CLR 03/M11 A3016 RMK T00301110 MADISHF,
LGA,2026-01-12 11:45,-73.8803,40.7794,9.0,,,,260.0,13.0,,30.16,,10.0,,CLR,,,,,,,,,,,,,,,,KLGA 121645Z AUTO 26013KT 10SM CLR 03/M11 A3016 RMK T00301110 MADISHF,
LGA,2026-01-12 11:50,-73.8803,40.7794,9.0,,,,250.0,9.0,,30.16,,10.0,,FEW,,,,5500.0,,,,,,,,,,,,KLGA 121650Z AUTO 25009KT 10SM FEW055 03/M11 A3016 RMK T00301110 MADISHF,
LGA,2026-01-12 11:51,-73.8803,40.7794,9.0,38.0,13.0,35.34,240.0,9.0,0.00,30.16,1021.3,10.0,20.0,FEW,SCT,SCT,,5500.0,18000.0,25000.0,,,,,,,,,30.97,KLGA 121651Z 24009G20KT 10SM FEW055 SCT180 SCT250 03/M11 A3016 RMK AO2 SLP213 T00331106 $,
LGA,2026-01-12 11:55,-73.8803,40.7794,9.0,,,,260.0,13.0,,30.16,,10.0,,CLR,,,,,,,,,,,,,,,,KLGA 121655Z AUTO 26013KT 10SM CLR 04/M11 A3016 RMK T00401110 MADISHF,
LGA,2026-01-12 12:00,-73.8803,40.7794,9.0,,,,260.0,13.0,,30.16,,10.0,,CLR,,,,,,,,,,,,,,,,KLGA 121700Z AUTO 26013KT 10SM CLR 03/M11 A3016 RMK T00301110 MADISHF,
LGA,2026-01-12 12:05,-73.8803,40.7794,9.0,,,,270.0,9.0,,30.15,,10.0,,CLR,,,,,,,,,,,,,,,,KLGA 121705Z AUTO 27009KT 10SM CLR 03/M11 A3015 RMK T00301110 MADISHF,
LGA,2026-01-12 12:10,-73.8803,40.7794,9.0,,,,240.0,10.0,,30.15,,10.0,,CLR,,,,,,,,,,,,,,,,KLGA 121710Z AUTO 24010KT 10SM CLR 04/M11 A3015 RMK T00401110 MADISHF,
LGA,2026-01-12 12:15,-73.8803,40.7794,9.0,,,,250.0,6.0,,30.14,,10.0,,CLR,,,,,,,,,,,,,,,,KLGA 121715Z AUTO 25006KT 10SM CLR 04/M10 A3014 RMK T00401100 MADISHF,
LGA,2026-01-12 12:20,-73.8803,40.7794,9.0,,,,240.0,12.0,,30.14,,10.0,,FEW,,,,5500.0,,,,,,,,,,,,KLGA 121720Z AUTO 24012KT 10SM FEW055 04/M10 A3014 RMK T00401100 MADISHF,
LGA,2026-01-12 12:25,-73.8803,40.7794,9.0,,,,230.0,10.0,,30.14,,10.0,,FEW,,,,5500.0,,,,,,,,,,,,KLGA 121725Z AUTO 23010KT 10SM FEW055 04/M11 A3014 RMK T00401110 MADISHF,
LGA,2026-01-12 12:30,-73.8803,40.7794,9.0,,,,240.0,10.0,,30.14,,10.0,16.0,FEW,,,,5500.0,,,,,,,,,,,,KLGA 121730Z AUTO 24010G16KT 10SM FEW055 04/M10 A3014 RMK T00401100 MADISHF,
LGA,2026-01-12 12:35,-73.8803,40.7794,9.0,,,,210.0,11.0,,30.13,,10.0,,FEW,,,,5500.0,,,,,,,,,,,,KLGA 121735Z AUTO 21011KT 10SM FEW055 04/M10 A3013 RMK T00401100 MADISHF,
LGA,2026-01-12 12:40,-73.8803,40.7794,9.0,,,,220.0,10.0,,30.13,,10.0,18.0,FEW,,,,5500.0,,,,,,,,,,,,KLGA 121740Z AUTO 22010G18KT 10SM FEW055 04/M10 A3013 RMK T00401100 MADISHF,
LGA,2026-01-12 12:45,-73.8803,40.7794,9.0,,,,220.0,10.0,,30.13,,10.0,19.0,FEW,,,,5500.0,,,,,,,,,,,,KLGA 121745Z AUTO 22010G19KT 10SM FEW055 04/M10 A3013 RMK T00401100 MADISHF,
LGA,2026-01-12 12:50,-73.8803,40.7794,9.0,,,,210.0,12.0,,30.13,,10.0,,FEW,,,,5500.0,,,,,,,,,,,,KLGA 121750Z AUTO 21012KT 10SM FEW055 04/M10 A3013 RMK T00401100 MADISHF,
LGA,2026-01-12 12:51,-73.8803,40.7794,9.0,40.0,14.0,34.15,220.0,13.0,0.00,30.13,1020.1,10.0,19.0,FEW,FEW,SCT,,5500.0,18000.0,25000.0,,,,,,,,,31.82,KLGA 121751Z 22013G19KT 10SM FEW055 FEW180 SCT250 04/M10 A3013 RMK AO2 SLP201 T00441100 10044 20006 58023 $,
LGA,2026-01-12 12:55,-73.8803,40.7794,9.0,,,,230.0,9.0,,30.12,,10.0,,CLR,,,,,,,,,,,,,,,,KLGA 121755Z AUTO 23009KT 10SM CLR 04/M10 A3012 RMK T00401100 MADISHF,
LGA,2026-01-12 13:00,-73.8803,40.7794,9.0,,,,220.0,12.0,,30.12,,10.0,19.0,CLR,,,,,,,,,,,,,,,,KLGA 121800Z AUTO 22012G19KT 10SM CLR 04/M10 A3012 RMK T00401100 MADISHF,
LGA,2026-01-12 13:05,-73.8803,40.7794,9.0,,,,230.0,15.0,,30.12,,10.0,22.0,CLR,,,,,,,,,,,,,,,,KLGA 121805Z AUTO 23015G22KT 10SM CLR 04/M10 A3012 RMK T00401100 MADISHF,
LGA,2026-01-12 13:10,-73.8803,40.7794,9.0,,,,230.0,13.0,,30.12,,10.0,,CLR,,,,,,,,,,,,,,,,KLGA 121810Z AUTO 23013KT 10SM CLR 04/M10 A3012 RMK T00401100 MADISHF,
LGA,2026-01-12 13:15,-73.8803,40.7794,9.0,,,,240.0,11.0,,30.12,,10.0,16.0,CLR,,,,,,,,,,,,,,,,KLGA 121815Z AUTO 24011G16KT 10SM CLR 04/M10 A3012 RMK T00401100 MADISHF,
LGA,2026-01-12 13:20,-73.8803,40.7794,9.0,,,,230.0,12.0,,30.12,,10.0,,CLR,,,,,,,,,,,,,,,,KLGA 121820Z AUTO 23012KT 10SM CLR 04/M10 A3012 RMK T00401100 MADISHF,
LGA,2026-01-12 13:25,-73.8803,40.7794,9.0,,,,250.0,13.0,,30.12,,10.0,,CLR,,,,,,,,,,,,,,,,KLGA 121825Z AUTO 25013KT 10SM CLR 04/M10 A3012 RMK T00401100 MADISHF,
LGA,2026-01-12 13:30,-73.8803,40.7794,9.0,,,,240.0,10.0,,30.11,,10.0,,CLR,,,,,,,,,,,,,,,,KLGA 121830Z AUTO 24010KT 10SM CLR 04/M10 A3011 RMK T00401100 MADISHF,
LGA,2026-01-12 13:35,-73.8803,40.7794,9.0,,,,230.0,12.0,,30.11,,10.0,,CLR,,,,,,,,,,,,,,,,KLGA 121835Z AUTO 23012KT 10SM CLR 05/M10 A3011 RMK T00501100 MADISHF,
LGA,2026-01-12 13:40,-73.8803,40.7794,9.0,,,,230.0,16.0,,30.11,,10.0,,CLR,,,,,,,,,,,,,,,,KLGA 121840Z AUTO 23016KT 10SM CLR 04/M10 A3011 RMK T00401100 MADISHF,
LGA,2026-01-12 13:45,-73.8803,40.7794,9.0,,,,240.0,11.0,,30.11,,10.0,,CLR,,,,,,,,,,,,,,,,KLGA 121845Z AUTO 24011KT 10SM CLR 04/M10 A3011 RMK T00401100 MADISHF,
LGA,2026-01-12 13:50,-73.8803,40.7794,9.0,,,,240.0,9.0,,30.11,,10.0,,FEW,,,,6000.0,,,,,,,,,,,,KLGA 121850Z AUTO 24009KT 10SM FEW060 04/M10 A3011 RMK T00401100 MADISHF,
LGA,2026-01-12 13:51,-73.8803,40.7794,9.0,40.0,14.0,34.15,240.0,8.0,0.00,30.11,1019.6,10.0,17.0,FEW,FEW,BKN,,6000.0,18000.0,25000.0,,,,,,,,,33.97,KLGA 121851Z 24008G17KT 10SM FEW060 FEW180 BKN250 04/M10 A3011 RMK AO2 SLP196 T00441100 $,
LGA,2026-01-12 13:55,-73.8803,40.7794,9.0,,,,240.0,13.0,,30.11,,10.0,,CLR,,,,,,,,,,,,,,,,KLGA 121855Z AUTO 24013KT 10SM CLR 04/M10 A3011 RMK T00401100 MADISHF,
LGA,2026-01-12 14:00,-73.8803,40.7794,9.0,,,,230.0,11.0,,30.11,,10.0,,CLR,,,,,,,,,,,,,,,,KLGA 121900Z AUTO 23011KT 10SM CLR 04/M10 A3011 RMK T00401100 MADISHF,
LGA,2026-01-12 14:05,-73.8803,40.7794,9.0,,,,230.0,7.0,,30.11,,10.0,,CLR,,,,,,,,,,,,,,,,KLGA 121905Z AUTO 23007KT 10SM CLR 04/M10 A3011 RMK T00401100 MADISHF,
LGA,2026-01-12 14:10,-73.8803,40.7794,9.0,,,,240.0,13.0,,30.12,,10.0,,CLR,,,,,,,,,,,,,,,,KLGA 121910Z AUTO 24013KT 10SM CLR 05/M09 A3012 RMK T00501090 MADISHF,
LGA,2026-01-12 14:15,-73.8803,40.7794,9.0,,,,230.0,10.0,,30.12,,10.0,,CLR,,,,,,,,,,,,,,,,KLGA 121915Z AUTO 23010KT 10SM CLR 04/M10 A3012 RMK T00401100 MADISHF,
LGA,2026-01-12 14:20,-73.8803,40.7794,9.0,,,,230.0,10.0,,30.12,,10.0,,CLR,,,,,,,,,,,,,,,,KLGA 121920Z AUTO 23010KT 10SM CLR 05/M10 A3012 RMK T00501100 MADISHF,
LGA,2026-01-12 14:25,-73.8803,40.7794,9.0,,,,250.0,12.0,,30.12,,10.0,18.0,CLR,,,,,,,,,,,,,,,,KLGA 121925Z AUTO 25012G18KT 10SM CLR 05/M09 A3012 RMK T00501090 MADISHF,
LGA,2026-01-12 14:30,-73.8803,40.7794,9.0,,,,240.0,14.0,,30.12,,10.0,19.0,CLR,,,,,,,,,,,,,,,,KLGA 121930Z AUTO 24014G19KT 10SM CLR 05/M10 A3012 RMK T00501100 MADISHF,
LGA,2026-01-12 14:35,-73.8803,40.7794,9.0,,,,230.0,10.0,,30.12,,10.0,16.0,CLR,,,,,,,,,,,,,,,,KLGA 121935Z AUTO 23010G16KT 10SM CLR 04/M10 A3012 RMK T00401100 MADISHF,
LGA,2026-01-12 14:40,-73.8803,40.7794,9.0,,,,230.0,13.0,,30.12,,10.0,,CLR,,,,,,,,,,,,,,,,KLGA 121940Z AUTO 23013KT 10SM CLR 04/M10 A3012 RMK T00401100 MADISHF,
LGA,2026-01-12 14:45,-73.8803,40.7794,9.0,,,,230.0,11.0,,30.12,,10.0,,CLR,,,,,,,,,,,,,,,,KLGA 121945Z AUTO 23011KT 10SM CLR 04/M10 A3012 RMK T00401100 MADISHF,
LGA,2026-01-12 14:50,-73.8803,40.7794,9.0,,,,240.0,13.0,,30.12,,10.0,19.0,FEW,,,,6000.0,,,,,,,,,,,,KLGA 121950Z AUTO 24013G19KT 10SM FEW060 04/M10 A3012 RMK T00401100 MADISHF,
LGA,2026-01-12 14:51,-73.8803,40.7794,9.0,40.0,14.0,34.15,230.0,14.0,0.00,30.12,1019.7,10.0,20.0,FEW,SCT,BKN,,6000.0,18000.0,25000.0,,,,,,,,,31.47,KLGA 121951Z 23014G20KT 10SM FEW060 SCT180 BKN250 04/M10 A3012 RMK AO2 SLP197 T00441100 $,
LGA,2026-01-12 14:55,-73.8803,40.7794,9.0,,,,240.0,11.0,,30.11,,10.0,19.0,CLR,,,,,,,,,,,,,,,,KLGA 121955Z AUTO 24011G19KT 10SM CLR 04/M10 A3011 RMK T00401100 MADISHF,
LGA,2026-01-12 15:00,-73.8803,40.7794,9.0,,,,230.0,10.0,,30.11,,10.0,,CLR,,,,,,,,,,,,,,,,KLGA 122000Z AUTO 23010KT 10SM CLR 04/M10 A3011 RMK T00401100 MADISHF,
LGA,2026-01-12 15:05,-73.8803,40.7794,9.0,,,,240.0,12.0,,30.11,,10.0,,CLR,,,,,,,,,,,,,,,,KLGA 122005Z AUTO 24012KT 10SM CLR 04/M10 A3011 RMK T00401100 MADISHF,
LGA,2026-01-12 15:10,-73.8803,40.7794,9.0,,,,240.0,12.0,,30.11,,10.0,17.0,CLR,,,,,,,,,,,,,,,,KLGA 122010Z AUTO 24012G17KT 10SM CLR 04/M10 A3011 RMK T00401100 MADISHF,
LGA,2026-01-12 15:15,-73.8803,40.7794,9.0,,,,240.0,12.0,,30.11,,10.0,,CLR,,,,,,,,,,,,,,,,KLGA 122015Z AUTO 24012KT 10SM CLR 05/M09 A3011 RMK T00501090 MADISHF,
LGA,2026-01-12 15:20,-73.8803,40.7794,9.0,,,,230.0,10.0,,30.11,,10.0,,CLR,,,,,,,,,,,,,,,,KLGA 122020Z AUTO 23010KT 10SM CLR 05/M09 A3011 RMK T00501090 MADISHF,
LGA,2026-01-12 15:25,-73.8803,40.7794,9.0,,,,250.0,9.0,,30.11,,10.0,21.0,CLR,,,,,,,,,,,,,,,,KLGA 122025Z AUTO 25009G21KT 10SM CLR 04/M09 A3011 RMK T00401090 MADISHF,
LGA,2026-01-12 15:30,-73.8803,40.7794,9.0,,,,240.0,12.0,,30.11,,10.0,18.0,CLR,,,,,,,,,,,,,,,,KLGA 122030Z AUTO 24012G18KT 10SM CLR 04/M09 A3011 RMK T00401090 MADISHF,
LGA,2026-01-12 15:35,-73.8803,40.7794,9.0,,,,250.0,11.0,,30.11,,10.0,,CLR,,,,,,,,,,,,,,,,KLGA 122035Z AUTO 25011KT 10SM CLR 04/M09 A3011 RMK T00401090 MADISHF,
LGA,2026-01-12 15:40,-73.8803,40.7794,9.0,,,,250.0,10.0,,30.11,,10.0,,CLR,,,,,,,,,,,,,,,,KLGA 122040Z AUTO 25010KT 10SM CLR 04/M09 A3011 RMK T00401090 MADISHF,
LGA,2026-01-12 15:45,-73.8803,40.7794,9.0,,,,250.0,11.0,,30.11,,10.0,,CLR,,,,,,,,,,,,,,,,KLGA 122045Z AUTO 25011KT 10SM CLR 04/M09 A3011 RMK T00401090 MADISHF,
LGA,2026-01-12 15:50,-73.8803,40.7794,9.0,,,,230.0,10.0,,30.11,,10.0,,FEW,,,,5500.0,,,,,,,,,,,,KLGA 122050Z AUTO 23010KT 10SM FEW055 04/M09 A3011 RMK T00401090 MADISHF,
LGA,2026-01-12 15:51,-73.8803,40.7794,9.0,40.0,15.0,35.68,240.0,11.0,0.00,30.11,1019.5,10.0,,FEW,FEW,BKN,,5500.0,18000.0,25000.0,,,,,,,,,32.58,KLGA 122051Z 24011KT 10SM FEW055 FEW180 BKN250 04/M09 A3011 RMK AO2 SLP195 T00441094 56006 $,
LGA,2026-01-12 15:55,-73.8803,40.7794,9.0,,,,230.0,13.0,,30.11,,10.0,18.0,CLR,,,,,,,,,,,,,,,,KLGA 122055Z AUTO 23013G18KT 10SM CLR 04/M09 A3011 RMK T00401090 MADISHF,
LGA,2026-01-12 16:00,-73.8803,40.7794,9.0,,,,260.0,12.0,,30.11,,10.0,18.0,CLR,,,,,,,,,,,,,,,,KLGA 122100Z AUTO 26012G18KT 10SM CLR 04/M09 A3011 RMK T00401090 MADISHF,
LGA,2026-01-12 16:05,-73.8803,40.7794,9.0,,,,250.0,10.0,,30.11,,10.0,,CLR,,,,,,,,,,,,,,,,KLGA 122105Z AUTO 25010KT 10SM CLR 04/M09 A3011 RMK T00401090 MADISHF,
LGA,2026-01-12 16:10,-73.8803,40.7794,9.0,,,,240.0,10.0,,30.11,,10.0,,CLR,,,,,,,,,,,,,,,,KLGA 122110Z AUTO 24010KT 10SM CLR 04/M09 A3011 RMK T00401090 MADISHF,
LGA,2026-01-12 16:15,-73.8803,40.7794,9.0,,,,240.0,13.0,,30.11,,10.0,,CLR,,,,,,,,,,,,,,,,KLGA 122115Z AUTO 24013KT 10SM CLR 04/M09 A3011 RMK T00401090 MADISHF,
LGA,2026-01-12 16:20,-73.8803,40.7794,9.0,,,,240.0,12.0,,30.11,,10.0,,CLR,,,,,,,,,,,,,,,,KLGA 122120Z AUTO 24012KT 10SM CLR 04/M09 A3011 RMK T00401090 MADISHF,
LGA,2026-01-12 16:25,-73.8803,40.7794,9.0,,,,250.0,14.0,,30.11,,10.0,,CLR,,,,,,,,,,,,,,,,KLGA 122125Z AUTO 25014KT 10SM CLR 04/M09 A3011 RMK T00401090 MADISHF,
LGA,2026-01-12 16:30,-73.8803,40.7794,9.0,,,,240.0,11.0,,30.1,,10.0,,CLR,,,,,,,,,,,,,,,,KLGA 122130Z AUTO 24011KT 10SM CLR 04/M09 A3010 RMK T00401090 MADISHF,
LGA,2026-01-12 16:35,-73.8803,40.7794,9.0,,,,230.0,8.0,,30.1,,10.0,,CLR,,,,,,,,,,,,,,,,KLGA 122135Z AUTO 23008KT 10SM CLR 04/M09 A3010 RMK T00401090 MADISHF,
LGA,2026-01-12 16:40,-73.8803,40.7794,9.0,,,,250.0,6.0,,30.1,,10.0,,CLR,,,,,,,,,,,,,,,,KLGA 122140Z AUTO 25006KT 10SM CLR 04/M09 A3010 RMK T00401090 MADISHF,
LGA,2026-01-12 16:45,-73.8803,40.7794,9.0,,,,250.0,12.0,,30.1,,10.0,,FEW,,,,5500.0,,,,,,,,,,,,KLGA 122145Z AUTO 25012KT 10SM FEW055 04/M09 A3010 RMK T00401090 MADISHF,
LGA,2026-01-12 16:50,-73.8803,40.7794,9.0,,,,250.0,10.0,,30.1,,10.0,,FEW,,,,5500.0,,,,,,,,,,,,KLGA 122150Z AUTO 25010KT 10SM FEW055 04/M09 A3010 RMK T00401090 MADISHF,
LGA,2026-01-12 16:51,-73.8803,40.7794,9.0,40.0,15.0,35.68,250.0,9.0,0.00,30.1,1019.3,10.0,20.0,FEW,FEW,SCT,,5500.0,18000.0,25000.0,,,,,,,,,33.46,KLGA 122151Z 25009G20KT 10SM FEW055 FEW180 SCT250 04/M09 A3010 RMK AO2 SLP193 T00441094 $,
LGA,2026-01-12 16:55,-73.8803,40.7794,9.0,,,,230.0,8.0,,30.1,,10.0,,CLR,,,,,,,,,,,,,,,,KLGA 122155Z AUTO 23008KT 10SM CLR 04/M09 A3010 RMK T00401090 MADISHF,
LGA,2026-01-12 17:00,-73.8803,40.7794,9.0,,,,230.0,7.0,,30.1,,10.0,,CLR,,,,,,,,,,,,,,,,KLGA 122200Z AUTO 23007KT 10SM CLR 04/M09 A3010 RMK T00401090 MADISHF,
LGA,2026-01-12 17:05,-73.8803,40.7794,9.0,,,,230.0,9.0,,30.1,,10.0,,CLR,,,,,,,,,,,,,,,,KLGA 122205Z AUTO 23009KT 10SM CLR 04/M09 A3010 RMK T00401090 MADISHF,
LGA,2026-01-12 17:10,-73.8803,40.7794,9.0,,,,230.0,11.0,,30.1,,10.0,,CLR,,,,,,,,,,,,,,,,KLGA 122210Z AUTO 23011KT 10SM CLR 04/M09 A3010 RMK T00401090 MADISHF,
LGA,2026-01-12 17:15,-73.8803,40.7794,9.0,,,,220.0,11.0,,30.1,,10.0,18.0,CLR,,,,,,,,,,,,,,,,KLGA 122215Z AUTO 22011G18KT 10SM CLR 04/M09 A3010 RMK T00401090 MADISHF,
LGA,2026-01-12 17:20,-73.8803,40.7794,9.0,,,,230.0,10.0,,30.1,,10.0,,CLR,,,,,,,,,,,,,,,,KLGA 122220Z AUTO 23010KT 10SM CLR 04/M09 A3010 RMK T00401090 MADISHF,
LGA,2026-01-12 17:25,-73.8803,40.7794,9.0,,,,230.0,11.0,,30.11,,10.0,,CLR,,,,,,,,,,,,,,,,KLGA 122225Z AUTO 23011KT 10SM CLR 04/M09 A3011 RMK T00401090 MADISHF,
LGA,2026-01-12 17:35,-73.8803,40.7794,9.0,,,,240.0,12.0,,30.11,,10.0,,CLR,,,,,,,,,,,,,,,,KLGA 122235Z AUTO 24012KT 10SM CLR 04/M09 A3011 RMK T00401090 MADISHF,
LGA,2026-01-12 17:40,-73.8803,40.7794,9.0,,,,230.0,11.0,,30.11,,10.0,18.0,CLR,,,,,,,,,,,,,,,,KLGA 122240Z AUTO 23011G18KT 10SM CLR 04/M09 A3011 RMK T00401090 MADISHF,
LGA,2026-01-12 17:45,-73.8803,40.7794,9.0,,,,240.0,8.0,,30.11,,10.0,,CLR,,,,,,,,,,,,,,,,KLGA 122245Z AUTO 24008KT 10SM CLR 04/M09 A3011 RMK T00401090 MADISHF,
LGA,2026-01-12 17:50,-73.8803,40.7794,9.0,,,,230.0,12.0,,30.11,,10.0,18.0,FEW,,,,5000.0,,,,,,,,,,,,KLGA 122250Z AUTO 23012G18KT 10SM FEW050 04/M09 A3011 RMK T00401090 MADISHF,
LGA,2026-01-12 17:51,-73.8803,40.7794,9.0,39.0,16.0,38.75,240.0,11.0,0.00,30.11,1019.7,10.0,19.0,FEW,FEW,SCT,,5000.0,18000.0,25000.0,,,,,,,,,31.31,KLGA 122251Z 24011G19KT 10SM FEW050 FEW180 SCT250 04/M09 A3011 RMK AO2 SLP197 T00391089 $,
LGA,2026-01-12 17:55,-73.8803,40.7794,9.0,,,,230.0,10.0,,30.11,,10.0,16.0,CLR,,,,,,,,,,,,,,,,KLGA 122255Z AUTO 23010G16KT 10SM CLR 04/M09 A3011 RMK T00401090 MADISHF,
LGA,2026-01-12 18:00,-73.8803,40.7794,9.0,,,,230.0,12.0,,30.12,,10.0,19.0,CLR,,,,,,,,,,,,,,,,KLGA 122300Z AUTO 23012G19KT 10SM CLR 04/M09 A3012 RMK T00401090 MADISHF,
LGA,2026-01-12 18:05,-73.8803,40.7794,9.0,,,,230.0,13.0,,30.12,,10.0,,CLR,,,,,,,,,,,,,,,,KLGA 122305Z AUTO 23013KT 10SM CLR 04/M09 A3012 RMK T00401090 MADISHF,
LGA,2026-01-12 18:10,-73.8803,40.7794,9.0,,,,230.0,11.0,,30.12,,10.0,,CLR,,,,,,,,,,,,,,,,KLGA 122310Z AUTO 23011KT 10SM CLR 04/M09 A3012 RMK T00401090 MADISHF,
LGA,2026-01-12 18:15,-73.8803,40.7794,9.0,,,,230.0,9.0,,30.11,,10.0,,FEW,,,,12000.0,,,,,,,,,,,,KLGA 122315Z AUTO 23009KT 10SM FEW120 04/M09 A3011 RMK T00401090 MADISHF,
LGA,2026-01-12 18:20,-73.8803,40.7794,9.0,,,,240.0,12.0,,30.11,,10.0,17.0,FEW,,,,12000.0,,,,,,,,,,,,KLGA 122320Z AUTO 24012G17KT 10SM FEW120 04/M09 A3011 RMK T00401090 MADISHF,
LGA,2026-01-12 18:25,-73.8803,40.7794,9.0,,,,230.0,10.0,,30.11,,10.0,,FEW,,,,12000.0,,,,,,,,,,,,KLGA 122325Z AUTO 23010KT 10SM FEW120 04/M09 A3011 RMK T00401090 MADISHF,
LGA,2026-01-12 18:30,-73.8803,40.7794,9.0,,,,220.0,10.0,,30.11,,10.0,,FEW,,,,12000.0,,,,,,,,,,,,KLGA 122330Z AUTO 22010KT 10SM FEW120 04/M09 A3011 RMK T00401090 MADISHF,
LGA,2026-01-12 18:35,-73.8803,40.7794,9.0,,,,230.0,9.0,,30.11,,10.0,,FEW,,,,12000.0,,,,,,,,,,,,KLGA 122335Z AUTO 23009KT 10SM FEW120 04/M09 A3011 RMK T00401090 MADISHF,
LGA,2026-01-12 18:40,-73.8803,40.7794,9.0,,,,240.0,7.0,,30.11,,10.0,,FEW,,,,12000.0,,,,,,,,,,,,KLGA 122340Z AUTO 24007KT 10SM FEW120 04/M09 A3011 RMK T00401090 MADISHF,
LGA,2026-01-12 18:45,-73.8803,40.7794,9.0,,,,240.0,7.0,,30.12,,10.0,,FEW,,,,12000.0,,,,,,,,,,,,KLGA 122345Z AUTO 24007KT 10SM FEW120 04/M09 A3012 RMK T00401090 MADISHF,
LGA,2026-01-12 18:50,-73.8803,40.7794,9.0,,,,240.0,9.0,,30.12,,10.0,,FEW,FEW,,,5000.0,12000.0,,,,,,,,,,,KLGA 122350Z AUTO 24009KT 10SM FEW050 FEW120 04/M09 A3012 RMK T00401090 MADISHF,
LGA,2026-01-12 18:51,-73.8803,40.7794,9.0,39.0,16.0,38.75,230.0,9.0,0.00,30.12,1019.8,10.0,,FEW,FEW,FEW,SCT,5000.0,12000.0,18000.0,25000.0,,,,,,,,32.22,KLGA 122351Z 23009KT 10SM FEW050 FEW120 FEW180 SCT250 04/M09 A3012 RMK AO2 SLP198 T00391089 10050 20039 53003 $,
LGA,2026-01-12 18:55,-73.8803,40.7794,9.0,,,,250.0,10.0,,30.12,,10.0,15.0,CLR,,,,,,,,,,,,,,,,KLGA 122355Z AUTO 25010G15KT 10SM CLR 04/M09 A3012 RMK T00401090 MADISHF,
LGA,2026-01-12 19:00,-73.8803,40.7794,9.0,,,,260.0,10.0,,30.12,,10.0,,CLR,,,,,,,,,,,,,,,,KLGA 130000Z AUTO 26010KT 10SM CLR 04/M09 A3012 RMK T00401090 WND 23V30 MADISHF,
LGA,2026-01-12 19:05,-73.8803,40.7794,9.0,,,,260.0,12.0,,30.12,,10.0,,CLR,,,,,,,,,,,,,,,,KLGA 130005Z AUTO 26012KT 10SM CLR 04/M09 A3012 RMK T00401090 MADISHF,
LGA,2026-01-12 19:10,-73.8803,40.7794,9.0,,,,250.0,14.0,,30.12,,10.0,19.0,CLR,,,,,,,,,,,,,,,,KLGA 130010Z AUTO 25014G19KT 10SM CLR 04/M09 A3012 RMK T00401090 MADISHF,
LGA,2026-01-12 19:15,-73.8803,40.7794,9.0,,,,240.0,10.0,,30.12,,10.0,,CLR,,,,,,,,,,,,,,,,KLGA 130015Z AUTO 24010KT 10SM CLR 04/M09 A3012 RMK T00401090 MADISHF,
LGA,2026-01-12 19:20,-73.8803,40.7794,9.0,,,,240.0,11.0,,30.12,,10.0,,CLR,,,,,,,,,,,,,,,,KLGA 130020Z AUTO 24011KT 10SM CLR 04/M09 A3012 RMK T00401090 MADISHF,
LGA,2026-01-12 19:25,-73.8803,40.7794,9.0,,,,240.0,11.0,,30.12,,10.0,,CLR,,,,,,,,,,,,,,,,KLGA 130025Z AUTO 24011KT 10SM CLR 04/M09 A3012 RMK T00401090 MADISHF,
LGA,2026-01-12 19:30,-73.8803,40.7794,9.0,,,,240.0,7.0,,30.12,,10.0,,CLR,,,,,,,,,,,,,,,,KLGA 130030Z AUTO 24007KT 10SM CLR 04/M09 A3012 RMK T00401090 MADISHF,
LGA,2026-01-12 19:35,-73.8803,40.7794,9.0,,,,240.0,11.0,,30.12,,10.0,17.0,CLR,,,,,,,,,,,,,,,,KLGA 130035Z AUTO 24011G17KT 10SM CLR 03/M09 A3012 RMK T00301090 MADISHF,
LGA,2026-01-12 19:40,-73.8803,40.7794,9.0,,,,240.0,9.0,,30.12,,10.0,,CLR,,,,,,,,,,,,,,,,KLGA 130040Z AUTO 24009KT 10SM CLR 04/M09 A3012 RMK T00401090 MADISHF,
LGA,2026-01-12 19:45,-73.8803,40.7794,9.0,,,,230.0,9.0,,30.12,,10.0,,CLR,,,,,,,,,,,,,,,,KLGA 130045Z AUTO 23009KT 10SM CLR 03/M09 A3012 RMK T00301090 MADISHF,
LGA,2026-01-12 19:50,-73.8803,40.7794,9.0,,,,220.0,10.0,,30.12,,10.0,,FEW,,,,5000.0,,,,,,,,,,,,KLGA 130050Z AUTO 22010KT 10SM FEW050 03/M09 A3012 RMK T00301090 MADISHF,
LGA,2026-01-12 19:51,-73.8803,40.7794,9.0,38.0,16.0,40.3,230.0,11.0,0.00,30.12,1020.0,10.0,17.0,FEW,FEW,SCT,,5000.0,18000.0,25000.0,,,,,,,,,30.05,KLGA 130051Z 23011G17KT 10SM FEW050 FEW180 SCT250 03/M09 A3012 RMK AO2 SLP200 T00331089 $,
LGA,2026-01-12 19:55,-73.8803,40.7794,9.0,,,,220.0,12.0,,30.12,,10.0,,CLR,,,,,,,,,,,,,,,,KLGA 130055Z AUTO 22012KT 10SM CLR 03/M09 A3012 RMK T00301090 MADISHF,
LGA,2026-01-12 20:00,-73.8803,40.7794,9.0,,,,230.0,14.0,,30.12,,10.0,,CLR,,,,,,,,,,,,,,,,KLGA 130100Z AUTO 23014KT 10SM CLR 03/M09 A3012 RMK T00301090 MADISHF,
LGA,2026-01-12 20:05,-73.8803,40.7794,9.0,,,,230.0,14.0,,30.12,,10.0,,CLR,,,,,,,,,,,,,,,,KLGA 130105Z AUTO 23014KT 10SM CLR 03/M09 A3012 RMK T00301090 MADISHF,
LGA,2026-01-12 20:10,-73.8803,40.7794,9.0,,,,230.0,11.0,,30.12,,10.0,16.0,CLR,,,,,,,,,,,,,,,,KLGA 130110Z AUTO 23011G16KT 10SM CLR 03/M09 A3012 RMK T00301090 MADISHF,
LGA,2026-01-12 20:15,-73.8803,40.7794,9.0,,,,230.0,12.0,,30.12,,10.0,,CLR,,,,,,,,,,,,,,,,KLGA 130115Z AUTO 23012KT 10SM CLR 03/M08 A3012 RMK T00301080 MADISHF,
LGA,2026-01-12 20:20,-73.8803,40.7794,9.0,,,,220.0,9.0,,30.12,,10.0,,CLR,,,,,,,,,,,,,,,,KLGA 130120Z AUTO 22009KT 10SM CLR 03/M08 A3012 RMK T00301080 MADISHF,
LGA,2026-01-12 20:25,-73.8803,40.7794,9.0,,,,230.0,9.0,,30.12,,10.0,,CLR,,,,,,,,,,,,,,,,KLGA 130125Z AUTO 23009KT 10SM CLR 03/M08 A3012 RMK T00301080 MADISHF,
LGA,2026-01-12 20:30,-73.8803,40.7794,9.0,,,,240.0,7.0,,30.12,,10.0,,CLR,,,,,,,,,,,,,,,,KLGA 130130Z AUTO 24007KT 10SM CLR 03/M08 A3012 RMK T00301080 MADISHF,
LGA,2026-01-12 20:35,-73.8803,40.7794,9.0,,,,240.0,7.0,,30.12,,10.0,,CLR,,,,,,,,,,,,,,,,KLGA 130135Z AUTO 24007KT 10SM CLR 03/M08 A3012 RMK T00301080 MADISHF,
LGA,2026-01-12 20:40,-73.8803,40.7794,9.0,,,,240.0,10.0,,30.12,,10.0,,CLR,,,,,,,,,,,,,,,,KLGA 130140Z AUTO 24010KT 10SM CLR 03/M08 A3012 RMK T00301080 MADISHF,
LGA,2026-01-12 20:45,-73.8803,40.7794,9.0,,,,240.0,7.0,,30.12,,10.0,,CLR,,,,,,,,,,,,,,,,KLGA 130145Z AUTO 24007KT 10SM CLR 03/M08 A3012 RMK T00301080 MADISHF,
LGA,2026-01-12 20:50,-73.8803,40.7794,9.0,,,,260.0,13.0,,30.12,,10.0,,FEW,,,,5000.0,,,,,,,,,,,,KLGA 130150Z AUTO 26013KT 10SM FEW050 03/M08 A3012 RMK T00301080 MADISHF,
LGA,2026-01-12 20:51,-73.8803,40.7794,9.0,38.0,17.0,42.08,250.0,11.0,0.00,30.12,1019.9,10.0,20.0,FEW,FEW,SCT,,5000.0,18000.0,25000.0,,,,,,,,,30.05,KLGA 130151Z 25011G20KT 10SM FEW050 FEW180 SCT250 03/M08 A3012 RMK AO2 SLP199 T00331083 $,
LGA,2026-01-12 20:55,-73.8803,40.7794,9.0,,,,260.0,12.0,,30.12,,10.0,,CLR,,,,,,,,,,,,,,,,KLGA 130155Z AUTO 26012KT 10SM CLR 04/M09 A3012 RMK T00401090 MADISHF,
LGA,2026-01-12 21:00,-73.8803,40.7794,9.0,,,,260.0,11.0,,30.12,,10.0,17.0,CLR,,,,,,,,,,,,,,,,KLGA 130200Z AUTO 26011G17KT 10SM CLR 04/M09 A3012 RMK T00401090 MADISHF,
LGA,2026-01-12 21:05,-73.8803,40.7794,9.0,,,,250.0,10.0,,30.12,,10.0,17.0,CLR,,,,,,,,,,,,,,,,KLGA 130205Z AUTO 25010G17KT 10SM CLR 04/M09 A3012 RMK T00401090 MADISHF,
LGA,2026-01-12 21:10,-73.8803,40.7794,9.0,,,,250.0,12.0,,30.12,,10.0,,CLR,,,,,,,,,,,,,,,,KLGA 130210Z AUTO 25012KT 10SM CLR 04/M09 A3012 RMK T00401090 MADISHF,
LGA,2026-01-12 21:15,-73.8803,40.7794,9.0,,,,260.0,13.0,,30.12,,10.0,,CLR,,,,,,,,,,,,,,,,KLGA 130215Z AUTO 26013KT 10SM CLR 04/M09 A3012 RMK T00401090 MADISHF,
LGA,2026-01-12 21:20,-73.8803,40.7794,9.0,,,,250.0,10.0,,30.12,,10.0,15.0,CLR,,,,,,,,,,,,,,,,KLGA 130220Z AUTO 25010G15KT 10SM CLR 04/M09 A3012 RMK T00401090 MADISHF,
LGA,2026-01-12 21:25,-73.8803,40.7794,9.0,,,,260.0,12.0,,30.12,,10.0,,CLR,,,,,,,,,,,,,,,,KLGA 130225Z AUTO 26012KT 10SM CLR 04/M09 A3012 RMK T00401090 MADISHF,
LGA,2026-01-12 21:30,-73.8803,40.7794,9.0,,,,250.0,10.0,,30.12,,10.0,,CLR,,,,,,,,,,,,,,,,KLGA 130230Z AUTO 25010KT 10SM CLR 04/M09 A3012 RMK T00401090 MADISHF,
LGA,2026-01-12 21:35,-73.8803,40.7794,9.0,,,,250.0,11.0,,30.12,,10.0,,FEW,,,,5000.0,,,,,,,,,,,,KLGA 130235Z AUTO 25011KT 10SM FEW050 04/M09 A3012 RMK T00401090 MADISHF,
LGA,2026-01-12 21:40,-73.8803,40.7794,9.0,,,,250.0,11.0,,30.12,,10.0,,FEW,,,,5000.0,,,,,,,,,,,,KLGA 130240Z AUTO 25011KT 10SM FEW050 04/M09 A3012 RMK T00401090 MADISHF,
LGA,2026-01-12 21:45,-73.8803,40.7794,9.0,,,,250.0,10.0,,30.12,,10.0,,FEW,,,,5000.0,,,,,,,,,,,,KLGA 130245Z AUTO 25010KT 10SM FEW050 04/M09 A3012 RMK T00401090 MADISHF,
LGA,2026-01-12 21:50,-73.8803,40.7794,9.0,,,,250.0,11.0,,30.12,,10.0,,FEW,,,,5000.0,,,,,,,,,,,,KLGA 130250Z AUTO 25011KT 10SM FEW050 04/M09 A3012 RMK T00401090 MADISHF,
LGA,2026-01-12 21:51,-73.8803,40.7794,9.0,39.0,16.0,38.75,250.0,11.0,0.00,30.12,1020.0,10.0,,FEW,FEW,,,5000.0,25000.0,,,,,,,,,,31.31,KLGA 130251Z 25011KT 10SM FEW050 FEW250 04/M09 A3012 RMK AO2 SLP200 T00391089 51002 $,
LGA,2026-01-12 21:55,-73.8803,40.7794,9.0,,,,250.0,8.0,,30.12,,10.0,,CLR,,,,,,,,,,,,,,,,KLGA 130255Z AUTO 25008KT 10SM CLR 04/M09 A3012 RMK T00401090 MADISHF,
LGA,2026-01-12 22:00,-73.8803,40.7794,9.0,,,,260.0,8.0,,30.12,,10.0,,CLR,,,,,,,,,,,,,,,,KLGA 130300Z AUTO 26008KT 10SM CLR 04/M09 A3012 RMK T00401090 MADISHF,
LGA,2026-01-12 22:05,-73.8803,40.7794,9.0,,,,250.0,8.0,,30.12,,10.0,,CLR,,,,,,,,,,,,,,,,KLGA 130305Z AUTO 25008KT 10SM CLR 04/M09 A3012 RMK T00401090 MADISHF,
LGA,2026-01-12 22:10,-73.8803,40.7794,9.0,,,,250.0,10.0,,30.12,,10.0,,CLR,,,,,,,,,,,,,,,,KLGA 130310Z AUTO 25010KT 10SM CLR 04/M09 A3012 RMK T00401090 MADISHF,
LGA,2026-01-12 22:15,-73.8803,40.7794,9.0,,,,250.0,7.0,,30.12,,10.0,,CLR,,,,,,,,,,,,,,,,KLGA 130315Z AUTO 25007KT 10SM CLR 04/M09 A3012 RMK T00401090 MADISHF,
LGA,2026-01-12 22:20,-73.8803,40.7794,9.0,,,,260.0,6.0,,30.12,,10.0,,CLR,,,,,,,,,,,,,,,,KLGA 130320Z AUTO 26006KT 10SM CLR 04/M09 A3012 RMK T00401090 MADISHF,
LGA,2026-01-12 22:25,-73.8803,40.7794,9.0,,,,250.0,8.0,,30.12,,10.0,,CLR,,,,,,,,,,,,,,,,KLGA 130325Z AUTO 25008KT 10SM CLR 04/M09 A3012 RMK T00401090 MADISHF,
LGA,2026-01-12 22:30,-73.8803,40.7794,9.0,,,,260.0,10.0,,30.12,,10.0,,CLR,,,,,,,,,,,,,,,,KLGA 130330Z AUTO 26010KT 10SM CLR 04/M09 A3012 RMK T00401090 MADISHF,
LGA,2026-01-12 22:35,-73.8803,40.7794,9.0,,,,250.0,11.0,,30.12,,10.0,,CLR,,,,,,,,,,,,,,,,KLGA 130335Z AUTO 25011KT 10SM CLR 04/M09 A3012 RMK T00401090 MADISHF,
LGA,2026-01-12 22:40,-73.8803,40.7794,9.0,,,,260.0,12.0,,30.12,,10.0,19.0,CLR,,,,,,,,,,,,,,,,KLGA 130340Z AUTO 26012G19KT 10SM CLR 04/M09 A3012 RMK T00401090 MADISHF,
LGA,2026-01-12 22:45,-73.8803,40.7794,9.0,,,,250.0,13.0,,30.13,,10.0,19.0,,,,,,,,,,,,,,,,,KLGA 130345Z AUTO 25013G19KT 10SM 04/M09 A3013 RMK T00401090 MADISHF,
LGA,2026-01-12 22:50,-73.8803,40.7794,9.0,,,,250.0,13.0,,30.12,,10.0,,,,,,,,,,,,,,,,,,KLGA 130350Z AUTO 25013KT 10SM 04/M09 A3012 RMK T00401090 MADISHF,
LGA,2026-01-12 22:51,-73.8803,40.7794,9.0,39.0,15.0,37.1,250.0,13.0,0.00,30.12,1019.9,10.0,,FEW,,,,25000.0,,,,,,,,,,,30.54,KLGA 130351Z 25013KT 10SM FEW250 04/M09 A3012 RMK AO2 SLP199 T00391094 $,
LGA,2026-01-12 22:55,-73.8803,40.7794,9.0,,,,260.0,13.0,,30.12,,10.0,18.0,CLR,,,,,,,,,,,,,,,,KLGA 130355Z AUTO 26013G18KT 10SM CLR 04/M09 A3012 RMK T00401090 MADISHF,
LGA,2026-01-12 23:00,-73.8803,40.7794,9.0,,,,260.0,13.0,,30.12,,10.0,,CLR,,,,,,,,,,,,,,,,KLGA 130400Z AUTO 26013KT 10SM CLR 04/M09 A3012 RMK T00401090 MADISHF,
LGA,2026-01-12 23:05,-73.8803,40.7794,9.0,,,,260.0,13.0,,30.12,,10.0,18.0,CLR,,,,,,,,,,,,,,,,KLGA 130405Z AUTO 26013G18KT 10SM CLR 04/M09 A3012 RMK T00401090 MADISHF,
LGA,2026-01-12 23:10,-73.8803,40.7794,9.0,,,,260.0,15.0,,30.13,,10.0,,CLR,,,,,,,,,,,,,,,,KLGA 130410Z AUTO 26015KT 10SM CLR 04/M09 A3013 RMK T00401090 MADISHF,
LGA,2026-01-12 23:15,-73.8803,40.7794,9.0,,,,250.0,14.0,,30.13,,10.0,19.0,CLR,,,,,,,,,,,,,,,,KLGA 130415Z AUTO 25014G19KT 10SM CLR 04/M09 A3013 RMK T00401090 MADISHF,
LGA,2026-01-12 23:20,-73.8803,40.7794,9.0,,,,260.0,13.0,,30.12,,10.0,19.0,CLR,,,,,,,,,,,,,,,,KLGA 130420Z AUTO 26013G19KT 10SM CLR 04/M09 A3012 RMK T00401090 MADISHF,
LGA,2026-01-12 23:25,-73.8803,40.7794,9.0,,,,250.0,15.0,,30.12,,10.0,,CLR,,,,,,,,,,,,,,,,KLGA 130425Z AUTO 25015KT 10SM CLR 04/M09 A3012 RMK T00401090 MADISHF,
LGA,2026-01-12 23:30,-73.8803,40.7794,9.0,,,,260.0,12.0,,30.12,,10.0,,CLR,,,,,,,,,,,,,,,,KLGA 130430Z AUTO 26012KT 10SM CLR 04/M09 A3012 RMK T00401090 MADISHF,
LGA,2026-01-12 23:35,-73.8803,40.7794,9.0,,,,250.0,10.0,,30.12,,10.0,,CLR,,,,,,,,,,,,,,,,KLGA 130435Z AUTO 25010KT 10SM CLR 04/M09 A3012 RMK T00401090 MADISHF,
LGA,2026-01-12 23:40,-73.8803,40.7794,9.0,,,,260.0,11.0,,30.12,,10.0,16.0,CLR,,,,,,,,,,,,,,,,KLGA 130440Z AUTO 26011G16KT 10SM CLR 04/M09 A3012 RMK T00401090 MADISHF,
LGA,2026-01-12 23:45,-73.8803,40.7794,9.0,,,,260.0,11.0,,30.12,,10.0,,,,,,,,,,,,,,,,,,KLGA 130445Z AUTO 26011KT 10SM 04/M09 A3012 RMK T00401090 MADISHF,
LGA,2026-01-12 23:50,-73.8803,40.7794,9.0,,,,250.0,15.0,,30.12,,10.0,,,,,,,,,,,,,,,,,,KLGA 130450Z AUTO 25015KT 10SM 03/M09 A3012 RMK T00301090 MADISHF,
LGA,2026-01-12 23:51,-73.8803,40.7794,9.0,38.0,16.0,40.3,260.0,13.0,0.00,30.12,1019.8,10.0,22.0,FEW,,,,25000.0,,,,,,,,,,,29.26,KLGA 130451Z 26013G22KT 10SM FEW250 03/M09 A3012 RMK AO2 SLP198 T00331089 400500000 $,
LGA,2026-01-12 23:55,-73.8803,40.7794,9.0,,,,260.0,13.0,,30.12,,10.0,,,,,,,,,,,,,,,,,,KLGA 130455Z AUTO 26013KT 10SM 03/M09 A3012 RMK T00301090 MADISHF,
LGA,2026-01-13 00:00,-73.8803,40.7794,9.0,,,,250.0,16.0,,30.12,,10.0,,,,,,,,,,,,,,,,,,KLGA 130500Z AUTO 25016KT 10SM 03/M09 A3012 RMK T00301090 MADISHF,
LGA,2026-01-13 00:05,-73.8803,40.7794,9.0,,,,250.0,14.0,,30.11,,10.0,,,,,,,,,,,,,,,,,,KLGA 130505Z AUTO 25014KT 10SM 03/M09 A3011 RMK T00301090 MADISHF,
LGA,2026-01-13 00:10,-73.8803,40.7794,9.0,,,,260.0,13.0,,30.11,,10.0,,,,,,,,,,,,,,,,,,KLGA 130510Z AUTO 26013KT 10SM 03/M09 A3011 RMK T00301090 MADISHF,
LGA,2026-01-13 00:15,-73.8803,40.7794,9.0,,,,250.0,11.0,,30.11,,10.0,,,,,,,,,,,,,,,,,,KLGA 130515Z AUTO 25011KT 10SM 03/M09 A3011 RMK T00301090 MADISHF,
LGA,2026-01-13 00:20,-73.8803,40.7794,9.0,,,,250.0,17.0,,30.11,,10.0,22.0,,,,,,,,,,,,,,,,,KLGA 130520Z AUTO 25017G22KT 10SM 03/M09 A3011 RMK T00301090 MADISHF,
LGA,2026-01-13 00:25,-73.8803,40.7794,9.0,,,,260.0,12.0,,30.11,,10.0,,,,,,,,,,,,,,,,,,KLGA 130525Z AUTO 26012KT 10SM 03/M09 A3011 RMK T00301090 MADISHF,
LGA,2026-01-13 00:30,-73.8803,40.7794,9.0,,,,260.0,13.0,,30.11,,10.0,,,,,,,,,,,,,,,,,,KLGA 130530Z AUTO 26013KT 10SM 03/M09 A3011 RMK T00301090 MADISHF,
LGA,2026-01-13 00:35,-73.8803,40.7794,9.0,,,,260.0,14.0,,30.11,,10.0,19.0,,,,,,,,,,,,,,,,,KLGA 130535Z AUTO 26014G19KT 10SM 03/M09 A3011 RMK T00301090 MADISHF,
LGA,2026-01-13 00:40,-73.8803,40.7794,9.0,,,,250.0,14.0,,30.11,,10.0,,,,,,,,,,,,,,,,,,KLGA 130540Z AUTO 25014KT 10SM 03/M09 A3011 RMK T00301090 MADISHF,
LGA,2026-01-13 00:45,-73.8803,40.7794,9.0,,,,260.0,12.0,,30.11,,10.0,17.0,,,,,,,,,,,,,,,,,KLGA 130545Z AUTO 26012G17KT 10SM 03/M09 A3011 RMK T00301090 MADISHF,
LGA,2026-01-13 00:50,-73.8803,40.7794,9.0,,,,250.0,13.0,,30.11,,10.0,,,,,,,,,,,,,,,,,,KLGA 130550Z AUTO 25013KT 10SM 03/M09 A3011 RMK T00301090 MADISHF,
LGA,2026-01-13 00:51,-73.8803,40.7794,9.0,38.0,16.0,40.3,250.0,13.0,0.00,30.11,1019.4,10.0,22.0,FEW,,,,25000.0,,,,,,,,,,,29.26,KLGA 130551Z 25013G22KT 10SM FEW250 03/M09 A3011 RMK AO2 SLP194 T00331089 10039 20028 58006 $,
LGA,2026-01-13 00:55,-73.8803,40.7794,9.0,,,,260.0,13.0,,30.11,,10.0,,CLR,,,,,,,,,,,,,,,,KLGA 130555Z AUTO 26013KT 10SM CLR 03/M09 A3011 RMK T00301090 MADISHF,
LGA,2026-01-13 01:00,-73.8803,40.7794,9.0,,,,260.0,15.0,,30.11,,10.0,,CLR,,,,,,,,,,,,,,,,KLGA 130600Z AUTO 26015KT 10SM CLR 03/M09 A3011 RMK T00301090 MADISHF,
LGA,2026-01-13 01:05,-73.8803,40.7794,9.0,,,,260.0,12.0,,30.1,,10.0,,CLR,,,,,,,,,,,,,,,,KLGA 130605Z AUTO 26012KT 10SM CLR 03/M09 A3010 RMK T00301090 MADISHF,
LGA,2026-01-13 01:10,-73.8803,40.7794,9.0,,,,260.0,12.0,,30.1,,10.0,,CLR,,,,,,,,,,,,,,,,KLGA 130610Z AUTO 26012KT 10SM CLR 03/M09 A3010 RMK T00301090 MADISHF,
LGA,2026-01-13 01:15,-73.8803,40.7794,9.0,,,,260.0,14.0,,30.1,,10.0,,CLR,,,,,,,,,,,,,,,,KLGA 130615Z AUTO 26014KT 10SM CLR 03/M09 A3010 RMK T00301090 MADISHF,
LGA,2026-01-13 01:20,-73.8803,40.7794,9.0,,,,260.0,11.0,,30.1,,10.0,,CLR,,,,,,,,,,,,,,,,KLGA 130620Z AUTO 26011KT 10SM CLR 03/M09 A3010 RMK T00301090 MADISHF,
LGA,2026-01-13 01:25,-73.8803,40.7794,9.0,,,,250.0,12.0,,30.1,,10.0,,CLR,,,,,,,,,,,,,,,,KLGA 130625Z AUTO 25012KT 10SM CLR 03/M08 A3010 RMK T00301080 MADISHF,
LGA,2026-01-13 01:30,-73.8803,40.7794,9.0,,,,250.0,12.0,,30.1,,10.0,,CLR,,,,,,,,,,,,,,,,KLGA 130630Z AUTO 25012KT 10SM CLR 03/M09 A3010 RMK T00301090 MADISHF,
LGA,2026-01-13 01:35,-73.8803,40.7794,9.0,,,,250.0,10.0,,30.1,,10.0,,CLR,,,,,,,,,,,,,,,,KLGA 130635Z AUTO 25010KT 10SM CLR 03/M09 A3010 RMK T00301090 MADISHF,
LGA,2026-01-13 01:40,-73.8803,40.7794,9.0,,,,250.0,10.0,,30.1,,10.0,,CLR,,,,,,,,,,,,,,,,KLGA 130640Z AUTO 25010KT 10SM CLR 03/M09 A3010 RMK T00301090 MADISHF,
LGA,2026-01-13 01:45,-73.8803,40.7794,9.0,,,,240.0,9.0,,30.1,,10.0,,CLR,,,,,,,,,,,,,,,,KLGA 130645Z AUTO 24009KT 10SM CLR 03/M09 A3010 RMK T00301090 MADISHF,
LGA,2026-01-13 01:50,-73.8803,40.7794,9.0,,,,250.0,8.0,,30.09,,10.0,,CLR,,,,,,,,,,,,,,,,KLGA 130650Z AUTO 25008KT 10SM CLR 03/M08 A3009 RMK T00301080 MADISHF,
LGA,2026-01-13 01:51,-73.8803,40.7794,9.0,38.0,17.0,42.08,240.0,6.0,0.00,30.09,1018.9,10.0,,FEW,,,,25000.0,,,,,,,,,,,32.76,KLGA 130651Z 24006KT 10SM FEW250 03/M08 A3009 RMK AO2 SLP189 T00331083 $,
LGA,2026-01-13 01:55,-73.8803,40.7794,9.0,,,,240.0,9.0,,30.09,,10.0,17.0,,,,,,,,,,,,,,,,,KLGA 130655Z AUTO 24009G17KT 10SM 03/M08 A3009 RMK T00301080 MADISHF,
LGA,2026-01-13 02:00,-73.8803,40.7794,9.0,,,,250.0,7.0,,30.09,,10.0,,,,,,,,,,,,,,,,,,KLGA 130700Z AUTO 25007KT 10SM 03/M09 A3009 RMK T00301090 MADISHF,
LGA,2026-01-13 02:05,-73.8803,40.7794,9.0,,,,250.0,8.0,,30.09,,10.0,,,,,,,,,,,,,,,,,,KLGA 130705Z AUTO 25008KT 10SM 03/M09 A3009 RMK T00301090 MADISHF,
LGA,2026-01-13 02:10,-73.8803,40.7794,9.0,,,,230.0,6.0,,30.09,,10.0,,,,,,,,,,,,,,,,,,KLGA 130710Z AUTO 23006KT 10SM 03/M09 A3009 RMK T00301090 MADISHF,
LGA,2026-01-13 02:15,-73.8803,40.7794,9.0,,,,230.0,6.0,,30.09,,10.0,,,,,,,,,,,,,,,,,,KLGA 130715Z AUTO 23006KT 10SM 03/M08 A3009 RMK T00301080 MADISHF,
LGA,2026-01-13 02:20,-73.8803,40.7794,9.0,,,,230.0,7.0,,30.09,,10.0,,,,,,,,,,,,,,,,,,KLGA 130720Z AUTO 23007KT 10SM 03/M08 A3009 RMK T00301080 MADISHF,
LGA,2026-01-13 02:25,-73.8803,40.7794,9.0,,,,220.0,8.0,,30.09,,10.0,,,,,,,,,,,,,,,,,,KLGA 130725Z AUTO 22008KT 10SM 03/M08 A3009 RMK T00301080 MADISHF,
LGA,2026-01-13 02:30,-73.8803,40.7794,9.0,,,,210.0,8.0,,30.09,,10.0,,,,,,,,,,,,,,,,,,KLGA 130730Z AUTO 21008KT 10SM 03/M09 A3009 RMK T00301090 MADISHF,
LGA,2026-01-13 02:35,-73.8803,40.7794,9.0,,,,210.0,10.0,,30.09,,10.0,,,,,,,,,,,,,,,,,,KLGA 130735Z AUTO 21010KT 10SM 03/M09 A3009 RMK T00301090 MADISHF,
LGA,2026-01-13 02:40,-73.8803,40.7794,9.0,,,,210.0,7.0,,30.1,,10.0,,,,,,,,,,,,,,,,,,KLGA 130740Z AUTO 21007KT 10SM 03/M09 A3010 RMK T00301090 MADISHF,
LGA,2026-01-13 02:45,-73.8803,40.7794,9.0,,,,220.0,7.0,,30.1,,10.0,,,,,,,,,,,,,,,,,,KLGA 130745Z AUTO 22007KT 10SM 03/M09 A3010 RMK T00301090 MADISHF,
LGA,2026-01-13 02:50,-73.8803,40.7794,9.0,,,,230.0,10.0,,30.1,,10.0,,,,,,,,,,,,,,,,,,KLGA 130750Z AUTO 23010KT 10SM 03/M09 A3010 RMK T00301090 MADISHF,
LGA,2026-01-13 02:51,-73.8803,40.7794,9.0,37.0,16.0,41.91,230.0,10.0,0.00,30.1,1019.3,10.0,,BKN,BKN,,,15000.0,25000.0,,,,,,,,,,29.24,KLGA 130751Z 23010KT 10SM BKN150 BKN250 03/M09 A3010 RMK AO2 SLP193 T00281089 $,
LGA,2026-01-13 02:55,-73.8803,40.7794,9.0,,,,230.0,12.0,,30.1,,10.0,,CLR,,,,,,,,,,,,,,,,KLGA 130755Z AUTO 23012KT 10SM CLR 03/M09 A3010 RMK T00301090 MADISHF,
LGA,2026-01-13 03:00,-73.8803,40.7794,9.0,,,,240.0,10.0,,30.1,,10.0,,CLR,,,,,,,,,,,,,,,,KLGA 130800Z AUTO 24010KT 10SM CLR 03/M09 A3010 RMK T00301090 MADISHF,
LGA,2026-01-13 03:05,-73.8803,40.7794,9.0,,,,240.0,9.0,,30.1,,10.0,,CLR,,,,,,,,,,,,,,,,KLGA 130805Z AUTO 24009KT 10SM CLR 03/M09 A3010 RMK T00301090 MADISHF,
LGA,2026-01-13 03:10,-73.8803,40.7794,9.0,,,,240.0,8.0,,30.1,,10.0,,CLR,,,,,,,,,,,,,,,,KLGA 130810Z AUTO 24008KT 10SM CLR 03/M09 A3010 RMK T00301090 MADISHF,
LGA,2026-01-13 03:15,-73.8803,40.7794,9.0,,,,240.0,9.0,,30.1,,10.0,15.0,CLR,,,,,,,,,,,,,,,,KLGA 130815Z AUTO 24009G15KT 10SM CLR 03/M09 A3010 RMK T00301090 MADISHF,
LGA,2026-01-13 03:20,-73.8803,40.7794,9.0,,,,240.0,9.0,,30.09,,10.0,,CLR,,,,,,,,,,,,,,,,KLGA 130820Z AUTO 24009KT 10SM CLR 03/M09 A3009 RMK T00301090 MADISHF,
LGA,2026-01-13 03:25,-73.8803,40.7794,9.0,,,,240.0,8.0,,30.09,,10.0,,CLR,,,,,,,,,,,,,,,,KLGA 130825Z AUTO 24008KT 10SM CLR 03/M09 A3009 RMK T00301090 MADISHF,
LGA,2026-01-13 03:30,-73.8803,40.7794,9.0,,,,230.0,8.0,,30.09,,10.0,,CLR,,,,,,,,,,,,,,,,KLGA 130830Z AUTO 23008KT 10SM CLR 03/M09 A3009 RMK T00301090 MADISHF,
LGA,2026-01-13 03:35,-73.8803,40.7794,9.0,,,,230.0,8.0,,30.08,,10.0,,CLR,,,,,,,,,,,,,,,,KLGA 130835Z AUTO 23008KT 10SM CLR 03/M09 A3008 RMK T00301090 MADISHF,
LGA,2026-01-13 03:45,-73.8803,40.7794,9.0,,,,230.0,8.0,,30.08,,10.0,,CLR,,,,,,,,,,,,,,,,KLGA 130845Z AUTO 23008KT 10SM CLR 03/M09 A3008 RMK T00301090 MADISHF,
LGA,2026-01-13 03:50,-73.8803,40.7794,9.0,,,,240.0,8.0,,30.08,,10.0,,CLR,,,,,,,,,,,,,,,,KLGA 130850Z AUTO 24008KT 10SM CLR 03/M09 A3008 RMK T00301090 MADISHF,
LGA,2026-01-13 03:51,-73.8803,40.7794,9.0,37.0,16.0,41.91,240.0,8.0,0.00,30.08,1018.7,10.0,,SCT,BKN,,,15000.0,25000.0,,,,,,,,,,30.27,KLGA 130851Z COR 24008KT 10SM SCT150 BKN250 03/M09 A3008 RMK AO2 SLP187 T00281089 58007 $,
LGA,2026-01-13 03:55,-73.8803,40.7794,9.0,,,,230.0,7.0,,30.08,,10.0,,CLR,,,,,,,,,,,,,,,,KLGA 130855Z AUTO 23007KT 10SM CLR 03/M09 A3008 RMK T00301090 MADISHF,
LGA,2026-01-13 04:00,-73.8803,40.7794,9.0,,,,230.0,6.0,,30.08,,10.0,,CLR,,,,,,,,,,,,,,,,KLGA 130900Z AUTO 23006KT 10SM CLR 03/M09 A3008 RMK T00301090 MADISHF,
LGA,2026-01-13 04:05,-73.8803,40.7794,9.0,,,,230.0,7.0,,30.09,,10.0,,CLR,,,,,,,,,,,,,,,,KLGA 130905Z AUTO 23007KT 10SM CLR 03/M09 A3009 RMK T00301090 MADISHF,
LGA,2026-01-13 04:10,-73.8803,40.7794,9.0,,,,240.0,7.0,,30.09,,10.0,,CLR,,,,,,,,,,,,,,,,KLGA 130910Z AUTO 24007KT 10SM CLR 03/M09 A3009 RMK T00301090 MADISHF,
LGA,2026-01-13 04:15,-73.8803,40.7794,9.0,,,,250.0,10.0,,30.09,,10.0,,CLR,,,,,,,,,,,,,,,,KLGA 130915Z AUTO 25010KT 10SM CLR 03/M09 A3009 RMK T00301090 MADISHF,
LGA,2026-01-13 04:20,-73.8803,40.7794,9.0,,,,250.0,10.0,,30.09,,10.0,,CLR,,,,,,,,,,,,,,,,KLGA 130920Z AUTO 25010KT 10SM CLR 03/M09 A3009 RMK T00301090 MADISHF,
LGA,2026-01-13 04:25,-73.8803,40.7794,9.0,,,,260.0,10.0,,30.09,,10.0,,CLR,,,,,,,,,,,,,,,,KLGA 130925Z AUTO 26010KT 10SM CLR 03/M09 A3009 RMK T00301090 MADISHF,
LGA,2026-01-13 04:30,-73.8803,40.7794,9.0,,,,260.0,12.0,,30.09,,10.0,,CLR,,,,,,,,,,,,,,,,KLGA 130930Z AUTO 26012KT 10SM CLR 03/M09 A3009 RMK T00301090 MADISHF,
LGA,2026-01-13 04:35,-73.8803,40.7794,9.0,,,,250.0,11.0,,30.09,,10.0,,CLR,,,,,,,,,,,,,,,,KLGA 130935Z AUTO 25011KT 10SM CLR 03/M09 A3009 RMK T00301090 MADISHF,
LGA,2026-01-13 04:40,-73.8803,40.7794,9.0,,,,250.0,13.0,,30.09,,10.0,,CLR,,,,,,,,,,,,,,,,KLGA 130940Z AUTO 25013KT 10SM CLR 03/M09 A3009 RMK T00301090 MADISHF,
LGA,2026-01-13 04:45,-73.8803,40.7794,9.0,,,,250.0,10.0,,30.09,,10.0,,,,,,,,,,,,,,,,,,KLGA 130945Z AUTO 25010KT 10SM 03/M09 A3009 RMK T00301090 MADISHF,
LGA,2026-01-13 04:50,-73.8803,40.7794,9.0,,,,250.0,11.0,,30.09,,10.0,,,,,,,,,,,,,,,,,,KLGA 130950Z AUTO 25011KT 10SM 03/M09 A3009 RMK T00301090 MADISHF,
LGA,2026-01-13 04:51,-73.8803,40.7794,9.0,37.0,16.0,41.91,250.0,10.0,0.00,30.09,1019.0,10.0,,FEW,,,,25000.0,,,,,,,,,,,29.24,KLGA 130951Z 25010KT 10SM FEW250 03/M09 A3009 RMK AO2 SLP190 T00281089 $,
LGA,2026-01-13 04:55,-73.8803,40.7794,9.0,,,,250.0,8.0,,30.09,,10.0,,CLR,,,,,,,,,,,,,,,,KLGA 130955Z AUTO 25008KT 10SM CLR 03/M09 A3009 RMK T00301090 MADISHF,
LGA,2026-01-13 05:00,-73.8803,40.7794,9.0,,,,260.0,10.0,,30.09,,10.0,,CLR,,,,,,,,,,,,,,,,KLGA 131000Z AUTO 26010KT 10SM CLR 03/M09 A3009 RMK T00301090 MADISHF,
LGA,2026-01-13 05:05,-73.8803,40.7794,9.0,,,,260.0,12.0,,30.09,,10.0,,,,,,,,,,,,,,,,,,KLGA 131005Z AUTO 26012KT 10SM 03/M09 A3009 RMK T00301090 MADISHF,
LGA,2026-01-13 05:10,-73.8803,40.7794,9.0,,,,260.0,13.0,,30.09,,10.0,,,,,,,,,,,,,,,,,,KLGA 131010Z AUTO 26013KT 10SM 03/M09 A3009 RMK T00301090 MADISHF,
LGA,2026-01-13 05:15,-73.8803,40.7794,9.0,,,,260.0,14.0,,30.09,,10.0,,,,,,,,,,,,,,,,,,KLGA 131015Z AUTO 26014KT 10SM 03/M09 A3009 RMK T00301090 MADISHF,
LGA,2026-01-13 05:20,-73.8803,40.7794,9.0,,,,250.0,11.0,,30.09,,10.0,,,,,,,,,,,,,,,,,,KLGA 131020Z AUTO 25011KT 10SM 03/M09 A3009 RMK T00301090 MADISHF,
LGA,2026-01-13 05:25,-73.8803,40.7794,9.0,,,,250.0,12.0,,30.09,,10.0,,,,,,,,,,,,,,,,,,KLGA 131025Z AUTO 25012KT 10SM 03/M09 A3009 RMK T00301090 MADISHF,
LGA,2026-01-13 05:30,-73.8803,40.7794,9.0,,,,260.0,13.0,,30.09,,10.0,,,,,,,,,,,,,,,,,,KLGA 131030Z AUTO 26013KT 10SM 03/M09 A3009 RMK T00301090 MADISHF,
LGA,2026-01-13 05:35,-73.8803,40.7794,9.0,,,,250.0,12.0,,30.09,,10.0,,,,,,,,,,,,,,,,,,KLGA 131035Z AUTO 25012KT 10SM 03/M09 A3009 RMK T00301090 MADISHF,
LGA,2026-01-13 05:40,-73.8803,40.7794,9.0,,,,260.0,14.0,,30.09,,10.0,19.0,,,,,,,,,,,,,,,,,KLGA 131040Z AUTO 26014G19KT 10SM 03/M09 A3009 RMK T00301090 MADISHF,
LGA,2026-01-13 05:45,-73.8803,40.7794,9.0,,,,260.0,14.0,,30.09,,10.0,,,,,,,,,,,,,,,,,,KLGA 131045Z AUTO 26014KT 10SM 03/M09 A3009 RMK T00301090 MADISHF,
LGA,2026-01-13 05:50,-73.8803,40.7794,9.0,,,,250.0,13.0,,30.09,,10.0,,,,,,,,,,,,,,,,,,KLGA 131050Z AUTO 25013KT 10SM 03/M09 A3009 RMK T00301090 MADISHF,
LGA,2026-01-13 05:51,-73.8803,40.7794,9.0,37.0,16.0,41.91,260.0,13.0,0.00,30.09,1018.8,10.0,19.0,FEW,,,,25000.0,,,,,,,,,,,27.97,KLGA 131051Z 26013G19KT 10SM FEW250 03/M09 A3009 RMK AO2 SLP188 T00281089 $,
LGA,2026-01-13 05:55,-73.8803,40.7794,9.0,,,,240.0,13.0,,30.09,,10.0,18.0,CLR,,,,,,,,,,,,,,,,KLGA 131055Z AUTO 24013G18KT 10SM CLR 03/M09 A3009 RMK T00301090 MADISHF,
LGA,2026-01-13 06:00,-73.8803,40.7794,9.0,,,,250.0,16.0,,30.09,,10.0,21.0,CLR,,,,,,,,,,,,,,,,KLGA 131100Z AUTO 25016G21KT 10SM CLR 03/M09 A3009 RMK T00301090 MADISHF,
LGA,2026-01-13 06:05,-73.8803,40.7794,9.0,,,,250.0,9.0,,30.08,,10.0,17.0,,,,,,,,,,,,,,,,,KLGA 131105Z AUTO 25009G17KT 10SM 03/M09 A3008 RMK T00301090 MADISHF,
LGA,2026-01-13 06:10,-73.8803,40.7794,9.0,,,,260.0,13.0,,30.09,,10.0,,,,,,,,,,,,,,,,,,KLGA 131110Z AUTO 26013KT 10SM 03/M09 A3009 RMK T00301090 MADISHF,
LGA,2026-01-13 06:15,-73.8803,40.7794,9.0,,,,260.0,15.0,,30.09,,10.0,,,,,,,,,,,,,,,,,,KLGA 131115Z AUTO 26015KT 10SM 03/M09 A3009 RMK T00301090 MADISHF,
LGA,2026-01-13 06:20,-73.8803,40.7794,9.0,,,,250.0,14.0,,30.09,,10.0,,,,,,,,,,,,,,,,,,KLGA 131120Z AUTO 25014KT 10SM 03/M09 A3009 RMK T00301090 MADISHF,
LGA,2026-01-13 06:25,-73.8803,40.7794,9.0,,,,260.0,12.0,,30.09,,10.0,,,,,,,,,,,,,,,,,,KLGA 131125Z AUTO 26012KT 10SM 03/M09 A3009 RMK T00301090 MADISHF,
LGA,2026-01-13 06:30,-73.8803,40.7794,9.0,,,,250.0,12.0,,30.09,,10.0,17.0,,,,,,,,,,,,,,,,,KLGA 131130Z AUTO 25012G17KT 10SM 03/M09 A3009 RMK T00301090 MADISHF,
LGA,2026-01-13 06:35,-73.8803,40.7794,9.0,,,,260.0,12.0,,30.09,,10.0,,,,,,,,,,,,,,,,,,KLGA 131135Z AUTO 26012KT 10SM 03/M09 A3009 RMK T00301090 MADISHF,
LGA,2026-01-13 06:40,-73.8803,40.7794,9.0,,,,260.0,12.0,,30.09,,10.0,18.0,,,,,,,,,,,,,,,,,KLGA 131140Z AUTO 26012G18KT 10SM 03/M09 A3009 RMK T00301090 MADISHF,
LGA,2026-01-13 06:45,-73.8803,40.7794,9.0,,,,260.0,13.0,,30.09,,10.0,,,,,,,,,,,,,,,,,,KLGA 131145Z AUTO 26013KT 10SM 03/M09 A3009 RMK T00301090 MADISHF,
LGA,2026-01-13 06:50,-73.8803,40.7794,9.0,,,,260.0,12.0,,30.09,,10.0,,,,,,,,,,,,,,,,,,KLGA 131150Z AUTO 26012KT 10SM 03/M09 A3009 RMK T00301090 MADISHF,
LGA,2026-01-13 06:51,-73.8803,40.7794,9.0,38.0,16.0,40.3,260.0,13.0,0.00,30.1,1019.1,10.0,20.0,FEW,,,,25000.0,,,,,,,,,,,29.26,KLGA 131151Z 26013G20KT 10SM FEW250 03/M09 A3010 RMK AO2 SLP191 T00331089 10033 20028 51004 $,
LGA,2026-01-13 06:55,-73.8803,40.7794,9.0,,,,250.0,12.0,,30.1,,10.0,,CLR,,,,,,,,,,,,,,,,KLGA 131155Z AUTO 25012KT 10SM CLR 03/M09 A3010 RMK T00301090 MADISHF,
LGA,2026-01-13 07:00,-73.8803,40.7794,9.0,,,,250.0,11.0,,30.1,,10.0,19.0,CLR,,,,,,,,,,,,,,,,KLGA 131200Z AUTO 25011G19KT 10SM CLR 03/M09 A3010 RMK T00301090 MADISHF,
LGA,2026-01-13 07:05,-73.8803,40.7794,9.0,,,,260.0,11.0,,30.09,,10.0,,,,,,,,,,,,,,,,,,KLGA 131205Z AUTO 26011KT 10SM 03/M09 A3009 RMK T00301090 MADISHF,
LGA,2026-01-13 07:10,-73.8803,40.7794,9.0,,,,250.0,10.0,,30.09,,10.0,,,,,,,,,,,,,,,,,,KLGA 131210Z AUTO 25010KT 10SM 03/M09 A3009 RMK T00301090 MADISHF,
LGA,2026-01-13 07:15,-73.8803,40.7794,9.0,,,,260.0,12.0,,30.09,,10.0,,,,,,,,,,,,,,,,,,KLGA 131215Z AUTO 26012KT 10SM 03/M09 A3009 RMK T00301090 MADISHF,
LGA,2026-01-13 07:20,-73.8803,40.7794,9.0,,,,250.0,13.0,,30.09,,10.0,,,,,,,,,,,,,,,,,,KLGA 131220Z AUTO 25013KT 10SM 03/M09 A3009 RMK T00301090 MADISHF,
LGA,2026-01-13 07:25,-73.8803,40.7794,9.0,,,,260.0,12.0,,30.09,,10.0,,,,,,,,,,,,,,,,,,KLGA 131225Z AUTO 26012KT 10SM 03/M09 A3009 RMK T00301090 MADISHF,
LGA,2026-01-13 07:30,-73.8803,40.7794,9.0,,,,250.0,10.0,,30.09,,10.0,,,,,,,,,,,,,,,,,,KLGA 131230Z AUTO 25010KT 10SM 03/M09 A3009 RMK T00301090 MADISHF,
LGA,2026-01-13 07:35,-73.8803,40.7794,9.0,,,,260.0,13.0,,30.09,,10.0,,,,,,,,,,,,,,,,,,KLGA 131235Z AUTO 26013KT 10SM 03/M09 A3009 RMK T00301090 MADISHF,
LGA,2026-01-13 07:40,-73.8803,40.7794,9.0,,,,250.0,11.0,,30.09,,10.0,,,,,,,,,,,,,,,,,,KLGA 131240Z AUTO 25011KT 10SM 03/M09 A3009 RMK T00301090 MADISHF,
LGA,2026-01-13 07:45,-73.8803,40.7794,9.0,,,,250.0,12.0,,30.09,,10.0,,,,,,,,,,,,,,,,,,KLGA 131245Z AUTO 25012KT 10SM 03/M09 A3009 RMK T00301090 MADISHF,
LGA,2026-01-13 07:50,-73.8803,40.7794,9.0,,,,250.0,11.0,,30.09,,10.0,16.0,,,,,,,,,,,,,,,,,KLGA 131250Z AUTO 25011G16KT 10SM 03/M09 A3009 RMK T00301090 MADISHF,
LGA,2026-01-13 07:51,-73.8803,40.7794,9.0,38.0,16.0,40.3,250.0,12.0,0.00,30.09,1018.9,10.0,18.0,FEW,,,,25000.0,,,,,,,,,,,29.64,KLGA 131251Z 25012G18KT 10SM FEW250 03/M09 A3009 RMK AO2 SLP189 T00331089 $,
LGA,2026-01-13 07:55,-73.8803,40.7794,9.0,,,,250.0,12.0,,30.09,,10.0,,CLR,,,,,,,,,,,,,,,,KLGA 131255Z AUTO 25012KT 10SM CLR 03/M09 A3009 RMK T00301090 MADISHF,
LGA,2026-01-13 08:00,-73.8803,40.7794,9.0,,,,250.0,11.0,,30.09,,10.0,,,,,,,,,,,,,,,,,,KLGA 131300Z AUTO 25011KT 10SM 04/M09 A3009 RMK T00401090 MADISHF,
LGA,2026-01-13 08:05,-73.8803,40.7794,9.0,,,,250.0,10.0,,30.09,,10.0,,,,,,,,,,,,,,,,,,KLGA 131305Z AUTO 25010KT 10SM 04/M09 A3009 RMK T00401090 MADISHF,
LGA,2026-01-13 08:10,-73.8803,40.7794,9.0,,,,250.0,11.0,,30.09,,10.0,,,,,,,,,,,,,,,,,,KLGA 131310Z AUTO 25011KT 10SM 04/M09 A3009 RMK T00401090 MADISHF,
LGA,2026-01-13 08:15,-73.8803,40.7794,9.0,,,,240.0,10.0,,30.09,,10.0,15.0,,,,,,,,,,,,,,,,,KLGA 131315Z AUTO 24010G15KT 10SM 04/M09 A3009 RMK T00401090 MADISHF,
LGA,2026-01-13 08:20,-73.8803,40.7794,9.0,,,,250.0,10.0,,30.09,,10.0,,,,,,,,,,,,,,,,,,KLGA 131320Z AUTO 25010KT 10SM 04/M09 A3009 RMK T00401090 MADISHF,
LGA,2026-01-13 08:25,-73.8803,40.7794,9.0,,,,250.0,11.0,,30.09,,10.0,,,,,,,,,,,,,,,,,,KLGA 131325Z AUTO 25011KT 10SM 04/M09 A3009 RMK T00401090 MADISHF,
LGA,2026-01-13 08:30,-73.8803,40.7794,9.0,,,,250.0,9.0,,30.09,,10.0,,,,,,,,,,,,,,,,,,KLGA 131330Z AUTO 25009KT 10SM 04/M09 A3009 RMK T00401090 MADISHF,
LGA,2026-01-13 08:35,-73.8803,40.7794,9.0,,,,240.0,10.0,,30.09,,10.0,,,,,,,,,,,,,,,,,,KLGA 131335Z AUTO 24010KT 10SM 04/M09 A3009 RMK T00401090 MADISHF,
LGA,2026-01-13 08:40,-73.8803,40.7794,9.0,,,,260.0,10.0,,30.09,,10.0,,,,,,,,,,,,,,,,,,KLGA 131340Z AUTO 26010KT 10SM 04/M09 A3009 RMK T00401090 MADISHF,
LGA,2026-01-13 08:45,-73.8803,40.7794,9.0,,,,260.0,10.0,,30.09,,10.0,,,,,,,,,,,,,,,,,,KLGA 131345Z AUTO 26010KT 10SM 04/M09 A3009 RMK T00401090 MADISHF,
LGA,2026-01-13 08:50,-73.8803,40.7794,9.0,,,,260.0,8.0,,30.09,,10.0,,,,,,,,,,,,,,,,,,KLGA 131350Z AUTO 26008KT 10SM 04/M09 A3009 RMK T00401090 MADISHF,
LGA,2026-01-13 08:51,-73.8803,40.7794,9.0,39.0,16.0,38.75,260.0,8.0,0.00,30.09,1018.9,10.0,,FEW,,,,25000.0,,,,,,,,,,,32.74,KLGA 131351Z 26008KT 10SM FEW250 04/M09 A3009 RMK AO2 SLP189 T00391089 $,
LGA,2026-01-13 08:55,-73.8803,40.7794,9.0,,,,260.0,11.0,,30.09,,10.0,,CLR,,,,,,,,,,,,,,,,KLGA 131355Z AUTO 26011KT 10SM CLR 04/M09 A3009 RMK T00401090 MADISHF,
LGA,2026-01-13 09:00,-73.8803,40.7794,9.0,,,,250.0,12.0,,30.09,,10.0,,CLR,,,,,,,,,,,,,,,,KLGA 131400Z AUTO 25012KT 10SM CLR 04/M09 A3009 RMK T00401090 MADISHF,
LGA,2026-01-13 09:05,-73.8803,40.7794,9.0,,,,240.0,11.0,,30.09,,10.0,,CLR,,,,,,,,,,,,,,,,KLGA 131405Z AUTO 24011KT 10SM CLR 04/M09 A3009 RMK T00401090 MADISHF,
LGA,2026-01-13 09:10,-73.8803,40.7794,9.0,,,,250.0,9.0,,30.09,,10.0,15.0,CLR,,,,,,,,,,,,,,,,KLGA 131410Z AUTO 25009G15KT 10SM CLR 04/M09 A3009 RMK T00401090 MADISHF,
LGA,2026-01-13 09:15,-73.8803,40.7794,9.0,,,,240.0,6.0,,30.09,,10.0,,CLR,,,,,,,,,,,,,,,,KLGA 131415Z AUTO 24006KT 10SM CLR 04/M09 A3009 RMK T00401090 MADISHF,
LGA,2026-01-13 09:20,-73.8803,40.7794,9.0,,,,220.0,6.0,,30.08,,10.0,,CLR,,,,,,,,,,,,,,,,KLGA 131420Z AUTO 22006KT 10SM CLR 04/M09 A3008 RMK T00401090 MADISHF,
LGA,2026-01-13 09:25,-73.8803,40.7794,9.0,,,,260.0,8.0,,30.09,,10.0,,CLR,,,,,,,,,,,,,,,,KLGA 131425Z AUTO 26008KT 10SM CLR 05/M09 A3009 RMK T00501090 MADISHF,
LGA,2026-01-13 09:30,-73.8803,40.7794,9.0,,,,260.0,6.0,,30.08,,10.0,,CLR,,,,,,,,,,,,,,,,KLGA 131430Z AUTO 26006KT 10SM CLR 05/M09 A3008 RMK T00501090 MADISHF,
LGA,2026-01-13 09:35,-73.8803,40.7794,9.0,,,,260.0,8.0,,30.08,,10.0,,CLR,,,,,,,,,,,,,,,,KLGA 131435Z AUTO 26008KT 10SM CLR 05/M09 A3008 RMK T00501090 MADISHF,
LGA,2026-01-13 09:40,-73.8803,40.7794,9.0,,,,280.0,9.0,,30.08,,10.0,,CLR,,,,,,,,,,,,,,,,KLGA 131440Z AUTO 28009KT 10SM CLR 05/M08 A3008 RMK T00501080 MADISHF,
LGA,2026-01-13 09:45,-73.8803,40.7794,9.0,,,,260.0,10.0,,30.08,,10.0,,CLR,,,,,,,,,,,,,,,,KLGA 131445Z AUTO 26010KT 10SM CLR 05/M08 A3008 RMK T00501080 MADISHF,
LGA,2026-01-13 09:50,-73.8803,40.7794,9.0,,,,270.0,10.0,,30.08,,10.0,,CLR,,,,,,,,,,,,,,,,KLGA 131450Z AUTO 27010KT 10SM CLR 05/M08 A3008 RMK T00501080 MADISHF,
LGA,2026-01-13 09:51,-73.8803,40.7794,9.0,41.0,17.0,37.44,270.0,9.0,0.00,30.08,1018.7,10.0,,FEW,,,,25000.0,,,,,,,,,,,34.7,KLGA 131451Z 27009KT 10SM FEW250 05/M08 A3008 RMK AO2 SLP187 T00501083 57004 $,
LGA,2026-01-13 09:55,-73.8803,40.7794,9.0,,,,280.0,7.0,,30.09,,10.0,,CLR,,,,,,,,,,,,,,,,KLGA 131455Z AUTO 28007KT 10SM CLR 05/M08 A3009 RMK T00501080 MADISHF,
LGA,2026-01-13 10:00,-73.8803,40.7794,9.0,,,,280.0,7.0,,30.08,,10.0,,,,,,,,,,,,,,,,,,KLGA 131500Z AUTO 28007KT 10SM 05/M08 A3008 RMK T00501080 MADISHF,
LGA,2026-01-13 10:05,-73.8803,40.7794,9.0,,,,250.0,10.0,,30.08,,10.0,,,,,,,,,,,,,,,,,,KLGA 131505Z AUTO 25010KT 10SM 05/M08 A3008 RMK T00501080 MADISHF,
LGA,2026-01-13 10:10,-73.8803,40.7794,9.0,,,,260.0,9.0,,30.08,,10.0,,,,,,,,,,,,,,,,,,KLGA 131510Z AUTO 26009KT 10SM 05/M08 A3008 RMK T00501080 MADISHF,
LGA,2026-01-13 10:15,-73.8803,40.7794,9.0,,,,260.0,5.0,,30.09,,10.0,,,,,,,,,,,,,,,,,,KLGA 131515Z AUTO 26005KT 10SM 06/M08 A3009 RMK T00601080 MADISHF,
LGA,2026-01-13 10:20,-73.8803,40.7794,9.0,,,,270.0,6.0,,30.08,,10.0,,,,,,,,,,,,,,,,,,KLGA 131520Z AUTO 27006KT 10SM 06/M08 A3008 RMK T00601080 MADISHF,
LGA,2026-01-13 10:25,-73.8803,40.7794,9.0,,,,260.0,8.0,,30.08,,10.0,,,,,,,,,,,,,,,,,,KLGA 131525Z AUTO 26008KT 10SM 06/M08 A3008 RMK T00601080 MADISHF,
LGA,2026-01-13 10:30,-73.8803,40.7794,9.0,,,,290.0,4.0,,30.08,,10.0,,,,,,,,,,,,,,,,,,KLGA 131530Z AUTO 29004KT 10SM 06/M08 A3008 RMK T00601080 MADISHF,
LGA,2026-01-13 10:35,-73.8803,40.7794,9.0,,,,280.0,5.0,,30.07,,10.0,,,,,,,,,,,,,,,,,,KLGA 131535Z AUTO 28005KT 10SM 06/M08 A3007 RMK T00601080 MADISHF,
LGA,2026-01-13 10:40,-73.8803,40.7794,9.0,,,,270.0,6.0,,30.07,,10.0,,,,,,,,,,,,,,,,,,KLGA 131540Z AUTO 27006KT 10SM 06/M08 A3007 RMK T00601080 MADISHF,
LGA,2026-01-13 10:45,-73.8803,40.7794,9.0,,,,280.0,7.0,,30.07,,10.0,,,,,,,,,,,,,,,,,,KLGA 131545Z AUTO 28007KT 10SM 06/M08 A3007 RMK T00601080 MADISHF,
LGA,2026-01-13 10:50,-73.8803,40.7794,9.0,,,,280.0,5.0,,30.06,,10.0,,,,,,,,,,,,,,,,,,KLGA 131550Z AUTO 28005KT 10SM 06/M08 A3006 RMK T00601080 MADISHF,
LGA,2026-01-13 10:51,-73.8803,40.7794,9.0,42.0,18.0,37.61,280.0,6.0,0.00,30.06,1018.0,10.0,,SCT,,,,25000.0,,,,,,,,,,,37.57,KLGA 131551Z 28006KT 10SM SCT250 06/M08 A3006 RMK AO2 SLP180 T00561078 $,
LGA,2026-01-13 10:55,-73.8803,40.7794,9.0,,,,260.0,8.0,,30.06,,10.0,,CLR,,,,,,,,,,,,,,,,KLGA 131555Z AUTO 26008KT 10SM CLR 06/M08 A3006 RMK T00601080 WND 23V30 MADISHF,
LGA,2026-01-13 11:00,-73.8803,40.7794,9.0,,,,220.0,6.0,,30.06,,10.0,,CLR,,,,,,,,,,,,,,,,KLGA 131600Z AUTO 22006KT 10SM CLR 06/M08 A3006 RMK T00601080 MADISHF,
LGA,2026-01-13 11:05,-73.8803,40.7794,9.0,,,,210.0,6.0,,30.06,,10.0,,CLR,,,,,,,,,,,,,,,,KLGA 131605Z AUTO 21006KT 10SM CLR 06/M08 A3006 RMK T00601080 VRB06KT MADISHF,
LGA,2026-01-13 11:10,-73.8803,40.7794,9.0,,,,220.0,7.0,,30.05,,10.0,,CLR,,,,,,,,,,,,,,,,KLGA 131610Z AUTO 22007KT 10SM CLR 06/M08 A3005 RMK T00601080 MADISHF,
LGA,2026-01-13 11:15,-73.8803,40.7794,9.0,,,,220.0,6.0,,30.05,,10.0,,CLR,,,,,,,,,,,,,,,,KLGA 131615Z AUTO 22006KT 10SM CLR 06/M08 A3005 RMK T00601080 MADISHF,
LGA,2026-01-13 11:20,-73.8803,40.7794,9.0,,,,230.0,7.0,,30.04,,10.0,,CLR,,,,,,,,,,,,,,,,KLGA 131620Z AUTO 23007KT 10SM CLR 06/M08 A3004 RMK T00601080 MADISHF,
LGA,2026-01-13 11:25,-73.8803,40.7794,9.0,,,,230.0,7.0,,30.04,,10.0,,CLR,,,,,,,,,,,,,,,,KLGA 131625Z AUTO 23007KT 10SM CLR 06/M08 A3004 RMK T00601080 MADISHF,
LGA,2026-01-13 11:30,-73.8803,40.7794,9.0,,,,210.0,6.0,,30.04,,10.0,,CLR,,,,,,,,,,,,,,,,KLGA 131630Z AUTO 21006KT 10SM CLR 06/M08 A3004 RMK T00601080 MADISHF,
LGA,2026-01-13 11:35,-73.8803,40.7794,9.0,,,,230.0,7.0,,30.04,,10.0,,,,,,,,,,,,,,,,,,KLGA 131635Z AUTO 23007KT 10SM 06/M08 A3004 RMK T00601080 MADISHF,
LGA,2026-01-13 11:40,-73.8803,40.7794,9.0,,,,220.0,6.0,,30.03,,10.0,,,,,,,,,,,,,,,,,,KLGA 131640Z AUTO 22006KT 10SM 06/M08 A3003 RMK T00601080 MADISHF,
LGA,2026-01-13 11:45,-73.8803,40.7794,9.0,,,,220.0,7.0,,30.02,,10.0,,,,,,,,,,,,,,,,,,KLGA 131645Z AUTO 22007KT 10SM 07/M08 A3002 RMK T00701080 MADISHF,
LGA,2026-01-13 11:50,-73.8803,40.7794,9.0,,,,230.0,5.0,,30.02,,10.0,,,,,,,,,,,,,,,,,,KLGA 131650Z AUTO 23005KT 10SM 07/M08 A3002 RMK T00701080 MADISHF,
LGA,2026-01-13 11:51,-73.8803,40.7794,9.0,44.0,17.0,33.36,230.0,6.0,0.00,30.02,1016.4,10.0,,SCT,,,,25000.0,,,,,,,,,,,39.98,KLGA 131651Z 23006KT 10SM SCT250 07/M08 A3002 RMK AO2 SLP164 T00671083 $,
LGA,2026-01-13 11:55,-73.8803,40.7794,9.0,,,,230.0,7.0,,30.01,,10.0,,CLR,,,,,,,,,,,,,,,,KLGA 131655Z AUTO 23007KT 10SM CLR 07/M08 A3001 RMK T00701080 MADISHF,
LGA,2026-01-13 12:00,-73.8803,40.7794,9.0,,,,230.0,6.0,,30.01,,10.0,,CLR,,,,,,,,,,,,,,,,KLGA 131700Z AUTO 23006KT 10SM CLR 07/M08 A3001 RMK T00701080 VRB06KT MADISHF,
LGA,2026-01-13 12:05,-73.8803,40.7794,9.0,,,,230.0,8.0,,30.01,,10.0,,CLR,,,,,,,,,,,,,,,,KLGA 131705Z AUTO 23008KT 10SM CLR 07/M08 A3001 RMK T00701080 MADISHF,
LGA,2026-01-13 12:10,-73.8803,40.7794,9.0,,,,210.0,5.0,,30.0,,10.0,,,,,,,,,,,,,,,,,,KLGA 131710Z AUTO 21005KT 10SM 07/M08 A3000 RMK T00701080 MADISHF,
LGA,2026-01-13 12:15,-73.8803,40.7794,9.0,,,,250.0,4.0,,30.0,,10.0,,,,,,,,,,,,,,,,,,KLGA 131715Z AUTO 25004KT 10SM 07/M08 A3000 RMK T00701080 VRB04KT MADISHF,
LGA,2026-01-13 12:20,-73.8803,40.7794,9.0,,,,240.0,7.0,,29.99,,10.0,,,,,,,,,,,,,,,,,,KLGA 131720Z AUTO 24007KT 10SM 07/M08 A2999 RMK T00701080 MADISHF,
LGA,2026-01-13 12:25,-73.8803,40.7794,9.0,,,,220.0,7.0,,29.99,,10.0,,,,,,,,,,,,,,,,,,KLGA 131725Z AUTO 22007KT 10SM 07/M08 A2999 RMK T00701080 MADISHF,
LGA,2026-01-13 12:30,-73.8803,40.7794,9.0,,,,220.0,7.0,,29.98,,10.0,,,,,,,,,,,,,,,,,,KLGA 131730Z AUTO 22007KT 10SM 07/M08 A2998 RMK T00701080 MADISHF,
LGA,2026-01-13 12:35,-73.8803,40.7794,9.0,,,,210.0,7.0,,29.98,,10.0,,,,,,,,,,,,,,,,,,KLGA 131735Z AUTO 21007KT 10SM 07/M08 A2998 RMK T00701080 MADISHF,
LGA,2026-01-13 12:40,-73.8803,40.7794,9.0,,,,220.0,5.0,,29.98,,10.0,,,,,,,,,,,,,,,,,,KLGA 131740Z AUTO 22005KT 10SM 07/M08 A2998 RMK T00701080 MADISHF,
LGA,2026-01-13 12:45,-73.8803,40.7794,9.0,,,,200.0,9.0,,29.98,,10.0,,,,,,,,,,,,,,,,,,KLGA 131745Z AUTO 20009KT 10SM 08/M08 A2998 RMK T00801080 MADISHF,
LGA,2026-01-13 12:50,-73.8803,40.7794,9.0,,,,210.0,9.0,,29.98,,10.0,,,,,,,,,,,,,,,,,,KLGA 131750Z AUTO 21009KT 10SM 07/M08 A2998 RMK T00701080 MADISHF,
LGA,2026-01-13 12:51,-73.8803,40.7794,9.0,45.0,17.0,32.11,210.0,9.0,0.00,29.98,1015.1,10.0,,BKN,,,,25000.0,,,,,,,,,,,39.68,KLGA 131751Z 21009KT 10SM BKN250 07/M08 A2998 RMK AO2 SLP151 T00721083 10078 20033 58036 $,
LGA,2026-01-13 12:55,-73.8803,40.7794,9.0,,,,210.0,11.0,,29.98,,10.0,,,,,,,,,,,,,,,,,,KLGA 131755Z AUTO 21011KT 10SM 07/M08 A2998 RMK T00701080 MADISHF,
LGA,2026-01-13 13:00,-73.8803,40.7794,9.0,,,,220.0,10.0,,29.97,,10.0,,,,,,,,,,,,,,,,,,KLGA 131800Z AUTO 22010KT 10SM 07/M08 A2997 RMK T00701080 MADISHF,
LGA,2026-01-13 13:05,-73.8803,40.7794,9.0,,,,230.0,11.0,,29.97,,10.0,,,,,,,,,,,,,,,,,,KLGA 131805Z AUTO 23011KT 10SM 07/M08 A2997 RMK T00701080 MADISHF,
LGA,2026-01-13 13:10,-73.8803,40.7794,9.0,,,,220.0,11.0,,29.97,,10.0,16.0,,,,,,,,,,,,,,,,,KLGA 131810Z AUTO 22011G16KT 10SM 07/M08 A2997 RMK T00701080 MADISHF,
LGA,2026-01-13 13:15,-73.8803,40.7794,9.0,,,,230.0,11.0,,29.97,,10.0,,,,,,,,,,,,,,,,,,KLGA 131815Z AUTO 23011KT 10SM 07/M08 A2997 RMK T00701080 MADISHF,
LGA,2026-01-13 13:20,-73.8803,40.7794,9.0,,,,230.0,10.0,,29.96,,10.0,,,,,,,,,,,,,,,,,,KLGA 131820Z AUTO 23010KT 10SM 08/M08 A2996 RMK T00801080 MADISHF,
LGA,2026-01-13 13:25,-73.8803,40.7794,9.0,,,,230.0,10.0,,29.96,,10.0,,,,,,,,,,,,,,,,,,KLGA 131825Z AUTO 23010KT 10SM 08/M08 A2996 RMK T00801080 MADISHF,
LGA,2026-01-13 13:30,-73.8803,40.7794,9.0,,,,230.0,10.0,,29.96,,10.0,,,,,,,,,,,,,,,,,,KLGA 131830Z AUTO 23010KT 10SM 08/M08 A2996 RMK T00801080 MADISHF,
LGA,2026-01-13 13:35,-73.8803,40.7794,9.0,,,,230.0,10.0,,29.95,,10.0,,,,,,,,,,,,,,,,,,KLGA 131835Z AUTO 23010KT 10SM 08/M08 A2995 RMK T00801080 MADISHF,
LGA,2026-01-13 13:40,-73.8803,40.7794,9.0,,,,230.0,10.0,,29.95,,10.0,,,,,,,,,,,,,,,,,,KLGA 131840Z AUTO 23010KT 10SM 08/M08 A2995 RMK T00801080 MADISHF,
LGA,2026-01-13 13:45,-73.8803,40.7794,9.0,,,,230.0,10.0,,29.95,,10.0,,,,,,,,,,,,,,,,,,KLGA 131845Z AUTO 23010KT 10SM 08/M08 A2995 RMK T00801080 WND 18V24 MADISHF,
LGA,2026-01-13 13:50,-73.8803,40.7794,9.0,,,,230.0,10.0,,29.95,,10.0,,,,,,,,,,,,,,,,,,KLGA 131850Z AUTO 23010KT 10SM 08/M08 A2995 RMK T00801080 MADISHF,
LGA,2026-01-13 13:51,-73.8803,40.7794,9.0,47.0,18.0,31.08,230.0,10.0,0.00,29.95,1014.1,10.0,,BKN,,,,25000.0,,,,,,,,,,,41.78,KLGA 131851Z 23010KT 10SM BKN250 08/M08 A2995 RMK AO2 SLP141 T00831078 $,
LGA,2026-01-13 13:55,-73.8803,40.7794,9.0,,,,200.0,11.0,,29.94,,10.0,,CLR,,,,,,,,,,,,,,,,KLGA 131855Z AUTO 20011KT 10SM CLR 08/M08 A2994 RMK T00801080 MADISHF,
LGA,2026-01-13 14:00,-73.8803,40.7794,9.0,,,,210.0,9.0,,29.94,,10.0,,CLR,,,,,,,,,,,,,,,,KLGA 131900Z AUTO 21009KT 10SM CLR 08/M08 A2994 RMK T00801080 MADISHF,
LGA,2026-01-13 14:05,-73.8803,40.7794,9.0,,,,210.0,9.0,,29.93,,10.0,,CLR,,,,,,,,,,,,,,,,KLGA 131905Z AUTO 21009KT 10SM CLR 08/M08 A2993 RMK T00801080 MADISHF,
LGA,2026-01-13 14:10,-73.8803,40.7794,9.0,,,,210.0,11.0,,29.93,,10.0,,CLR,,,,,,,,,,,,,,,,KLGA 131910Z AUTO 21011KT 10SM CLR 08/M08 A2993 RMK T00801080 MADISHF,
LGA,2026-01-13 14:15,-73.8803,40.7794,9.0,,,,200.0,12.0,,29.93,,10.0,,CLR,,,,,,,,,,,,,,,,KLGA 131915Z AUTO 20012KT 10SM CLR 08/M08 A2993 RMK T00801080 MADISHF,
LGA,2026-01-13 14:20,-73.8803,40.7794,9.0,,,,210.0,11.0,,29.93,,10.0,,CLR,,,,,,,,,,,,,,,,KLGA 131920Z AUTO 21011KT 10SM CLR A2993 RMK T0080 MADISHF,
LGA,2026-01-13 14:25,-73.8803,40.7794,9.0,,,,210.0,8.0,,29.92,,10.0,,CLR,,,,,,,,,,,,,,,,KLGA 131925Z AUTO 21008KT 10SM CLR A2992 RMK T0080 MADISHF,
LGA,2026-01-13 14:30,-73.8803,40.7794,9.0,,,,190.0,12.0,,29.93,,10.0,,CLR,,,,,,,,,,,,,,,,KLGA 131930Z AUTO 19012KT 10SM CLR A2993 RMK T0080 MADISHF,
LGA,2026-01-13 14:35,-73.8803,40.7794,9.0,,,,190.0,12.0,,29.92,,10.0,17.0,CLR,,,,,,,,,,,,,,,,KLGA 131935Z AUTO 19012G17KT 10SM CLR 08/M08 A2992 RMK T00801080 MADISHF,
LGA,2026-01-13 14:40,-73.8803,40.7794,9.0,,,,200.0,12.0,,29.92,,10.0,,CLR,,,,,,,,,,,,,,,,KLGA 131940Z AUTO 20012KT 10SM CLR A2992 RMK T0080 MADISHF,
LGA,2026-01-13 14:45,-73.8803,40.7794,9.0,,,,170.0,13.0,,29.92,,10.0,,CLR,,,,,,,,,,,,,,,,KLGA 131945Z AUTO 17013KT 10SM CLR 08/M07 A2992 RMK T00801070 MADISHF,
LGA,2026-01-13 14:50,-73.8803,40.7794,9.0,,,,170.0,14.0,,29.92,,10.0,,,,,,,,,,,,,,,,,,KLGA 131950Z AUTO 17014KT 10SM 07/M07 A2992 RMK T00701070 MADISHF,
LGA,2026-01-13 14:51,-73.8803,40.7794,9.0,45.0,20.0,36.53,170.0,14.0,0.00,29.92,1013.2,10.0,,FEW,BKN,,,15000.0,25000.0,,,,,,,,,,37.92,KLGA 131951Z 17014KT 10SM FEW150 BKN250 07/M07 A2992 RMK AO2 SLP132 T00721067 $,
LGA,2026-01-13 14:55,-73.8803,40.7794,9.0,,,,170.0,14.0,,29.92,,10.0,,CLR,,,,,,,,,,,,,,,,KLGA 131955Z AUTO 17014KT 10SM CLR 07/M06 A2992 RMK T00701060 MADISHF,
LGA,2026-01-13 15:00,-73.8803,40.7794,9.0,,,,160.0,14.0,,29.92,,10.0,19.0,CLR,,,,,,,,,,,,,,,,KLGA 132000Z AUTO 16014G19KT 10SM CLR 07/M06 A2992 RMK T00701060 MADISHF,
LGA,2026-01-13 15:05,-73.8803,40.7794,9.0,,,,170.0,13.0,,29.92,,10.0,,CLR,,,,,,,,,,,,,,,,KLGA 132005Z AUTO 17013KT 10SM CLR 07/M06 A2992 RMK T00701060 MADISHF,
LGA,2026-01-13 15:10,-73.8803,40.7794,9.0,,,,170.0,11.0,,29.91,,10.0,,CLR,,,,,,,,,,,,,,,,KLGA 132010Z AUTO 17011KT 10SM CLR 07/M05 A2991 RMK T00701050 MADISHF,
LGA,2026-01-13 15:15,-73.8803,40.7794,9.0,,,,170.0,11.0,,29.91,,10.0,17.0,CLR,,,,,,,,,,,,,,,,KLGA 132015Z AUTO 17011G17KT 10SM CLR 07/M05 A2991 RMK T00701050 MADISHF,
LGA,2026-01-13 15:20,-73.8803,40.7794,9.0,,,,180.0,10.0,,29.91,,10.0,,CLR,,,,,,,,,,,,,,,,KLGA 132020Z AUTO 18010KT 10SM CLR 07/M04 A2991 RMK T00701040 MADISHF,
LGA,2026-01-13 15:25,-73.8803,40.7794,9.0,,,,170.0,9.0,,29.91,,10.0,14.0,CLR,,,,,,,,,,,,,,,,KLGA 132025Z AUTO 17009G14KT 10SM CLR 07/M04 A2991 RMK T00701040 MADISHF,
LGA,2026-01-13 15:30,-73.8803,40.7794,9.0,,,,180.0,15.0,,29.91,,10.0,,CLR,,,,,,,,,,,,,,,,KLGA 132030Z AUTO 18015KT 10SM CLR 07/M04 A2991 RMK T00701040 MADISHF,
LGA,2026-01-13 15:35,-73.8803,40.7794,9.0,,,,170.0,11.0,,29.91,,10.0,,CLR,,,,,,,,,,,,,,,,KLGA 132035Z AUTO 17011KT 10SM CLR 07/M04 A2991 RMK T00701040 MADISHF,
LGA,2026-01-13 15:40,-73.8803,40.7794,9.0,,,,170.0,12.0,,29.9,,10.0,,CLR,,,,,,,,,,,,,,,,KLGA 132040Z AUTO 17012KT 10SM CLR 07/M04 A2990 RMK T00701040 MADISHF,
LGA,2026-01-13 15:45,-73.8803,40.7794,9.0,,,,160.0,14.0,,29.9,,10.0,,CLR,,,,,,,,,,,,,,,,KLGA 132045Z AUTO 16014KT 10SM CLR 07/M04 A2990 RMK T00701040 MADISHF,
LGA,2026-01-13 15:50,-73.8803,40.7794,9.0,,,,170.0,13.0,,29.89,,10.0,18.0,,,,,,,,,,,,,,,,,KLGA 132050Z AUTO 17013G18KT 10SM 07/M05 A2989 RMK T00701050 MADISHF,
LGA,2026-01-13 15:51,-73.8803,40.7794,9.0,44.0,23.0,43.09,170.0,13.0,0.00,29.89,1012.2,10.0,,FEW,BKN,,,15000.0,23000.0,,,,,,,,,,36.94,KLGA 132051Z 17013KT 10SM FEW150 BKN230 07/M05 A2989 RMK AO2 SLP122 T00671050 56029 $,
LGA,2026-01-13 15:55,-73.8803,40.7794,9.0,,,,170.0,12.0,,29.89,,10.0,,CLR,,,,,,,,,,,,,,,,KLGA 132055Z AUTO 17012KT 10SM CLR 07/M05 A2989 RMK T00701050 MADISHF,
LGA,2026-01-13 16:00,-73.8803,40.7794,9.0,,,,160.0,12.0,,29.89,,10.0,17.0,CLR,,,,,,,,,,,,,,,,KLGA 132100Z AUTO 16012G17KT 10SM CLR 07/M04 A2989 RMK T00701040 MADISHF,
LGA,2026-01-13 16:05,-73.8803,40.7794,9.0,,,,160.0,11.0,,29.89,,10.0,,CLR,,,,,,,,,,,,,,,,KLGA 132105Z AUTO 16011KT 10SM CLR 07/M04 A2989 RMK T00701040 MADISHF,
LGA,2026-01-13 16:10,-73.8803,40.7794,9.0,,,,160.0,10.0,,29.88,,10.0,,CLR,,,,,,,,,,,,,,,,KLGA 132110Z AUTO 16010KT 10SM CLR 07/M04 A2988 RMK T00701040 MADISHF,
LGA,2026-01-13 16:15,-73.8803,40.7794,9.0,,,,160.0,12.0,,29.88,,10.0,,CLR,,,,,,,,,,,,,,,,KLGA 132115Z AUTO 16012KT 10SM CLR 06/M04 A2988 RMK T00601040 MADISHF,
LGA,2026-01-13 16:20,-73.8803,40.7794,9.0,,,,170.0,12.0,,29.88,,10.0,,CLR,,,,,,,,,,,,,,,,KLGA 132120Z AUTO 17012KT 10SM CLR 06/M04 A2988 RMK T00601040 MADISHF,
LGA,2026-01-13 16:25,-73.8803,40.7794,9.0,,,,170.0,10.0,,29.88,,10.0,,CLR,,,,,,,,,,,,,,,,KLGA 132125Z AUTO 17010KT 10SM CLR 06/M04 A2988 RMK T00601040 MADISHF,
LGA,2026-01-13 16:30,-73.8803,40.7794,9.0,,,,170.0,12.0,,29.88,,10.0,,CLR,,,,,,,,,,,,,,,,KLGA 132130Z AUTO 17012KT 10SM CLR 06/M04 A2988 RMK T00601040 MADISHF,
LGA,2026-01-13 16:35,-73.8803,40.7794,9.0,,,,170.0,10.0,,29.88,,10.0,,CLR,,,,,,,,,,,,,,,,KLGA 132135Z AUTO 17010KT 10SM CLR 06/M04 A2988 RMK T00601040 MADISHF,
LGA,2026-01-13 16:40,-73.8803,40.7794,9.0,,,,180.0,10.0,,29.88,,10.0,,CLR,,,,,,,,,,,,,,,,KLGA 132140Z AUTO 18010KT 10SM CLR 06/M04 A2988 RMK T00601040 MADISHF,
LGA,2026-01-13 16:45,-73.8803,40.7794,9.0,,,,170.0,8.0,,29.88,,10.0,,CLR,,,,,,,,,,,,,,,,KLGA 132145Z AUTO 17008KT 10SM CLR 06/M04 A2988 RMK T00601040 MADISHF,
LGA,2026-01-13 16:50,-73.8803,40.7794,9.0,,,,170.0,9.0,,29.87,,10.0,,,,,,,,,,,,,,,,,,KLGA 132150Z AUTO 17009KT 10SM 06/M04 A2987 RMK T00601040 MADISHF,
LGA,2026-01-13 16:51,-73.8803,40.7794,9.0,43.0,25.0,48.68,170.0,8.0,0.00,29.87,1011.3,10.0,,FEW,BKN,BKN,,14000.0,20000.0,25000.0,,,,,,,,,37.66,KLGA 132151Z 17008KT 10SM FEW140 BKN200 BKN250 06/M04 A2987 RMK AO2 SLP113 T00611039 $,
LGA,2026-01-13 16:55,-73.8803,40.7794,9.0,,,,170.0,9.0,,29.86,,10.0,,CLR,,,,,,,,,,,,,,,,KLGA 132155Z AUTO 17009KT 10SM CLR 06/M04 A2986 RMK T00601040 MADISHF,
LGA,2026-01-13 17:00,-73.8803,40.7794,9.0,,,,160.0,9.0,,29.86,,10.0,,CLR,,,,,,,,,,,,,,,,KLGA 132200Z AUTO 16009KT 10SM CLR 06/M04 A2986 RMK T00601040 MADISHF,
LGA,2026-01-13 17:05,-73.8803,40.7794,9.0,,,,170.0,9.0,,29.86,,10.0,,CLR,,,,,,,,,,,,,,,,KLGA 132205Z AUTO 17009KT 10SM CLR 06/M03 A2986 RMK T00601030 MADISHF,
LGA,2026-01-13 17:10,-73.8803,40.7794,9.0,,,,160.0,8.0,,29.86,,10.0,,CLR,,,,,,,,,,,,,,,,KLGA 132210Z AUTO 16008KT 10SM CLR 06/M03 A2986 RMK T00601030 MADISHF,
LGA,2026-01-13 17:15,-73.8803,40.7794,9.0,,,,170.0,8.0,,29.86,,10.0,,CLR,,,,,,,,,,,,,,,,KLGA 132215Z AUTO 17008KT 10SM CLR 06/M03 A2986 RMK T00601030 MADISHF,
LGA,2026-01-13 17:20,-73.8803,40.7794,9.0,,,,160.0,9.0,,29.85,,10.0,,CLR,,,,,,,,,,,,,,,,KLGA 132220Z AUTO 16009KT 10SM CLR 06/M03 A2985 RMK T00601030 MADISHF,
LGA,2026-01-13 17:25,-73.8803,40.7794,9.0,,,,170.0,8.0,,29.85,,10.0,,CLR,,,,,,,,,,,,,,,,KLGA 132225Z AUTO 17008KT 10SM CLR 06/M03 A2985 RMK T00601030 MADISHF,
LGA,2026-01-13 17:30,-73.8803,40.7794,9.0,,,,180.0,9.0,,29.86,,10.0,15.0,CLR,,,,,,,,,,,,,,,,KLGA 132230Z AUTO 18009G15KT 10SM CLR 06/M03 A2986 RMK T00601030 MADISHF,
LGA,2026-01-13 17:35,-73.8803,40.7794,9.0,,,,180.0,10.0,,29.86,,10.0,,CLR,,,,,,,,,,,,,,,,KLGA 132235Z AUTO 18010KT 10SM CLR 06/M03 A2986 RMK T00601030 MADISHF,
LGA,2026-01-13 17:40,-73.8803,40.7794,9.0,,,,180.0,10.0,,29.85,,10.0,,CLR,,,,,,,,,,,,,,,,KLGA 132240Z AUTO 18010KT 10SM CLR 06/M03 A2985 RMK T00601030 MADISHF,
LGA,2026-01-13 17:45,-73.8803,40.7794,9.0,,,,180.0,11.0,,29.85,,10.0,,CLR,,,,,,,,,,,,,,,,KLGA 132245Z AUTO 18011KT 10SM CLR 06/M03 A2985 RMK T00601030 MADISHF,
LGA,2026-01-13 17:50,-73.8803,40.7794,9.0,,,,180.0,11.0,,29.85,,10.0,,,,,,,,,,,,,,,,,,KLGA 132250Z AUTO 18011KT 10SM 06/M03 A2985 RMK T00601030 MADISHF,
LGA,2026-01-13 17:51,-73.8803,40.7794,9.0,44.0,26.0,48.84,190.0,10.0,0.00,29.85,1010.8,10.0,,BKN,BKN,,,17000.0,25000.0,,,,,,,,,,38.02,KLGA 132251Z 19010KT 10SM BKN170 BKN250 07/M03 A2985 RMK AO2 SLP108 T00671033 $,
LGA,2026-01-13 17:55,-73.8803,40.7794,9.0,,,,180.0,11.0,,29.85,,10.0,,CLR,,,,,,,,,,,,,,,,KLGA 132255Z AUTO 18011KT 10SM CLR 07/M04 A2985 RMK T00701040 MADISHF,
LGA,2026-01-13 18:00,-73.8803,40.7794,9.0,,,,170.0,9.0,,29.85,,10.0,,CLR,,,,,,,,,,,,,,,,KLGA 132300Z AUTO 17009KT 10SM CLR 07/M04 A2985 RMK T00701040 MADISHF,
LGA,2026-01-13 18:05,-73.8803,40.7794,9.0,,,,180.0,11.0,,29.85,,10.0,17.0,CLR,,,,,,,,,,,,,,,,KLGA 132305Z AUTO 18011G17KT 10SM CLR 06/M04 A2985 RMK T00601040 MADISHF,
LGA,2026-01-13 18:10,-73.8803,40.7794,9.0,,,,180.0,11.0,,29.85,,10.0,,CLR,,,,,,,,,,,,,,,,KLGA 132310Z AUTO 18011KT 10SM CLR 06/M04 A2985 RMK T00601040 MADISHF,
LGA,2026-01-13 18:15,-73.8803,40.7794,9.0,,,,180.0,12.0,,29.85,,10.0,,CLR,,,,,,,,,,,,,,,,KLGA 132315Z AUTO 18012KT 10SM CLR 06/M04 A2985 RMK T00601040 MADISHF,
LGA,2026-01-13 18:20,-73.8803,40.7794,9.0,,,,180.0,10.0,,29.85,,10.0,,CLR,,,,,,,,,,,,,,,,KLGA 132320Z AUTO 18010KT 10SM CLR 06/M04 A2985 RMK T00601040 MADISHF,
LGA,2026-01-13 18:25,-73.8803,40.7794,9.0,,,,180.0,11.0,,29.85,,10.0,,CLR,,,,,,,,,,,,,,,,KLGA 132325Z AUTO 18011KT 10SM CLR 06/M04 A2985 RMK T00601040 MADISHF,
LGA,2026-01-13 18:30,-73.8803,40.7794,9.0,,,,180.0,11.0,,29.84,,10.0,,CLR,,,,,,,,,,,,,,,,KLGA 132330Z AUTO 18011KT 10SM CLR 06/M04 A2984 RMK T00601040 MADISHF,
LGA,2026-01-13 18:35,-73.8803,40.7794,9.0,,,,190.0,10.0,,29.84,,10.0,,CLR,,,,,,,,,,,,,,,,KLGA 132335Z AUTO 19010KT 10SM CLR 06/M04 A2984 RMK T00601040 MADISHF,
LGA,2026-01-13 18:40,-73.8803,40.7794,9.0,,,,190.0,11.0,,29.84,,10.0,16.0,CLR,,,,,,,,,,,,,,,,KLGA 132340Z AUTO 19011G16KT 10SM CLR 07/M04 A2984 RMK T00701040 MADISHF,
LGA,2026-01-13 18:45,-73.8803,40.7794,9.0,,,,180.0,12.0,,29.84,,10.0,17.0,,,,,,,,,,,,,,,,,KLGA 132345Z AUTO 18012G17KT 10SM 07/M04 A2984 RMK T00701040 MADISHF,
LGA,2026-01-13 18:50,-73.8803,40.7794,9.0,,,,180.0,13.0,,29.83,,10.0,,,,,,,,,,,,,,,,,,KLGA 132350Z AUTO 18013KT 10SM 07/M04 A2983 RMK T00701040 MADISHF,
LGA,2026-01-13 18:51,-73.8803,40.7794,9.0,44.0,24.0,44.93,180.0,13.0,0.00,29.83,1009.9,10.0,,BKN,BKN,,,18000.0,25000.0,,,,,,,,,,36.94,KLGA 132351Z 18013KT 10SM BKN180 BKN250 07/M04 A2983 RMK AO2 SLP099 T00671044 10083 20061 58023 $,
LGA,2026-01-13 18:55,-73.8803,40.7794,9.0,,,,180.0,13.0,,29.82,,10.0,19.0,CLR,,,,,,,,,,,,,,,,KLGA 132355Z AUTO 18013G19KT 10SM CLR 07/M05 A2982 RMK T00701050 MADISHF,
LGA,2026-01-13 19:00,-73.8803,40.7794,9.0,,,,180.0,11.0,,29.82,,10.0,,CLR,,,,,,,,,,,,,,,,KLGA 140000Z AUTO 18011KT 10SM CLR 07/M05 A2982 RMK T00701050 MADISHF,
LGA,2026-01-13 19:05,-73.8803,40.7794,9.0,,,,180.0,12.0,,29.82,,10.0,,CLR,,,,,,,,,,,,,,,,KLGA 140005Z AUTO 18012KT 10SM CLR 06/M05 A2982 RMK T00601050 MADISHF,
LGA,2026-01-13 19:10,-73.8803,40.7794,9.0,,,,180.0,11.0,,29.83,,10.0,,CLR,,,,,,,,,,,,,,,,KLGA 140010Z AUTO 18011KT 10SM CLR 06/M05 A2983 RMK T00601050 MADISHF,
LGA,2026-01-13 19:15,-73.8803,40.7794,9.0,,,,180.0,11.0,,29.83,,10.0,17.0,CLR,,,,,,,,,,,,,,,,KLGA 140015Z AUTO 18011G17KT 10SM CLR 06/M06 A2983 RMK T00601060 MADISHF,
LGA,2026-01-13 19:20,-73.8803,40.7794,9.0,,,,190.0,12.0,,29.82,,10.0,17.0,CLR,,,,,,,,,,,,,,,,KLGA 140020Z AUTO 19012G17KT 10SM CLR 07/M06 A2982 RMK T00701060 MADISHF,
LGA,2026-01-13 19:25,-73.8803,40.7794,9.0,,,,190.0,13.0,,29.82,,10.0,19.0,CLR,,,,,,,,,,,,,,,,KLGA 140025Z AUTO 19013G19KT 10SM CLR 07/M06 A2982 RMK T00701060 MADISHF,
LGA,2026-01-13 19:30,-73.8803,40.7794,9.0,,,,200.0,15.0,,29.82,,10.0,,CLR,,,,,,,,,,,,,,,,KLGA 140030Z AUTO 20015KT 10SM CLR 07/M06 A2982 RMK T00701060 MADISHF,
LGA,2026-01-13 19:35,-73.8803,40.7794,9.0,,,,200.0,14.0,,29.81,,10.0,22.0,CLR,,,,,,,,,,,,,,,,KLGA 140035Z AUTO 20014G22KT 10SM CLR 07/M06 A2981 RMK T00701060 MADISHF,
LGA,2026-01-13 19:40,-73.8803,40.7794,9.0,,,,200.0,14.0,,29.81,,10.0,,CLR,,,,,,,,,,,,,,,,KLGA 140040Z AUTO 20014KT 10SM CLR A2981 RMK T0070 MADISHF,
LGA,2026-01-13 19:45,-73.8803,40.7794,9.0,,,,190.0,16.0,,29.81,,10.0,24.0,CLR,,,,,,,,,,,,,,,,KLGA 140045Z AUTO 19016G24KT 10SM CLR A2981 RMK T0070 MADISHF,
LGA,2026-01-13 19:50,-73.8803,40.7794,9.0,,,,180.0,16.0,,29.8,,10.0,,,,,,,,,,,,,,,,,,KLGA 140050Z AUTO 18016KT 10SM 07/M06 A2980 RMK T00701060 MADISHF,
LGA,2026-01-13 19:51,-73.8803,40.7794,9.0,44.0,22.0,41.31,190.0,14.0,0.00,29.8,1009.1,10.0,25.0,SCT,BKN,BKN,,13000.0,19000.0,25000.0,,,,,,,,,36.63,KLGA 140051Z 19014G25KT 10SM SCT130 BKN190 BKN250 07/M06 A2980 RMK AO2 SLP091 T00671056 $,
LGA,2026-01-13 19:55,-73.8803,40.7794,9.0,,,,190.0,15.0,,29.81,,10.0,,CLR,,,,,,,,,,,,,,,,KLGA 140055Z AUTO 19015KT 10SM CLR 07/M06 A2981 RMK T00701060 MADISHF,
LGA,2026-01-13 20:00,-73.8803,40.7794,9.0,,,,190.0,12.0,,29.8,,10.0,,CLR,,,,,,,,,,,,,,,,KLGA 140100Z AUTO 19012KT 10SM CLR 07/M05 A2980 RMK T00701050 MADISHF,
LGA,2026-01-13 20:05,-73.8803,40.7794,9.0,,,,190.0,16.0,,29.8,,10.0,,CLR,,,,,,,,,,,,,,,,KLGA 140105Z AUTO 19016KT 10SM CLR 07/M05 A2980 RMK T00701050 MADISHF,
LGA,2026-01-13 20:10,-73.8803,40.7794,9.0,,,,190.0,15.0,,29.8,,10.0,22.0,CLR,,,,,,,,,,,,,,,,KLGA 140110Z AUTO 19015G22KT 10SM CLR 07/M04 A2980 RMK T00701040 MADISHF,
LGA,2026-01-13 20:15,-73.8803,40.7794,9.0,,,,190.0,12.0,,29.8,,10.0,,CLR,,,,,,,,,,,,,,,,KLGA 140115Z AUTO 19012KT 10SM CLR 07/M04 A2980 RMK T00701040 MADISHF,
LGA,2026-01-13 20:20,-73.8803,40.7794,9.0,,,,200.0,11.0,,29.8,,10.0,,CLR,,,,,,,,,,,,,,,,KLGA 140120Z AUTO 20011KT 10SM CLR 07/M04 A2980 RMK T00701040 MADISHF,
LGA,2026-01-13 20:25,-73.8803,40.7794,9.0,,,,200.0,11.0,,29.81,,10.0,,CLR,,,,,,,,,,,,,,,,KLGA 140125Z AUTO 20011KT 10SM CLR 07/M04 A2981 RMK T00701040 MADISHF,
LGA,2026-01-13 20:30,-73.8803,40.7794,9.0,,,,210.0,10.0,,29.81,,10.0,17.0,CLR,,,,,,,,,,,,,,,,KLGA 140130Z AUTO 21010G17KT 10SM CLR 07/M04 A2981 RMK T00701040 MADISHF,
LGA,2026-01-13 20:35,-73.8803,40.7794,9.0,,,,210.0,7.0,,29.8,,10.0,,CLR,,,,,,,,,,,,,,,,KLGA 140135Z AUTO 21007KT 10SM CLR 07/M04 A2980 RMK T00701040 MADISHF,
LGA,2026-01-13 20:40,-73.8803,40.7794,9.0,,,,210.0,9.0,,29.8,,10.0,,CLR,,,,,,,,,,,,,,,,KLGA 140140Z AUTO 21009KT 10SM CLR 07/M04 A2980 RMK T00701040 MADISHF,
LGA,2026-01-13 20:45,-73.8803,40.7794,9.0,,,,210.0,10.0,,29.8,,10.0,,CLR,,,,,,,,,,,,,,,,KLGA 140145Z AUTO 21010KT 10SM CLR 07/M04 A2980 RMK T00701040 MADISHF,
LGA,2026-01-13 20:50,-73.8803,40.7794,9.0,,,,210.0,9.0,,29.8,,10.0,,,,,,,,,,,,,,,,,,KLGA 140150Z AUTO 21009KT 10SM 07/M04 A2980 RMK T00701040 MADISHF,
LGA,2026-01-13 20:51,-73.8803,40.7794,9.0,44.0,25.0,46.85,210.0,9.0,0.00,29.8,1009.0,10.0,,BKN,BKN,,,13000.0,25000.0,,,,,,,,,,38.44,KLGA 140151Z 21009KT 10SM BKN130 BKN250 07/M04 A2980 RMK AO2 SLP090 T00671039 $,
LGA,2026-01-13 20:55,-73.8803,40.7794,9.0,,,,210.0,6.0,,29.8,,10.0,,CLR,,,,,,,,,,,,,,,,KLGA 140155Z AUTO 21006KT 10SM CLR 07/M04 A2980 RMK T00701040 MADISHF,
LGA,2026-01-13 21:00,-73.8803,40.7794,9.0,,,,200.0,9.0,,29.8,,10.0,,CLR,,,,,,,,,,,,,,,,KLGA 140200Z AUTO 20009KT 10SM CLR 07/M04 A2980 RMK T00701040 MADISHF,
LGA,2026-01-13 21:05,-73.8803,40.7794,9.0,,,,200.0,7.0,,29.79,,10.0,,CLR,,,,,,,,,,,,,,,,KLGA 140205Z AUTO 20007KT 10SM CLR 07/M04 A2979 RMK T00701040 MADISHF,
LGA,2026-01-13 21:10,-73.8803,40.7794,9.0,,,,190.0,10.0,,29.79,,10.0,,CLR,,,,,,,,,,,,,,,,KLGA 140210Z AUTO 19010KT 10SM CLR 07/M03 A2979 RMK T00701030 MADISHF,
LGA,2026-01-13 21:15,-73.8803,40.7794,9.0,,,,200.0,7.0,,29.78,,10.0,,CLR,,,,,,,,,,,,,,,,KLGA 140215Z AUTO 20007KT 10SM CLR 07/M03 A2978 RMK T00701030 MADISHF,
LGA,2026-01-13 21:20,-73.8803,40.7794,9.0,,,,200.0,9.0,,29.78,,10.0,14.0,CLR,,,,,,,,,,,,,,,,KLGA 140220Z AUTO 20009G14KT 10SM CLR 07/M03 A2978 RMK T00701030 MADISHF,
LGA,2026-01-13 21:25,-73.8803,40.7794,9.0,,,,200.0,7.0,,29.78,,10.0,,CLR,,,,,,,,,,,,,,,,KLGA 140225Z AUTO 20007KT 10SM CLR 07/M03 A2978 RMK T00701030 MADISHF,
LGA,2026-01-13 21:30,-73.8803,40.7794,9.0,,,,200.0,9.0,,29.78,,10.0,,CLR,,,,,,,,,,,,,,,,KLGA 140230Z AUTO 20009KT 10SM CLR 07/M03 A2978 RMK T00701030 MADISHF,
LGA,2026-01-13 21:35,-73.8803,40.7794,9.0,,,,200.0,9.0,,29.78,,10.0,,CLR,,,,,,,,,,,,,,,,KLGA 140235Z AUTO 20009KT 10SM CLR 07/M03 A2978 RMK T00701030 MADISHF,
LGA,2026-01-13 21:40,-73.8803,40.7794,9.0,,,,200.0,10.0,,29.78,,10.0,15.0,CLR,,,,,,,,,,,,,,,,KLGA 140240Z AUTO 20010G15KT 10SM CLR 07/M03 A2978 RMK T00701030 MADISHF,
LGA,2026-01-13 21:45,-73.8803,40.7794,9.0,,,,200.0,7.0,,29.77,,10.0,,,,,,,,,,,,,,,,,,KLGA 140245Z AUTO 20007KT 10SM 07/M03 A2977 RMK T00701030 MADISHF,
LGA,2026-01-13 21:50,-73.8803,40.7794,9.0,,,,190.0,7.0,,29.77,,10.0,,,,,,,,,,,,,,,,,,KLGA 140250Z AUTO 19007KT 10SM 07/M03 A2977 RMK T00701030 MADISHF,
LGA,2026-01-13 21:51,-73.8803,40.7794,9.0,44.0,26.0,48.84,190.0,9.0,0.00,29.77,1008.0,10.0,,BKN,BKN,,,13000.0,25000.0,,,,,,,,,,38.44,KLGA 140251Z 19009KT 10SM BKN130 BKN250 07/M03 A2977 RMK AO2 SLP080 T00671033 58019 $,
LGA,2026-01-13 21:55,-73.8803,40.7794,9.0,,,,200.0,9.0,,29.77,,10.0,,,,,,,,,,,,,,,,,,KLGA 140255Z AUTO 20009KT 10SM 07/M03 A2977 RMK T00701030 MADISHF,
LGA,2026-01-13 22:00,-73.8803,40.7794,9.0,,,,200.0,8.0,,29.77,,10.0,,,,,,,,,,,,,,,,,,KLGA 140300Z AUTO 20008KT 10SM 07/M03 A2977 RMK T00701030 MADISHF,
LGA,2026-01-13 22:05,-73.8803,40.7794,9.0,,,,190.0,9.0,,29.77,,10.0,,,,,,,,,,,,,,,,,,KLGA 140305Z AUTO 19009KT 10SM 07/M03 A2977 RMK T00701030 MADISHF,
LGA,2026-01-13 22:10,-73.8803,40.7794,9.0,,,,200.0,8.0,,29.77,,10.0,,,,,,,,,,,,,,,,,,KLGA 140310Z AUTO 20008KT 10SM 07/M03 A2977 RMK T00701030 MADISHF,
LGA,2026-01-13 22:15,-73.8803,40.7794,9.0,,,,190.0,8.0,,29.76,,10.0,,,,,,,,,,,,,,,,,,KLGA 140315Z AUTO 19008KT 10SM 07/M03 A2976 RMK T00701030 MADISHF,
LGA,2026-01-13 22:20,-73.8803,40.7794,9.0,,,,190.0,9.0,,29.76,,10.0,,,,,,,,,,,,,,,,,,KLGA 140320Z AUTO 19009KT 10SM 07/M03 A2976 RMK T00701030 MADISHF,
LGA,2026-01-13 22:25,-73.8803,40.7794,9.0,,,,190.0,8.0,,29.75,,10.0,,,,,,,,,,,,,,,,,,KLGA 140325Z AUTO 19008KT 10SM 07/M03 A2975 RMK T00701030 MADISHF,
LGA,2026-01-13 22:30,-73.8803,40.7794,9.0,,,,190.0,8.0,,29.75,,10.0,,,,,,,,,,,,,,,,,,KLGA 140330Z AUTO 19008KT 10SM 07/M03 A2975 RMK T00701030 MADISHF,
LGA,2026-01-13 22:35,-73.8803,40.7794,9.0,,,,190.0,9.0,,29.75,,10.0,,,,,,,,,,,,,,,,,,KLGA 140335Z AUTO 19009KT 10SM 07/M03 A2975 RMK T00701030 MADISHF,
LGA,2026-01-13 22:40,-73.8803,40.7794,9.0,,,,180.0,8.0,,29.74,,10.0,,,,,,,,,,,,,,,,,,KLGA 140340Z AUTO 18008KT 10SM 07/M03 A2974 RMK T00701030 MADISHF,
LGA,2026-01-13 22:45,-73.8803,40.7794,9.0,,,,180.0,9.0,,29.74,,10.0,,BKN,,,,12000.0,,,,,,,,,,,,KLGA 140345Z AUTO 18009KT 10SM BKN120 07/M03 A2974 RMK T00701030 MADISHF,
LGA,2026-01-13 22:50,-73.8803,40.7794,9.0,,,,170.0,8.0,,29.74,,10.0,,BKN,,,,12000.0,,,,,,,,,,,,KLGA 140350Z AUTO 17008KT 10SM BKN120 07/M03 A2974 RMK T00701030 MADISHF,
LGA,2026-01-13 22:51,-73.8803,40.7794,9.0,43.0,27.0,52.89,180.0,9.0,0.00,29.74,1006.9,10.0,,BKN,OVC,,,12000.0,25000.0,,,,,,,,,,37.19,KLGA 140351Z 18009KT 10SM BKN120 OVC250 06/M03 A2974 RMK AO2 SLP069 T00611028 $,
LGA,2026-01-13 22:55,-73.8803,40.7794,9.0,,,,180.0,11.0,,29.73,,10.0,17.0,BKN,,,,12000.0,,,,,,,,,,,,KLGA 140355Z AUTO 18011G17KT 10SM BKN120 06/M03 A2973 RMK T00601030 MADISHF,
LGA,2026-01-13 23:00,-73.8803,40.7794,9.0,,,,180.0,9.0,,29.73,,10.0,,BKN,,,,12000.0,,,,,,,,,,,,KLGA 140400Z AUTO 18009KT 10SM BKN120 07/M03 A2973 RMK T00701030 MADISHF,
LGA,2026-01-13 23:05,-73.8803,40.7794,9.0,,,,180.0,8.0,,29.73,,10.0,,BKN,,,,12000.0,,,,,,,,,,,,KLGA 140405Z AUTO 18008KT 10SM BKN120 06/M03 A2973 RMK T00601030 MADISHF,
LGA,2026-01-13 23:10,-73.8803,40.7794,9.0,,,,180.0,8.0,,29.73,,10.0,,BKN,,,,12000.0,,,,,,,,,,,,KLGA 140410Z AUTO 18008KT 10SM BKN120 06/M03 A2973 RMK T00601030 MADISHF,
LGA,2026-01-13 23:15,-73.8803,40.7794,9.0,,,,170.0,8.0,,29.73,,10.0,,BKN,,,,12000.0,,,,,,,,,,,,KLGA 140415Z AUTO 17008KT 10SM BKN120 06/M02 A2973 RMK T00601020 MADISHF,
LGA,2026-01-13 23:20,-73.8803,40.7794,9.0,,,,180.0,10.0,,29.72,,10.0,,BKN,,,,12000.0,,,,,,,,,,,,KLGA 140420Z AUTO 18010KT 10SM BKN120 06/M02 A2972 RMK T00601020 MADISHF,
LGA,2026-01-13 23:25,-73.8803,40.7794,9.0,,,,180.0,9.0,,29.72,,10.0,,BKN,,,,12000.0,,,,,,,,,,,,KLGA 140425Z AUTO 18009KT 10SM BKN120 06/M02 A2972 RMK T00601020 MADISHF,
LGA,2026-01-13 23:30,-73.8803,40.7794,9.0,,,,170.0,8.0,,29.72,,10.0,,BKN,,,,12000.0,,,,,,,,,,,,KLGA 140430Z AUTO 17008KT 10SM BKN120 06/M02 A2972 RMK T00601020 MADISHF,
LGA,2026-01-13 23:35,-73.8803,40.7794,9.0,,,,190.0,9.0,,29.72,,10.0,,BKN,,,,12000.0,,,,,,,,,,,,KLGA 140435Z AUTO 19009KT 10SM BKN120 06/M02 A2972 RMK T00601020 MADISHF,
LGA,2026-01-13 23:40,-73.8803,40.7794,9.0,,,,180.0,8.0,,29.72,,10.0,,BKN,,,,12000.0,,,,,,,,,,,,KLGA 140440Z AUTO 18008KT 10SM BKN120 06/M02 A2972 RMK T00601020 MADISHF,
LGA,2026-01-13 23:45,-73.8803,40.7794,9.0,,,,190.0,6.0,,29.71,,10.0,,BKN,,,,10000.0,,,,,,,,,,,,KLGA 140445Z AUTO 19006KT 10SM BKN100 06/M02 A2971 RMK T00601020 MADISHF,
LGA,2026-01-13 23:50,-73.8803,40.7794,9.0,,,,180.0,6.0,,29.71,,10.0,,BKN,,,,10000.0,,,,,,,,,,,,KLGA 140450Z AUTO 18006KT 10SM BKN100 06/M02 A2971 RMK T00601020 MADISHF,
LGA,2026-01-13 23:51,-73.8803,40.7794,9.0,43.0,29.0,57.42,180.0,6.0,0.00,29.71,1005.9,10.0,,BKN,OVC,,,10000.0,25000.0,,,,,,,,,,38.78,KLGA 140451Z 18006KT 10SM BKN100 OVC250 06/M02 A2971 RMK AO2 SLP059 T00611017 400830028 $,
LGA,2026-01-13 23:55,-73.8803,40.7794,9.0,,,,170.0,6.0,,29.7,,10.0,,SCT,OVC,,,6000.0,10000.0,,,,,,,,,,,KLGA 140455Z AUTO 17006KT 10SM SCT060 OVC100 06/M02 A2970 RMK T00601020 MADISHF,
LGA,2026-01-14 00:00,-73.8803,40.7794,9.0,,,,170.0,7.0,,29.7,,10.0,,FEW,SCT,OVC,,5500.0,7000.0,10000.0,,,,,,,,,,KLGA 140500Z AUTO 17007KT 10SM FEW055 SCT070 OVC100 06/M02 A2970 RMK T00601020 MADISHF,
LGA,2026-01-14 00:05,-73.8803,40.7794,9.0,,,,180.0,6.0,,29.7,,10.0,,FEW,SCT,OVC,,5500.0,7000.0,9500.0,,,,,,,,,,KLGA 140505Z AUTO 18006KT 10SM FEW055 SCT070 OVC095 06/M02 A2970 RMK T00601020 MADISHF,
LGA,2026-01-14 00:10,-73.8803,40.7794,9.0,,,,180.0,5.0,,29.71,,10.0,,FEW,BKN,OVC,,5500.0,7000.0,9500.0,,,,,,,,,,KLGA 140510Z AUTO 18005KT 10SM FEW055 BKN070 OVC095 06/M02 A2971 RMK T00601020 MADISHF,
LGA,2026-01-14 00:15,-73.8803,40.7794,9.0,,,,190.0,3.0,,29.71,,10.0,,FEW,BKN,OVC,,5500.0,7000.0,9500.0,,,,,,,,,,KLGA 140515Z AUTO 19003KT 10SM FEW055 BKN070 OVC095 06/M02 A2971 RMK T00601020 MADISHF,
LGA,2026-01-14 00:20,-73.8803,40.7794,9.0,,,,190.0,4.0,,29.71,,10.0,,BKN,OVC,,,7000.0,9000.0,,,,,,,,,,,KLGA 140520Z AUTO 19004KT 10SM BKN070 OVC090 07/M01 A2971 RMK T00701010 MADISHF,
LGA,2026-01-14 00:25,-73.8803,40.7794,9.0,,,,190.0,4.0,,29.71,,10.0,,BKN,OVC,,,7000.0,9500.0,,,,,,,,,,,KLGA 140525Z AUTO 19004KT 10SM BKN070 OVC095 07/M01 A2971 RMK T00701010 MADISHF,
LGA,2026-01-14 00:30,-73.8803,40.7794,9.0,,,,170.0,4.0,,29.7,,10.0,,OVC,,,,7000.0,,,,,,,,,,,,KLGA 140530Z AUTO 17004KT 10SM OVC070 07/M01 A2970 RMK T00701010 MADISHF,
LGA,2026-01-14 00:35,-73.8803,40.7794,9.0,,,,170.0,5.0,,29.7,,10.0,,OVC,,,,7000.0,,,,-RA,,,,,,,,KLGA 140535Z AUTO 17005KT 10SM -RA OVC070 06/M01 A2970 RMK T00601010 MADISHF,
LGA,2026-01-14 00:40,-73.8803,40.7794,9.0,,,,160.0,5.0,,29.7,,10.0,,OVC,,,,7500.0,,,,-RA,,,,,,,,KLGA 140540Z AUTO 16005KT 10SM -RA OVC075 07/M01 A2970 RMK T00701010 MADISHF,
LGA,2026-01-14 00:45,-73.8803,40.7794,9.0,,,,170.0,4.0,,29.7,,10.0,,OVC,,,,7500.0,,,,,,,,,,,,KLGA 140545Z AUTO 17004KT 10SM OVC075 07/M01 A2970 RMK T00701010 MADISHF,
LGA,2026-01-14 00:50,-73.8803,40.7794,9.0,,,,160.0,5.0,,29.7,,10.0,,OVC,,,,7000.0,,,,-RA,,,,,,,,KLGA 140550Z AUTO 16005KT 10SM -RA OVC070 07/M01 A2970 RMK T00701010 MADISHF,
LGA,2026-01-14 00:51,-73.8803,40.7794,9.0,44.0,30.0,57.57,170.0,5.0,T,29.7,1005.6,10.0,,OVC,,,,7000.0,,,,-RA,,,,,,,40.65,KLGA 140551Z 17005KT 10SM -RA OVC070 07/M01 A2970 RMK AO2 RAB33 SLP056 P0000 60000 T00671011 10067 20061 56024 $,
LGA,2026-01-14 00:55,-73.8803,40.7794,9.0,,,,180.0,4.0,,29.7,,10.0,,OVC,,,,7000.0,,,,-RA,,,,,,,,KLGA 140555Z AUTO 18004KT 10SM -RA OVC070 07/M01 A2970 RMK T00701010 MADISHF,
LGA,2026-01-14 01:00,-73.8803,40.7794,9.0,,,,170.0,5.0,,29.7,,10.0,,OVC,,,,7500.0,,,,-RA,,,,,,,,KLGA 140600Z AUTO 17005KT 10SM -RA OVC075 07/M01 A2970 RMK T00701010 MADISHF,
LGA,2026-01-14 01:05,-73.8803,40.7794,9.0,,,,200.0,3.0,,29.7,,10.0,,OVC,,,,7000.0,,,,-RA,,,,,,,,KLGA 140605Z AUTO 20003KT 10SM -RA OVC070 07/M01 A2970 RMK T00701010 MADISHF,
LGA,2026-01-14 01:10,-73.8803,40.7794,9.0,,,,190.0,4.0,,29.7,,10.0,,BKN,OVC,,,7000.0,10000.0,,,,,,,,,,,KLGA 140610Z AUTO 19004KT 10SM BKN070 OVC100 07/M01 A2970 RMK T00701010 MADISHF,
LGA,2026-01-14 01:15,-73.8803,40.7794,9.0,,,,170.0,4.0,,29.7,,10.0,,BKN,OVC,,,7000.0,11000.0,,,,,,,,,,,KLGA 140615Z AUTO 17004KT 10SM BKN070 OVC110 07/M01 A2970 RMK T00701010 MADISHF,
LGA,2026-01-14 01:20,-73.8803,40.7794,9.0,,,,180.0,5.0,,29.69,,10.0,,SCT,OVC,,,7500.0,11000.0,,,,,,,,,,,KLGA 140620Z AUTO 18005KT 10SM SCT075 OVC110 07/M01 A2969 RMK T00701010 MADISHF,
LGA,2026-01-14 01:25,-73.8803,40.7794,9.0,,,,190.0,4.0,,29.69,,10.0,,FEW,OVC,,,7500.0,11000.0,,,,,,,,,,,KLGA 140625Z AUTO 19004KT 10SM FEW075 OVC110 07/M01 A2969 RMK T00701010 MADISHF,
LGA,2026-01-14 01:30,-73.8803,40.7794,9.0,,,,170.0,3.0,,29.7,,10.0,,FEW,OVC,,,7500.0,11000.0,,,,,,,,,,,KLGA 140630Z AUTO 17003KT 10SM FEW075 OVC110 07/M01 A2970 RMK T00701010 MADISHF,
LGA,2026-01-14 01:35,-73.8803,40.7794,9.0,,,,180.0,4.0,,29.7,,10.0,,OVC,,,,11000.0,,,,,,,,,,,,KLGA 140635Z AUTO 18004KT 10SM OVC110 07/M01 A2970 RMK T00701010 MADISHF,
LGA,2026-01-14 01:40,-73.8803,40.7794,9.0,,,,170.0,4.0,,29.69,,10.0,,OVC,,,,11000.0,,,,,,,,,,,,KLGA 140640Z AUTO 17004KT 10SM OVC110 07/M01 A2969 RMK T00701010 MADISHF,
LGA,2026-01-14 01:45,-73.8803,40.7794,9.0,,,,170.0,5.0,,29.69,,10.0,,OVC,,,,12000.0,,,,,,,,,,,,KLGA 140645Z AUTO 17005KT 10SM OVC120 07/M01 A2969 RMK T00701010 MADISHF,
LGA,2026-01-14 01:50,-73.8803,40.7794,9.0,,,,160.0,6.0,,29.69,,10.0,,OVC,,,,12000.0,,,,,,,,,,,,KLGA 140650Z AUTO 16006KT 10SM OVC120 07/M01 A2969 RMK T00701010 MADISHF,
LGA,2026-01-14 01:51,-73.8803,40.7794,9.0,44.0,30.0,57.57,170.0,6.0,T,29.69,1005.2,10.0,,OVC,,,,12000.0,,,,,,,,,,,39.98,KLGA 140651Z 17006KT 10SM OVC120 07/M01 A2969 RMK AO2 RAE10 SLP052 P0000 T00671011 $,
LGA,2026-01-14 01:55,-73.8803,40.7794,9.0,,,,170.0,5.0,,29.69,,10.0,,OVC,,,,12000.0,,,,,,,,,,,,KLGA 140655Z AUTO 17005KT 10SM OVC120 07/M01 A2969 RMK T00701010 MADISHF,
LGA,2026-01-14 02:00,-73.8803,40.7794,9.0,,,,170.0,5.0,,29.69,,10.0,,FEW,OVC,,,8000.0,11000.0,,,,,,,,,,,KLGA 140700Z AUTO 17005KT 10SM FEW080 OVC110 07/M01 A2969 RMK T00701010 MADISHF,
LGA,2026-01-14 02:05,-73.8803,40.7794,9.0,,,,180.0,5.0,,29.69,,10.0,,SCT,OVC,,,8000.0,12000.0,,,,,,,,,,,KLGA 140705Z AUTO 18005KT 10SM SCT080 OVC120 07/M01 A2969 RMK T00701010 MADISHF,
LGA,2026-01-14 02:10,-73.8803,40.7794,9.0,,,,180.0,4.0,,29.69,,10.0,,BKN,OVC,,,8000.0,11000.0,,,,,,,,,,,KLGA 140710Z AUTO 18004KT 10SM BKN080 OVC110 07/M01 A2969 RMK T00701010 MADISHF,
LGA,2026-01-14 02:15,-73.8803,40.7794,9.0,,,,180.0,5.0,,29.69,,10.0,,BKN,OVC,,,8000.0,11000.0,,,,,,,,,,,KLGA 140715Z AUTO 18005KT 10SM BKN080 OVC110 07/M01 A2969 RMK T00701010 MADISHF,
LGA,2026-01-14 02:20,-73.8803,40.7794,9.0,,,,180.0,4.0,,29.68,,10.0,,BKN,BKN,,,8000.0,11000.0,,,,,,,,,,,KLGA 140720Z AUTO 18004KT 10SM BKN080 BKN110 07/M02 A2968 RMK T00701020 MADISHF,
LGA,2026-01-14 02:25,-73.8803,40.7794,9.0,,,,180.0,4.0,,29.68,,10.0,,BKN,,,,8000.0,,,,,,,,,,,,KLGA 140725Z AUTO 18004KT 10SM BKN080 07/M02 A2968 RMK T00701020 MADISHF,
LGA,2026-01-14 02:30,-73.8803,40.7794,9.0,,,,180.0,6.0,,29.68,,10.0,,SCT,,,,8000.0,,,,,,,,,,,,KLGA 140730Z AUTO 18006KT 10SM SCT080 07/M02 A2968 RMK T00701020 MADISHF,
LGA,2026-01-14 02:35,-73.8803,40.7794,9.0,,,,190.0,7.0,,29.68,,10.0,,SCT,,,,8000.0,,,,,,,,,,,,KLGA 140735Z AUTO 19007KT 10SM SCT080 07/M02 A2968 RMK T00701020 MADISHF,
LGA,2026-01-14 02:40,-73.8803,40.7794,9.0,,,,180.0,7.0,,29.68,,10.0,,FEW,,,,8000.0,,,,,,,,,,,,KLGA 140740Z AUTO 18007KT 10SM FEW080 07/M02 A2968 RMK T00701020 MADISHF,
LGA,2026-01-14 02:45,-73.8803,40.7794,9.0,,,,180.0,6.0,,29.68,,10.0,,FEW,,,,8000.0,,,,,,,,,,,,KLGA 140745Z AUTO 18006KT 10SM FEW080 07/M02 A2968 RMK T00701020 MADISHF,
LGA,2026-01-14 02:50,-73.8803,40.7794,9.0,,,,190.0,5.0,,29.67,,10.0,,SCT,,,,8000.0,,,,,,,,,,,,KLGA 140750Z AUTO 19005KT 10SM SCT080 07/M02 A2967 RMK T00701020 MADISHF,
LGA,2026-01-14 02:51,-73.8803,40.7794,9.0,45.0,28.0,51.06,190.0,4.0,0.00,29.67,1004.8,10.0,,SCT,OVC,,,8000.0,15000.0,,,,,,,,,,42.6,KLGA 140751Z 19004KT 10SM SCT080 OVC150 07/M02 A2967 RMK AO2 SLP048 T00721022 $,
LGA,2026-01-14 02:55,-73.8803,40.7794,9.0,,,,190.0,5.0,,29.68,,10.0,,SCT,,,,8000.0,,,,,,,,,,,,KLGA 140755Z AUTO 19005KT 10SM SCT080 07/M02 A2968 RMK T00701020 MADISHF,
LGA,2026-01-14 03:00,-73.8803,40.7794,9.0,,,,190.0,4.0,,29.67,,10.0,,SCT,,,,8000.0,,,,,,,,,,,,KLGA 140800Z AUTO 19004KT 10SM SCT080 07/M02 A2967 RMK T00701020 MADISHF,
LGA,2026-01-14 03:05,-73.8803,40.7794,9.0,,,,190.0,4.0,,29.67,,10.0,,SCT,,,,8000.0,,,,,,,,,,,,KLGA 140805Z AUTO 19004KT 10SM SCT080 07/M02 A2967 RMK T00701020 MADISHF,
LGA,2026-01-14 03:10,-73.8803,40.7794,9.0,,,,190.0,4.0,,29.67,,10.0,,SCT,,,,8000.0,,,,,,,,,,,,KLGA 140810Z AUTO 19004KT 10SM SCT080 07/M02 A2967 RMK T00701020 MADISHF,
LGA,2026-01-14 03:15,-73.8803,40.7794,9.0,,,,190.0,4.0,,29.67,,10.0,,SCT,,,,8000.0,,,,,,,,,,,,KLGA 140815Z AUTO 19004KT 10SM SCT080 07/M02 A2967 RMK T00701020 MADISHF,
LGA,2026-01-14 03:20,-73.8803,40.7794,9.0,,,,190.0,4.0,,29.67,,10.0,,SCT,,,,8000.0,,,,,,,,,,,,KLGA 140820Z AUTO 19004KT 10SM SCT080 07/M02 A2967 RMK T00701020 MADISHF,
LGA,2026-01-14 03:25,-73.8803,40.7794,9.0,,,,190.0,5.0,,29.67,,10.0,,SCT,,,,8000.0,,,,,,,,,,,,KLGA 140825Z AUTO 19005KT 10SM SCT080 07/M02 A2967 RMK T00701020 MADISHF,
LGA,2026-01-14 03:30,-73.8803,40.7794,9.0,,,,190.0,6.0,,29.67,,10.0,,SCT,,,,8000.0,,,,,,,,,,,,KLGA 140830Z AUTO 19006KT 10SM SCT080 07/M03 A2967 RMK T00701030 MADISHF,
LGA,2026-01-14 03:35,-73.8803,40.7794,9.0,,,,200.0,6.0,,29.66,,10.0,,SCT,,,,8000.0,,,,,,,,,,,,KLGA 140835Z AUTO 20006KT 10SM SCT080 07/M03 A2966 RMK T00701030 MADISHF,
LGA,2026-01-14 03:40,-73.8803,40.7794,9.0,,,,190.0,5.0,,29.66,,10.0,,SCT,,,,8000.0,,,,,,,,,,,,KLGA 140840Z AUTO 19005KT 10SM SCT080 07/M03 A2966 RMK T00701030 MADISHF,
LGA,2026-01-14 03:45,-73.8803,40.7794,9.0,,,,190.0,5.0,,29.66,,10.0,,SCT,,,,8000.0,,,,,,,,,,,,KLGA 140845Z AUTO 19005KT 10SM SCT080 07/M03 A2966 RMK T00701030 MADISHF,
LGA,2026-01-14 03:50,-73.8803,40.7794,9.0,,,,190.0,5.0,,29.66,,10.0,,FEW,,,,8000.0,,,,,,,,,,,,KLGA 140850Z AUTO 19005KT 10SM FEW080 07/M03 A2966 RMK T00701030 MADISHF,
LGA,2026-01-14 03:51,-73.8803,40.7794,9.0,45.0,26.0,47.01,190.0,6.0,0.00,29.66,1004.4,10.0,,FEW,SCT,OVC,,8000.0,15000.0,25000.0,,,,,,,,,41.19,KLGA 140851Z 19006KT 10SM FEW080 SCT150 OVC250 07/M03 A2966 RMK AO2 SLP044 60000 T00721033 58012 $,
LGA,2026-01-14 03:55,-73.8803,40.7794,9.0,,,,190.0,5.0,,29.66,,10.0,,,,,,,,,,,,,,,,,,KLGA 140855Z AUTO 19005KT 10SM 07/M03 A2966 RMK T00701030 MADISHF,
LGA,2026-01-14 04:00,-73.8803,40.7794,9.0,,,,180.0,4.0,,29.66,,10.0,,,,,,,,,,,,,,,,,,KLGA 140900Z AUTO 18004KT 10SM 07/M04 A2966 RMK T00701040 MADISHF,
LGA,2026-01-14 04:05,-73.8803,40.7794,9.0,,,,190.0,5.0,,29.66,,10.0,,,,,,,,,,,,,,,,,,KLGA 140905Z AUTO 19005KT 10SM 07/M04 A2966 RMK T00701040 MADISHF,
LGA,2026-01-14 04:10,-73.8803,40.7794,9.0,,,,190.0,5.0,,29.66,,10.0,,,,,,,,,,,,,,,,,,KLGA 140910Z AUTO 19005KT 10SM 07/M04 A2966 RMK T00701040 MADISHF,
LGA,2026-01-14 04:15,-73.8803,40.7794,9.0,,,,190.0,5.0,,29.66,,10.0,,,,,,,,,,,,,,,,,,KLGA 140915Z AUTO 19005KT 10SM 07/M04 A2966 RMK T00701040 MADISHF,
LGA,2026-01-14 04:20,-73.8803,40.7794,9.0,,,,180.0,5.0,,29.65,,10.0,,,,,,,,,,,,,,,,,,KLGA 140920Z AUTO 18005KT 10SM 07/M04 A2965 RMK T00701040 MADISHF,
LGA,2026-01-14 04:25,-73.8803,40.7794,9.0,,,,170.0,3.0,,29.65,,10.0,,,,,,,,,,,,,,,,,,KLGA 140925Z AUTO 17003KT 10SM 07/M04 A2965 RMK T00701040 MADISHF,
LGA,2026-01-14 04:30,-73.8803,40.7794,9.0,,,,180.0,4.0,,29.65,,10.0,,,,,,,,,,,,,,,,,,KLGA 140930Z AUTO 18004KT 10SM 07/M04 A2965 RMK T00701040 MADISHF,
LGA,2026-01-14 04:35,-73.8803,40.7794,9.0,,,,180.0,5.0,,29.65,,10.0,,,,,,,,,,,,,,,,,,KLGA 140935Z AUTO 18005KT 10SM 07/M04 A2965 RMK T00701040 MADISHF,
LGA,2026-01-14 04:40,-73.8803,40.7794,9.0,,,,180.0,5.0,,29.65,,10.0,,,,,,,,,,,,,,,,,,KLGA 140940Z AUTO 18005KT 10SM 07/M04 A2965 RMK T00701040 MADISHF,
LGA,2026-01-14 04:45,-73.8803,40.7794,9.0,,,,180.0,5.0,,29.65,,10.0,,,,,,,,,,,,,,,,,,KLGA 140945Z AUTO 18005KT 10SM 07/M04 A2965 RMK T00701040 MADISHF,
LGA,2026-01-14 04:50,-73.8803,40.7794,9.0,,,,180.0,4.0,,29.65,,10.0,,,,,,,,,,,,,,,,,,KLGA 140950Z AUTO 18004KT 10SM 07/M04 A2965 RMK T00701040 MADISHF,
LGA,2026-01-14 04:51,-73.8803,40.7794,9.0,44.0,25.0,46.85,180.0,4.0,0.00,29.65,1004.1,10.0,,FEW,BKN,,,15000.0,25000.0,,,,,,,,,,41.43,KLGA 140951Z 18004KT 10SM FEW150 BKN250 07/M04 A2965 RMK AO2 SLP041 T00671039 $,
LGA,2026-01-14 04:55,-73.8803,40.7794,9.0,,,,170.0,4.0,,29.65,,10.0,,CLR,,,,,,,,,,,,,,,,KLGA 140955Z AUTO 17004KT 10SM CLR 07/M04 A2965 RMK T00701040 MADISHF,
LGA,2026-01-14 05:00,-73.8803,40.7794,9.0,,,,180.0,4.0,,29.65,,10.0,,CLR,,,,,,,,,,,,,,,,KLGA 141000Z AUTO 18004KT 10SM CLR 07/M04 A2965 RMK T00701040 MADISHF,
LGA,2026-01-14 05:05,-73.8803,40.7794,9.0,,,,170.0,4.0,,29.66,,10.0,,CLR,,,,,,,,,,,,,,,,KLGA 141005Z AUTO 17004KT 10SM CLR 07/M04 A2966 RMK T00701040 MADISHF,
LGA,2026-01-14 05:10,-73.8803,40.7794,9.0,,,,180.0,6.0,,29.66,,10.0,,CLR,,,,,,,,,,,,,,,,KLGA 141010Z AUTO 18006KT 10SM CLR 07/M04 A2966 RMK T00701040 MADISHF,
LGA,2026-01-14 05:15,-73.8803,40.7794,9.0,,,,170.0,5.0,,29.66,,10.0,,CLR,,,,,,,,,,,,,,,,KLGA 141015Z AUTO 17005KT 10SM CLR 07/M04 A2966 RMK T00701040 MADISHF,
LGA,2026-01-14 05:20,-73.8803,40.7794,9.0,,,,180.0,5.0,,29.66,,10.0,,CLR,,,,,,,,,,,,,,,,KLGA 141020Z AUTO 18005KT 10SM CLR 07/M04 A2966 RMK T00701040 MADISHF,
LGA,2026-01-14 05:25,-73.8803,40.7794,9.0,,,,180.0,5.0,,29.66,,10.0,,CLR,,,,,,,,,,,,,,,,KLGA 141025Z AUTO 18005KT 10SM CLR 07/M04 A2966 RMK T00701040 MADISHF,
LGA,2026-01-14 05:30,-73.8803,40.7794,9.0,,,,190.0,5.0,,29.66,,10.0,,CLR,,,,,,,,,,,,,,,,KLGA 141030Z AUTO 19005KT 10SM CLR 07/M04 A2966 RMK T00701040 MADISHF,
LGA,2026-01-14 05:35,-73.8803,40.7794,9.0,,,,190.0,5.0,,29.66,,10.0,,CLR,,,,,,,,,,,,,,,,KLGA 141035Z AUTO 19005KT 10SM CLR 07/M04 A2966 RMK T00701040 MADISHF,
LGA,2026-01-14 05:40,-73.8803,40.7794,9.0,,,,190.0,6.0,,29.66,,10.0,,,,,,,,,,,,,,,,,,KLGA 141040Z AUTO 19006KT 10SM 07/M04 A2966 RMK T00701040 MADISHF,
LGA,2026-01-14 05:45,-73.8803,40.7794,9.0,,,,190.0,6.0,,29.66,,10.0,,,,,,,,,,,,,,,,,,KLGA 141045Z AUTO 19006KT 10SM 07/M04 A2966 RMK T00701040 MADISHF,
LGA,2026-01-14 05:50,-73.8803,40.7794,9.0,,,,180.0,6.0,,29.66,,10.0,,,,,,,,,,,,,,,,,,KLGA 141050Z AUTO 18006KT 10SM 07/M04 A2966 RMK T00701040 MADISHF,
LGA,2026-01-14 05:51,-73.8803,40.7794,9.0,45.0,24.0,43.25,180.0,5.0,0.00,29.66,1004.4,10.0,,SCT,BKN,,,20000.0,25000.0,,,,,,,,,,41.83,KLGA 141051Z 18005KT 10SM SCT200 BKN250 07/M04 A2966 RMK AO2 SLP044 T00721044 $,
LGA,2026-01-14 05:55,-73.8803,40.7794,9.0,,,,170.0,4.0,,29.66,,10.0,,CLR,,,,,,,,,,,,,,,,KLGA 141055Z AUTO 17004KT 10SM CLR 07/M04 A2966 RMK T00701040 MADISHF,
LGA,2026-01-14 06:00,-73.8803,40.7794,9.0,,,,170.0,5.0,,29.67,,10.0,,CLR,,,,,,,,,,,,,,,,KLGA 141100Z AUTO 17005KT 10SM CLR 07/M04 A2967 RMK T00701040 MADISHF,
LGA,2026-01-14 06:05,-73.8803,40.7794,9.0,,,,170.0,5.0,,29.67,,10.0,,CLR,,,,,,,,,,,,,,,,KLGA 141105Z AUTO 17005KT 10SM CLR 06/M04 A2967 RMK T00601040 MADISHF,
LGA,2026-01-14 06:10,-73.8803,40.7794,9.0,,,,170.0,6.0,,29.67,,10.0,,CLR,,,,,,,,,,,,,,,,KLGA 141110Z AUTO 17006KT 10SM CLR 06/M03 A2967 RMK T00601030 MADISHF,
LGA,2026-01-14 06:15,-73.8803,40.7794,9.0,,,,180.0,5.0,,29.67,,10.0,,,,,,,,,,,,,,,,,,KLGA 141115Z AUTO 18005KT 10SM 06/M03 A2967 RMK T00601030 MADISHF,
LGA,2026-01-14 06:20,-73.8803,40.7794,9.0,,,,170.0,6.0,,29.67,,10.0,,,,,,,,,,,,,,,,,,KLGA 141120Z AUTO 17006KT 10SM 06/M03 A2967 RMK T00601030 MADISHF,
LGA,2026-01-14 06:25,-73.8803,40.7794,9.0,,,,170.0,6.0,,29.67,,10.0,,,,,,,,,,,,,,,,,,KLGA 141125Z AUTO 17006KT 10SM 06/M03 A2967 RMK T00601030 MADISHF,
LGA,2026-01-14 06:30,-73.8803,40.7794,9.0,,,,170.0,6.0,,29.67,,10.0,,,,,,,,,,,,,,,,,,KLGA 141130Z AUTO 17006KT 10SM 07/M03 A2967 RMK T00701030 MADISHF,
LGA,2026-01-14 06:35,-73.8803,40.7794,9.0,,,,160.0,7.0,,29.67,,10.0,,,,,,,,,,,,,,,,,,KLGA 141135Z AUTO 16007KT 10SM 06/M03 A2967 RMK T00601030 MADISHF,
LGA,2026-01-14 06:40,-73.8803,40.7794,9.0,,,,170.0,7.0,,29.67,,10.0,,,,,,,,,,,,,,,,,,KLGA 141140Z AUTO 17007KT 10SM 06/M03 A2967 RMK T00601030 MADISHF,
LGA,2026-01-14 06:45,-73.8803,40.7794,9.0,,,,170.0,6.0,,29.66,,10.0,,,,,,,,,,,,,,,,,,KLGA 141145Z AUTO 17006KT 10SM 06/M03 A2966 RMK T00601030 MADISHF,
LGA,2026-01-14 06:50,-73.8803,40.7794,9.0,,,,170.0,6.0,,29.66,,10.0,,,,,,,,,,,,,,,,,,KLGA 141150Z AUTO 17006KT 10SM 06/M03 A2966 RMK T00601030 MADISHF,
LGA,2026-01-14 06:51,-73.8803,40.7794,9.0,43.0,26.0,50.75,170.0,6.0,0.00,29.66,1004.5,10.0,,FEW,BKN,BKN,,10000.0,19000.0,25000.0,,,,,,,,,38.78,KLGA 141151Z COR 17006KT 10SM FEW100 BKN190 BKN250 06/M03 A2966 RMK AO2 SLP045 60000 T00611033 10072 20056 53001 $,
LGA,2026-01-14 06:55,-73.8803,40.7794,9.0,,,,170.0,5.0,,29.67,,10.0,,FEW,,,,10000.0,,,,,,,,,,,,KLGA 141155Z AUTO 17005KT 10SM FEW100 06/M03 A2967 RMK T00601030 MADISHF,
LGA,2026-01-14 07:00,-73.8803,40.7794,9.0,,,,180.0,6.0,,29.66,,10.0,,FEW,,,,10000.0,,,,,,,,,,,,KLGA 141200Z AUTO 18006KT 10SM FEW100 06/M03 A2966 RMK T00601030 MADISHF,
LGA,2026-01-14 07:05,-73.8803,40.7794,9.0,,,,180.0,7.0,,29.66,,10.0,,FEW,,,,10000.0,,,,,,,,,,,,KLGA 141205Z AUTO 18007KT 10SM FEW100 06/M03 A2966 RMK T00601030 MADISHF,
LGA,2026-01-14 07:10,-73.8803,40.7794,9.0,,,,180.0,6.0,,29.67,,10.0,,FEW,,,,10000.0,,,,,,,,,,,,KLGA 141210Z AUTO 18006KT 10SM FEW100 07/M03 A2967 RMK T00701030 MADISHF,
LGA,2026-01-14 07:15,-73.8803,40.7794,9.0,,,,170.0,7.0,,29.67,,10.0,,FEW,,,,10000.0,,,,,,,,,,,,KLGA 141215Z AUTO 17007KT 10SM FEW100 06/M03 A2967 RMK T00601030 MADISHF,
LGA,2026-01-14 07:20,-73.8803,40.7794,9.0,,,,180.0,6.0,,29.67,,10.0,,FEW,,,,10000.0,,,,,,,,,,,,KLGA 141220Z AUTO 18006KT 10SM FEW100 06/M03 A2967 RMK T00601030 MADISHF,
LGA,2026-01-14 07:25,-73.8803,40.7794,9.0,,,,170.0,6.0,,29.67,,10.0,,FEW,,,,10000.0,,,,,,,,,,,,KLGA 141225Z AUTO 17006KT 10SM FEW100 06/M03 A2967 RMK T00601030 MADISHF,
LGA,2026-01-14 07:30,-73.8803,40.7794,9.0,,,,170.0,7.0,,29.67,,10.0,,FEW,,,,10000.0,,,,,,,,,,,,KLGA 141230Z AUTO 17007KT 10SM FEW100 06/M03 A2967 RMK T00601030 MADISHF,
LGA,2026-01-14 07:35,-73.8803,40.7794,9.0,,,,180.0,6.0,,29.67,,10.0,,FEW,,,,10000.0,,,,,,,,,,,,KLGA 141235Z AUTO 18006KT 10SM FEW100 07/M03 A2967 RMK T00701030 MADISHF,
LGA,2026-01-14 07:40,-73.8803,40.7794,9.0,,,,180.0,6.0,,29.67,,10.0,,FEW,,,,10000.0,,,,,,,,,,,,KLGA 141240Z AUTO 18006KT 10SM FEW100 07/M03 A2967 RMK T00701030 MADISHF,
LGA,2026-01-14 07:45,-73.8803,40.7794,9.0,,,,180.0,7.0,,29.67,,10.0,,FEW,,,,10000.0,,,,,,,,,,,,KLGA 141245Z AUTO 18007KT 10SM FEW100 07/M03 A2967 RMK T00701030 MADISHF,
LGA,2026-01-14 07:50,-73.8803,40.7794,9.0,,,,180.0,6.0,,29.67,,10.0,,FEW,,,,10000.0,,,,,,,,,,,,KLGA 141250Z AUTO 18006KT 10SM FEW100 07/M03 A2967 RMK T00701030 MADISHF,
LGA,2026-01-14 07:51,-73.8803,40.7794,9.0,44.0,27.0,50.9,180.0,6.0,0.00,29.67,1004.7,10.0,,FEW,BKN,BKN,,10000.0,19000.0,25000.0,,,,,,,,,39.98,KLGA 141251Z 18006KT 10SM FEW100 BKN190 BKN250 07/M03 A2967 RMK AO2 SLP047 T00671028 $,
LGA,2026-01-14 07:55,-73.8803,40.7794,9.0,,,,180.0,6.0,,29.67,,10.0,,FEW,,,,12000.0,,,,,,,,,,,,KLGA 141255Z AUTO 18006KT 10SM FEW120 07/M03 A2967 RMK T00701030 MADISHF,
LGA,2026-01-14 08:00,-73.8803,40.7794,9.0,,,,180.0,5.0,,29.67,,10.0,,SCT,,,,12000.0,,,,,,,,,,,,KLGA 141300Z AUTO 18005KT 10SM SCT120 07/M03 A2967 RMK T00701030 MADISHF,
LGA,2026-01-14 08:05,-73.8803,40.7794,9.0,,,,180.0,5.0,,29.67,,10.0,,BKN,,,,12000.0,,,,,,,,,,,,KLGA 141305Z AUTO 18005KT 10SM BKN120 07/M03 A2967 RMK T00701030 MADISHF,
LGA,2026-01-14 08:10,-73.8803,40.7794,9.0,,,,180.0,6.0,,29.67,,10.0,,SCT,,,,12000.0,,,,,,,,,,,,KLGA 141310Z AUTO 18006KT 10SM SCT120 07/M03 A2967 RMK T00701030 MADISHF,
LGA,2026-01-14 08:15,-73.8803,40.7794,9.0,,,,170.0,6.0,,29.68,,10.0,,SCT,,,,12000.0,,,,,,,,,,,,KLGA 141315Z AUTO 17006KT 10SM SCT120 07/M03 A2968 RMK T00701030 MADISHF,
LGA,2026-01-14 08:20,-73.8803,40.7794,9.0,,,,170.0,6.0,,29.68,,10.0,,BKN,,,,12000.0,,,,,,,,,,,,KLGA 141320Z AUTO 17006KT 10SM BKN120 07/M03 A2968 RMK T00701030 MADISHF,
LGA,2026-01-14 08:25,-73.8803,40.7794,9.0,,,,180.0,6.0,,29.68,,10.0,,BKN,,,,12000.0,,,,,,,,,,,,KLGA 141325Z AUTO 18006KT 10SM BKN120 07/M03 A2968 RMK T00701030 MADISHF,
LGA,2026-01-14 08:30,-73.8803,40.7794,9.0,,,,170.0,6.0,,29.68,,10.0,,BKN,,,,11000.0,,,,,,,,,,,,KLGA 141330Z AUTO 17006KT 10SM BKN110 07/M03 A2968 RMK T00701030 MADISHF,
LGA,2026-01-14 08:35,-73.8803,40.7794,9.0,,,,170.0,6.0,,29.68,,10.0,,BKN,,,,11000.0,,,,,,,,,,,,KLGA 141335Z AUTO 17006KT 10SM BKN110 07/M03 A2968 RMK T00701030 MADISHF,
LGA,2026-01-14 08:40,-73.8803,40.7794,9.0,,,,170.0,7.0,,29.68,,10.0,,OVC,,,,11000.0,,,,,,,,,,,,KLGA 141340Z AUTO 17007KT 10SM OVC110 07/M03 A2968 RMK T00701030 MADISHF,
LGA,2026-01-14 08:45,-73.8803,40.7794,9.0,,,,160.0,7.0,,29.68,,10.0,,OVC,,,,11000.0,,,,,,,,,,,,KLGA 141345Z AUTO 16007KT 10SM OVC110 07/M02 A2968 RMK T00701020 MADISHF,
LGA,2026-01-14 08:50,-73.8803,40.7794,9.0,,,,160.0,7.0,,29.68,,10.0,,OVC,,,,11000.0,,,,,,,,,,,,KLGA 141350Z AUTO 16007KT 10SM OVC110 07/M02 A2968 RMK T00701020 MADISHF,
LGA,2026-01-14 08:51,-73.8803,40.7794,9.0,44.0,28.0,53.04,160.0,7.0,0.00,29.68,1005.1,10.0,,BKN,OVC,,,11000.0,20000.0,,,,,,,,,,39.41,KLGA 141351Z 16007KT 10SM BKN110 OVC200 07/M02 A2968 RMK AO2 SLP051 T00671022 $,
LGA,2026-01-14 08:55,-73.8803,40.7794,9.0,,,,170.0,7.0,,29.68,,10.0,,BKN,,,,11000.0,,,,,,,,,,,,KLGA 141355Z AUTO 17007KT 10SM BKN110 07/M02 A2968 RMK T00701020 MADISHF,
LGA,2026-01-14 09:00,-73.8803,40.7794,9.0,,,,170.0,6.0,,29.68,,10.0,,BKN,,,,11000.0,,,,,,,,,,,,KLGA 141400Z AUTO 17006KT 10SM BKN110 07/M02 A2968 RMK T00701020 MADISHF,
LGA,2026-01-14 09:05,-73.8803,40.7794,9.0,,,,170.0,6.0,,29.68,,10.0,,BKN,,,,11000.0,,,,,,,,,,,,KLGA 141405Z AUTO 17006KT 10SM BKN110 07/M02 A2968 RMK T00701020 MADISHF,
LGA,2026-01-14 09:10,-73.8803,40.7794,9.0,,,,180.0,7.0,,29.69,,10.0,,BKN,,,,11000.0,,,,,,,,,,,,KLGA 141410Z AUTO 18007KT 10SM BKN110 08/M02 A2969 RMK T00801020 MADISHF,
LGA,2026-01-14 09:15,-73.8803,40.7794,9.0,,,,190.0,8.0,,29.69,,10.0,,BKN,,,,11000.0,,,,,,,,,,,,KLGA 141415Z AUTO 19008KT 10SM BKN110 08/M03 A2969 RMK T00801030 MADISHF,
LGA,2026-01-14 09:20,-73.8803,40.7794,9.0,,,,200.0,9.0,,29.69,,10.0,,BKN,,,,11000.0,,,,,,,,,,,,KLGA 141420Z AUTO 20009KT 10SM BKN110 08/M04 A2969 RMK T00801040 MADISHF,
LGA,2026-01-14 09:25,-73.8803,40.7794,9.0,,,,210.0,8.0,,29.69,,10.0,,BKN,,,,11000.0,,,,,,,,,,,,KLGA 141425Z AUTO 21008KT 10SM BKN110 08/M05 A2969 RMK T00801050 MADISHF,
LGA,2026-01-14 09:30,-73.8803,40.7794,9.0,,,,210.0,6.0,,29.69,,10.0,,BKN,,,,11000.0,,,,,,,,,,,,KLGA 141430Z AUTO 21006KT 10SM BKN110 08/M05 A2969 RMK T00801050 MADISHF,
LGA,2026-01-14 09:35,-73.8803,40.7794,9.0,,,,210.0,6.0,,29.69,,10.0,,BKN,,,,11000.0,,,,,,,,,,,,KLGA 141435Z AUTO 21006KT 10SM BKN110 08/M05 A2969 RMK T00801050 MADISHF,
LGA,2026-01-14 09:40,-73.8803,40.7794,9.0,,,,200.0,7.0,,29.69,,10.0,,BKN,,,,11000.0,,,,,,,,,,,,KLGA 141440Z AUTO 20007KT 10SM BKN110 09/M06 A2969 RMK T00901060 MADISHF,
LGA,2026-01-14 09:45,-73.8803,40.7794,9.0,,,,190.0,6.0,,29.69,,10.0,,BKN,,,,11000.0,,,,,,,,,,,,KLGA 141445Z AUTO 19006KT 10SM BKN110 09/M06 A2969 RMK T00901060 MADISHF,
LGA,2026-01-14 09:50,-73.8803,40.7794,9.0,,,,180.0,8.0,,29.69,,10.0,,BKN,,,,11000.0,,,,,,,,,,,,KLGA 141450Z AUTO 18008KT 10SM BKN110 09/M05 A2969 RMK T00901050 MADISHF,
LGA,2026-01-14 09:51,-73.8803,40.7794,9.0,48.0,23.0,37.03,180.0,8.0,0.00,29.69,1005.2,10.0,,BKN,OVC,,,11000.0,20000.0,,,,,,,,,,43.82,KLGA 141451Z 18008KT 10SM BKN110 OVC200 09/M05 A2969 RMK AO2 SLP052 T00891050 51007 $,
LGA,2026-01-14 09:55,-73.8803,40.7794,9.0,,,,180.0,8.0,,29.69,,10.0,,BKN,,,,11000.0,,,,,,,,,,,,KLGA 141455Z AUTO 18008KT 10SM BKN110 09/M06 A2969 RMK T00901060 MADISHF,
LGA,2026-01-14 10:00,-73.8803,40.7794,9.0,,,,190.0,9.0,,29.69,,10.0,,BKN,,,,11000.0,,,,,,,,,,,,KLGA 141500Z AUTO 19009KT 10SM BKN110 09/M06 A2969 RMK T00901060 MADISHF,
LGA,2026-01-14 10:05,-73.8803,40.7794,9.0,,,,200.0,7.0,,29.68,,10.0,,BKN,,,,11000.0,,,,,,,,,,,,KLGA 141505Z AUTO 20007KT 10SM BKN110 09/M06 A2968 RMK T00901060 MADISHF,
LGA,2026-01-14 10:10,-73.8803,40.7794,9.0,,,,200.0,6.0,,29.68,,10.0,,BKN,,,,11000.0,,,,,,,,,,,,KLGA 141510Z AUTO 20006KT 10SM BKN110 09/M06 A2968 RMK T00901060 MADISHF,
LGA,2026-01-14 10:15,-73.8803,40.7794,9.0,,,,200.0,5.0,,29.68,,10.0,,BKN,,,,11000.0,,,,,,,,,,,,KLGA 141515Z AUTO 20005KT 10SM BKN110 09/M06 A2968 RMK T00901060 MADISHF,
LGA,2026-01-14 10:20,-73.8803,40.7794,9.0,,,,200.0,6.0,,29.67,,10.0,,BKN,BKN,,,10000.0,12000.0,,,,,,,,,,,KLGA 141520Z AUTO 20006KT 10SM BKN100 BKN120 09/M06 A2967 RMK T00901060 MADISHF,
LGA,2026-01-14 10:25,-73.8803,40.7794,9.0,,,,190.0,7.0,,29.68,,10.0,,BKN,BKN,,,10000.0,12000.0,,,,,,,,,,,KLGA 141525Z AUTO 19007KT 10SM BKN100 BKN120 09/M06 A2968 RMK T00901060 MADISHF,
LGA,2026-01-14 10:30,-73.8803,40.7794,9.0,,,,190.0,7.0,,29.68,,10.0,,BKN,,,,10000.0,,,,,,,,,,,,KLGA 141530Z AUTO 19007KT 10SM BKN100 09/M06 A2968 RMK T00901060 MADISHF,
LGA,2026-01-14 10:35,-73.8803,40.7794,9.0,,,,200.0,6.0,,29.68,,10.0,,BKN,,,,10000.0,,,,,,,,,,,,KLGA 141535Z AUTO 20006KT 10SM BKN100 09/M06 A2968 RMK T00901060 MADISHF,
LGA,2026-01-14 10:40,-73.8803,40.7794,9.0,,,,210.0,5.0,,29.67,,10.0,,OVC,,,,10000.0,,,,,,,,,,,,KLGA 141540Z AUTO 21005KT 10SM OVC100 09/M06 A2967 RMK T00901060 MADISHF,
LGA,2026-01-14 10:45,-73.8803,40.7794,9.0,,,,210.0,6.0,,29.67,,10.0,,OVC,,,,10000.0,,,,,,,,,,,,KLGA 141545Z AUTO 21006KT 10SM OVC100 09/M06 A2967 RMK T00901060 MADISHF,
LGA,2026-01-14 10:50,-73.8803,40.7794,9.0,,,,210.0,6.0,,29.67,,10.0,,OVC,,,,10000.0,,,,,,,,,,,,KLGA 141550Z AUTO 21006KT 10SM OVC100 10/M06 A2967 RMK T01001060 MADISHF,
LGA,2026-01-14 10:51,-73.8803,40.7794,9.0,50.0,22.0,32.95,210.0,6.0,0.00,29.67,1004.6,10.0,,OVC,,,,10000.0,,,,,,,,,,,50.0,KLGA 141551Z 21006KT 10SM OVC100 10/M06 A2967 RMK AO2 SLP046 T01001056 $,
LGA,2026-01-14 10:55,-73.8803,40.7794,9.0,,,,220.0,8.0,,29.66,,10.0,,OVC,,,,10000.0,,,,,,,,,,,,KLGA 141555Z AUTO 22008KT 10SM OVC100 10/M06 A2966 RMK T01001060 MADISHF,
LGA,2026-01-14 11:00,-73.8803,40.7794,9.0,,,,200.0,6.0,,29.66,,10.0,,OVC,,,,10000.0,,,,,,,,,,,,KLGA 141600Z AUTO 20006KT 10SM OVC100 10/M06 A2966 RMK T01001060 MADISHF,
LGA,2026-01-14 11:05,-73.8803,40.7794,9.0,,,,200.0,7.0,,29.66,,10.0,,OVC,,,,10000.0,,,,,,,,,,,,KLGA 141605Z AUTO 20007KT 10SM OVC100 10/M06 A2966 RMK T01001060 MADISHF,
LGA,2026-01-14 11:10,-73.8803,40.7794,9.0,,,,220.0,7.0,,29.66,,10.0,,OVC,,,,10000.0,,,,,,,,,,,,KLGA 141610Z AUTO 22007KT 10SM OVC100 10/M06 A2966 RMK T01001060 MADISHF,
LGA,2026-01-14 11:15,-73.8803,40.7794,9.0,,,,230.0,8.0,,29.65,,10.0,,OVC,,,,10000.0,,,,,,,,,,,,KLGA 141615Z AUTO 23008KT 10SM OVC100 10/M06 A2965 RMK T01001060 MADISHF,
LGA,2026-01-14 11:20,-73.8803,40.7794,9.0,,,,230.0,6.0,,29.65,,10.0,,OVC,,,,10000.0,,,,,,,,,,,,KLGA 141620Z AUTO 23006KT 10SM OVC100 10/M06 A2965 RMK T01001060 MADISHF,
LGA,2026-01-14 11:25,-73.8803,40.7794,9.0,,,,200.0,5.0,,29.65,,10.0,,OVC,,,,10000.0,,,,,,,,,,,,KLGA 141625Z AUTO 20005KT 10SM OVC100 10/M06 A2965 RMK T01001060 MADISHF,
LGA,2026-01-14 11:30,-73.8803,40.7794,9.0,,,,190.0,5.0,,29.64,,10.0,,OVC,,,,10000.0,,,,,,,,,,,,KLGA 141630Z AUTO 19005KT 10SM OVC100 10/M06 A2964 RMK T01001060 MADISHF,
LGA,2026-01-14 11:35,-73.8803,40.7794,9.0,,,,200.0,5.0,,29.64,,10.0,,OVC,,,,10000.0,,,,,,,,,,,,KLGA 141635Z AUTO 20005KT 10SM OVC100 10/M05 A2964 RMK T01001050 MADISHF,
LGA,2026-01-14 11:40,-73.8803,40.7794,9.0,,,,190.0,6.0,,29.64,,10.0,,BKN,,,,10000.0,,,,,,,,,,,,KLGA 141640Z AUTO 19006KT 10SM BKN100 10/M06 A2964 RMK T01001060 MADISHF,
LGA,2026-01-14 11:45,-73.8803,40.7794,9.0,,,,180.0,7.0,,29.63,,10.0,,BKN,,,,10000.0,,,,,,,,,,,,KLGA 141645Z AUTO 18007KT 10SM BKN100 10/M06 A2963 RMK T01001060 MADISHF,
LGA,2026-01-14 11:50,-73.8803,40.7794,9.0,,,,190.0,7.0,,29.63,,10.0,,BKN,,,,10000.0,,,,,,,,,,,,KLGA 141650Z AUTO 19007KT 10SM BKN100 10/M06 A2963 RMK T01001060 MADISHF,
LGA,2026-01-14 11:51,-73.8803,40.7794,9.0,50.0,22.0,32.95,200.0,6.0,0.00,29.63,1003.4,10.0,,BKN,OVC,,,10000.0,20000.0,,,,,,,,,,50.0,KLGA 141651Z 20006KT 10SM BKN100 OVC200 10/M06 A2963 RMK AO2 SLP034 T01001056 $,
LGA,2026-01-14 11:55,-73.8803,40.7794,9.0,,,,190.0,6.0,,29.63,,10.0,,OVC,,,,10000.0,,,,,,,,,,,,KLGA 141655Z AUTO 19006KT 10SM OVC100 10/M06 A2963 RMK T01001060 MADISHF,
LGA,2026-01-14 12:00,-73.8803,40.7794,9.0,,,,170.0,6.0,,29.62,,10.0,,OVC,,,,10000.0,,,,,,,,,,,,KLGA 141700Z AUTO 17006KT 10SM OVC100 11/M05 A2962 RMK T01101050 MADISHF,
LGA,2026-01-14 12:05,-73.8803,40.7794,9.0,,,,150.0,7.0,,29.62,,10.0,,OVC,,,,10000.0,,,,,,,,,,,,KLGA 141705Z AUTO 15007KT 10SM OVC100 11/M03 A2962 RMK T01101030 MADISHF,
LGA,2026-01-14 12:10,-73.8803,40.7794,9.0,,,,150.0,7.0,,29.62,,10.0,,OVC,,,,10000.0,,,,,,,,,,,,KLGA 141710Z AUTO 15007KT 10SM OVC100 10/M02 A2962 RMK T01001020 MADISHF,
LGA,2026-01-14 12:15,-73.8803,40.7794,9.0,,,,160.0,6.0,,29.61,,10.0,,OVC,,,,10000.0,,,,,,,,,,,,KLGA 141715Z AUTO 16006KT 10SM OVC100 09/M02 A2961 RMK T00901020 MADISHF,
LGA,2026-01-14 12:20,-73.8803,40.7794,9.0,,,,160.0,6.0,,29.61,,10.0,,OVC,,,,10000.0,,,,,,,,,,,,KLGA 141720Z AUTO 16006KT 10SM OVC100 10/M02 A2961 RMK T01001020 MADISHF,
LGA,2026-01-14 12:25,-73.8803,40.7794,9.0,,,,160.0,7.0,,29.61,,10.0,,OVC,,,,10000.0,,,,,,,,,,,,KLGA 141725Z AUTO 16007KT 10SM OVC100 09/M02 A2961 RMK T00901020 MADISHF,
LGA,2026-01-14 12:30,-73.8803,40.7794,9.0,,,,160.0,7.0,,29.61,,10.0,,OVC,,,,10000.0,,,,,,,,,,,,KLGA 141730Z AUTO 16007KT 10SM OVC100 09/M02 A2961 RMK T00901020 MADISHF,
LGA,2026-01-14 12:35,-73.8803,40.7794,9.0,,,,150.0,6.0,,29.6,,10.0,,BKN,,,,10000.0,,,,,,,,,,,,KLGA 141735Z AUTO 15006KT 10SM BKN100 09/M02 A2960 RMK T00901020 MADISHF,
LGA,2026-01-14 12:40,-73.8803,40.7794,9.0,,,,140.0,4.0,,29.6,,10.0,,BKN,,,,10000.0,,,,,,,,,,,,KLGA 141740Z AUTO 14004KT 10SM BKN100 09/M02 A2960 RMK T00901020 MADISHF,
LGA,2026-01-14 12:45,-73.8803,40.7794,9.0,,,,140.0,3.0,,29.6,,10.0,,BKN,,,,10000.0,,,,,,,,,,,,KLGA 141745Z AUTO 14003KT 10SM BKN100 09/M02 A2960 RMK T00901020 MADISHF,
LGA,2026-01-14 12:50,-73.8803,40.7794,9.0,,,,130.0,4.0,,29.59,,10.0,,BKN,,,,10000.0,,,,,,,,,,,,KLGA 141750Z AUTO 13004KT 10SM BKN100 09/M02 A2959 RMK T00901020 MADISHF,
LGA,2026-01-14 12:51,-73.8803,40.7794,9.0,49.0,29.0,45.75,120.0,3.0,0.00,29.59,1002.0,10.0,,BKN,OVC,,,10000.0,25000.0,,,,,,,,,,48.12,KLGA 141751Z 12003KT 10SM BKN100 OVC250 09/M02 A2959 RMK AO2 SLP020 T00941017 10106 20061 58032 $,
LGA,2026-01-14 12:55,-73.8803,40.7794,9.0,,,,100.0,6.0,,29.59,,10.0,,OVC,,,,10000.0,,,,,,,,,,,,KLGA 141755Z AUTO 10006KT 10SM OVC100 09/M02 A2959 RMK T00901020 MADISHF,
LGA,2026-01-14 13:00,-73.8803,40.7794,9.0,,,,120.0,4.0,,29.59,,10.0,,OVC,,,,10000.0,,,,,,,,,,,,KLGA 141800Z AUTO 12004KT 10SM OVC100 09/M02 A2959 RMK T00901020 MADISHF,
LGA,2026-01-14 13:05,-73.8803,40.7794,9.0,,,,150.0,4.0,,29.59,,10.0,,OVC,,,,10000.0,,,,,,,,,,,,KLGA 141805Z AUTO 15004KT 10SM OVC100 09/M02 A2959 RMK T00901020 MADISHF,
LGA,2026-01-14 13:10,-73.8803,40.7794,9.0,,,,150.0,6.0,,29.59,,10.0,,BKN,,,,10000.0,,,,,,,,,,,,KLGA 141810Z AUTO 15006KT 10SM BKN100 09/M02 A2959 RMK T00901020 MADISHF,
LGA,2026-01-14 13:15,-73.8803,40.7794,9.0,,,,150.0,6.0,,29.59,,10.0,,BKN,,,,10000.0,,,,,,,,,,,,KLGA 141815Z AUTO 15006KT 10SM BKN100 09/M02 A2959 RMK T00901020 MADISHF,
LGA,2026-01-14 13:20,-73.8803,40.7794,9.0,,,,150.0,6.0,,29.59,,10.0,,BKN,,,,10000.0,,,,,,,,,,,,KLGA 141820Z AUTO 15006KT 10SM BKN100 09/M02 A2959 RMK T00901020 MADISHF,
LGA,2026-01-14 13:25,-73.8803,40.7794,9.0,,,,150.0,6.0,,29.58,,10.0,,BKN,,,,10000.0,,,,,,,,,,,,KLGA 141825Z AUTO 15006KT 10SM BKN100 09/M02 A2958 RMK T00901020 MADISHF,
LGA,2026-01-14 13:30,-73.8803,40.7794,9.0,,,,150.0,6.0,,29.58,,10.0,,BKN,,,,10000.0,,,,,,,,,,,,KLGA 141830Z AUTO 15006KT 10SM BKN100 09/M01 A2958 RMK T00901010 MADISHF,
LGA,2026-01-14 13:35,-73.8803,40.7794,9.0,,,,150.0,6.0,,29.58,,10.0,,BKN,,,,10000.0,,,,,,,,,,,,KLGA 141835Z AUTO 15006KT 10SM BKN100 09/M01 A2958 RMK T00901010 MADISHF,
LGA,2026-01-14 13:40,-73.8803,40.7794,9.0,,,,150.0,6.0,,29.58,,10.0,,BKN,,,,10000.0,,,,,,,,,,,,KLGA 141840Z AUTO 15006KT 10SM BKN100 09/M02 A2958 RMK T00901020 MADISHF,
LGA,2026-01-14 13:45,-73.8803,40.7794,9.0,,,,150.0,6.0,,29.58,,10.0,,BKN,,,,10000.0,,,,,,,,,,,,KLGA 141845Z AUTO 15006KT 10SM BKN100 09/M01 A2958 RMK T00901010 MADISHF,
LGA,2026-01-14 13:50,-73.8803,40.7794,9.0,,,,150.0,6.0,,29.58,,10.0,,BKN,,,,10000.0,,,,,,,,,,,,KLGA 141850Z AUTO 15006KT 10SM BKN100 10/M01 A2958 RMK T01001010 VRB06KT MADISHF,
LGA,2026-01-14 13:51,-73.8803,40.7794,9.0,50.0,30.0,45.91,150.0,6.0,0.00,29.58,1001.7,10.0,,BKN,OVC,,,10000.0,25000.0,,,,,,,,,,50.0,KLGA 141851Z 15006KT 10SM BKN100 OVC250 10/M01 A2958 RMK AO2 SLP017 T01001011 $,
LGA,2026-01-14 13:55,-73.8803,40.7794,9.0,,,,120.0,5.0,,29.58,,10.0,,OVC,,,,10000.0,,,,,,,,,,,,KLGA 141855Z AUTO 12005KT 10SM OVC100 09/M01 A2958 RMK T00901010 MADISHF,
LGA,2026-01-14 14:00,-73.8803,40.7794,9.0,,,,100.0,6.0,,29.58,,10.0,,OVC,,,,10000.0,,,,,,,,,,,,KLGA 141900Z AUTO 10006KT 10SM OVC100 09/M01 A2958 RMK T00901010 MADISHF,
LGA,2026-01-14 14:05,-73.8803,40.7794,9.0,,,,120.0,5.0,,29.58,,10.0,,OVC,,,,10000.0,,,,,,,,,,,,KLGA 141905Z AUTO 12005KT 10SM OVC100 09/M01 A2958 RMK T00901010 MADISHF,
LGA,2026-01-14 14:10,-73.8803,40.7794,9.0,,,,140.0,5.0,,29.58,,10.0,,OVC,,,,10000.0,,,,,,,,,,,,KLGA 141910Z AUTO 14005KT 10SM OVC100 09/M01 A2958 RMK T00901010 MADISHF,
LGA,2026-01-14 14:15,-73.8803,40.7794,9.0,,,,150.0,5.0,,29.58,,10.0,,BKN,,,,10000.0,,,,,,,,,,,,KLGA 141915Z AUTO 15005KT 10SM BKN100 09/M01 A2958 RMK T00901010 MADISHF,
LGA,2026-01-14 14:20,-73.8803,40.7794,9.0,,,,150.0,5.0,,29.58,,10.0,,SCT,,,,10000.0,,,,,,,,,,,,KLGA 141920Z AUTO 15005KT 10SM SCT100 09/M01 A2958 RMK T00901010 MADISHF,
LGA,2026-01-14 14:25,-73.8803,40.7794,9.0,,,,150.0,6.0,,29.58,,10.0,,SCT,,,,10000.0,,,,,,,,,,,,KLGA 141925Z AUTO 15006KT 10SM SCT100 09/M01 A2958 RMK T00901010 MADISHF,
LGA,2026-01-14 14:30,-73.8803,40.7794,9.0,,,,150.0,5.0,,29.58,,10.0,,FEW,,,,10000.0,,,,,,,,,,,,KLGA 141930Z AUTO 15005KT 10SM FEW100 09/M01 A2958 RMK T00901010 MADISHF,
LGA,2026-01-14 14:35,-73.8803,40.7794,9.0,,,,150.0,6.0,,29.58,,10.0,,FEW,,,,10000.0,,,,,,,,,,,,KLGA 141935Z AUTO 15006KT 10SM FEW100 09/M01 A2958 RMK T00901010 MADISHF,
LGA,2026-01-14 14:40,-73.8803,40.7794,9.0,,,,150.0,5.0,,29.58,,10.0,,CLR,,,,,,,,,,,,,,,,KLGA 141940Z AUTO 15005KT 10SM CLR 09/M01 A2958 RMK T00901010 MADISHF,
LGA,2026-01-14 14:45,-73.8803,40.7794,9.0,,,,150.0,6.0,,29.58,,10.0,,CLR,,,,,,,,,,,,,,,,KLGA 141945Z AUTO 15006KT 10SM CLR 09/M01 A2958 RMK T00901010 MADISHF,
LGA,2026-01-14 14:50,-73.8803,40.7794,9.0,,,,140.0,6.0,,29.58,,10.0,,FEW,,,,10000.0,,,,,,,,,,,,KLGA 141950Z AUTO 14006KT 10SM FEW100 09/M02 A2958 RMK T00901020 VRB06KT MADISHF,
LGA,2026-01-14 14:51,-73.8803,40.7794,9.0,49.0,29.0,45.75,140.0,6.0,0.00,29.58,1001.5,10.0,,FEW,BKN,BKN,,10000.0,13000.0,25000.0,,,,,,,,,46.0,KLGA 141951Z 14006KT 10SM FEW100 BKN130 BKN250 09/M02 A2958 RMK AO2 SLP015 T00941017 $,
LGA,2026-01-14 14:55,-73.8803,40.7794,9.0,,,,120.0,5.0,,29.58,,10.0,,FEW,,,,11000.0,,,,,,,,,,,,KLGA 141955Z AUTO 12005KT 10SM FEW110 09/M02 A2958 RMK T00901020 MADISHF,
LGA,2026-01-14 15:00,-73.8803,40.7794,9.0,,,,130.0,6.0,,29.58,,10.0,,FEW,,,,11000.0,,,,,,,,,,,,KLGA 142000Z AUTO 13006KT 10SM FEW110 10/M02 A2958 RMK T01001020 MADISHF,
LGA,2026-01-14 15:05,-73.8803,40.7794,9.0,,,,110.0,6.0,,29.57,,10.0,,FEW,,,,11000.0,,,,,,,,,,,,KLGA 142005Z AUTO 11006KT 10SM FEW110 10/M02 A2957 RMK T01001020 MADISHF,
LGA,2026-01-14 15:10,-73.8803,40.7794,9.0,,,,110.0,6.0,,29.57,,10.0,,SCT,,,,11000.0,,,,,,,,,,,,KLGA 142010Z AUTO 11006KT 10SM SCT110 10/M02 A2957 RMK T01001020 VRB06KT MADISHF,
LGA,2026-01-14 15:15,-73.8803,40.7794,9.0,,,,140.0,6.0,,29.57,,10.0,,BKN,,,,11000.0,,,,,,,,,,,,KLGA 142015Z AUTO 14006KT 10SM BKN110 10/M02 A2957 RMK T01001020 MADISHF,
LGA,2026-01-14 15:20,-73.8803,40.7794,9.0,,,,130.0,7.0,,29.58,,10.0,,BKN,,,,11000.0,,,,,,,,,,,,KLGA 142020Z AUTO 13007KT 10SM BKN110 09/M02 A2958 RMK T00901020 MADISHF,
LGA,2026-01-14 15:25,-73.8803,40.7794,9.0,,,,160.0,7.0,,29.58,,10.0,,BKN,,,,11000.0,,,,,,,,,,,,KLGA 142025Z AUTO 16007KT 10SM BKN110 09/M02 A2958 RMK T00901020 MADISHF,
LGA,2026-01-14 15:30,-73.8803,40.7794,9.0,,,,160.0,7.0,,29.58,,10.0,,OVC,,,,11000.0,,,,,,,,,,,,KLGA 142030Z AUTO 16007KT 10SM OVC110 09/M02 A2958 RMK T00901020 MADISHF,
LGA,2026-01-14 15:35,-73.8803,40.7794,9.0,,,,160.0,7.0,,29.58,,10.0,,OVC,,,,11000.0,,,,,,,,,,,,KLGA 142035Z AUTO 16007KT 10SM OVC110 09/M02 A2958 RMK T00901020 MADISHF,
LGA,2026-01-14 15:40,-73.8803,40.7794,9.0,,,,130.0,7.0,,29.58,,10.0,,OVC,,,,11000.0,,,,,,,,,,,,KLGA 142040Z AUTO 13007KT 10SM OVC110 09/M01 A2958 RMK T00901010 MADISHF,
LGA,2026-01-14 15:45,-73.8803,40.7794,9.0,,,,130.0,7.0,,29.57,,10.0,,OVC,,,,11000.0,,,,,,,,,,,,KLGA 142045Z AUTO 13007KT 10SM OVC110 09/M01 A2957 RMK T00901010 MADISHF,
LGA,2026-01-14 15:50,-73.8803,40.7794,9.0,,,,130.0,7.0,,29.57,,10.0,,BKN,,,,11000.0,,,,,,,,,,,,KLGA 142050Z AUTO 13007KT 10SM BKN110 09/M02 A2957 RMK T00901020 MADISHF,
LGA,2026-01-14 15:51,-73.8803,40.7794,9.0,49.0,28.0,43.91,130.0,8.0,0.00,29.57,1001.4,10.0,,BKN,OVC,,,11000.0,25000.0,,,,,,,,,,45.05,KLGA 142051Z 13008KT 10SM BKN110 OVC250 09/M02 A2957 RMK AO2 SLP014 T00941022 56006 $,
LGA,2026-01-14 15:55,-73.8803,40.7794,9.0,,,,140.0,7.0,,29.57,,10.0,,OVC,,,,11000.0,,,,,,,,,,,,KLGA 142055Z AUTO 14007KT 10SM OVC110 09/M02 A2957 RMK T00901020 MADISHF,
LGA,2026-01-14 16:00,-73.8803,40.7794,9.0,,,,150.0,6.0,,29.57,,10.0,,OVC,,,,11000.0,,,,,,,,,,,,KLGA 142100Z AUTO 15006KT 10SM OVC110 09/M03 A2957 RMK T00901030 MADISHF,
LGA,2026-01-14 16:05,-73.8803,40.7794,9.0,,,,140.0,6.0,,29.57,,10.0,,OVC,,,,11000.0,,,,,,,,,,,,KLGA 142105Z AUTO 14006KT 10SM OVC110 09/M02 A2957 RMK T00901020 MADISHF,
LGA,2026-01-14 16:10,-73.8803,40.7794,9.0,,,,140.0,6.0,,29.57,,10.0,,OVC,,,,11000.0,,,,,,,,,,,,KLGA 142110Z AUTO 14006KT 10SM OVC110 09/M02 A2957 RMK T00901020 MADISHF,
LGA,2026-01-14 16:15,-73.8803,40.7794,9.0,,,,130.0,5.0,,29.57,,10.0,,OVC,,,,11000.0,,,,,,,,,,,,KLGA 142115Z AUTO 13005KT 10SM OVC110 09/M02 A2957 RMK T00901020 VRB05KT MADISHF,
LGA,2026-01-14 16:20,-73.8803,40.7794,9.0,,,,110.0,4.0,,29.56,,10.0,,OVC,,,,11000.0,,,,,,,,,,,,KLGA 142120Z AUTO 11004KT 10SM OVC110 09/M02 A2956 RMK T00901020 VRB04KT MADISHF,
LGA,2026-01-14 16:25,-73.8803,40.7794,9.0,,,,120.0,5.0,,29.56,,10.0,,OVC,,,,11000.0,,,,,,,,,,,,KLGA 142125Z AUTO 12005KT 10SM OVC110 09/M02 A2956 RMK T00901020 MADISHF,
LGA,2026-01-14 16:30,-73.8803,40.7794,9.0,,,,110.0,6.0,,29.56,,10.0,,OVC,,,,11000.0,,,,,,,,,,,,KLGA 142130Z AUTO 11006KT 10SM OVC110 09/M02 A2956 RMK T00901020 MADISHF,
LGA,2026-01-14 16:35,-73.8803,40.7794,9.0,,,,120.0,6.0,,29.56,,10.0,,BKN,,,,11000.0,,,,,,,,,,,,KLGA 142135Z AUTO 12006KT 10SM BKN110 09/M02 A2956 RMK T00901020 VRB06KT MADISHF,
LGA,2026-01-14 16:40,-73.8803,40.7794,9.0,,,,110.0,7.0,,29.56,,10.0,,BKN,,,,11000.0,,,,,,,,,,,,KLGA 142140Z AUTO 11007KT 10SM BKN110 09/M01 A2956 RMK T00901010 MADISHF,
LGA,2026-01-14 16:45,-73.8803,40.7794,9.0,,,,130.0,9.0,,29.55,,10.0,,OVC,,,,11000.0,,,,,,,,,,,,KLGA 142145Z AUTO 13009KT 10SM OVC110 09/M01 A2955 RMK T00901010 MADISHF,
LGA,2026-01-14 16:50,-73.8803,40.7794,9.0,,,,130.0,9.0,,29.55,,10.0,,FEW,BKN,,,6000.0,11000.0,,,,,,,,,,,KLGA 142150Z AUTO 13009KT 10SM FEW060 BKN110 09/M01 A2955 RMK T00901010 MADISHF,
LGA,2026-01-14 16:51,-73.8803,40.7794,9.0,48.0,31.0,51.53,130.0,9.0,0.00,29.55,1000.6,10.0,,FEW,BKN,OVC,,6000.0,11000.0,25000.0,,,,,,,,,43.41,KLGA 142151Z 13009KT 10SM FEW060 BKN110 OVC250 09/M01 A2955 RMK AO2 SLP006 T00891006 $,
LGA,2026-01-14 16:55,-73.8803,40.7794,9.0,,,,120.0,7.0,,29.55,,10.0,,OVC,,,,11000.0,,,,,,,,,,,,KLGA 142155Z AUTO 12007KT 10SM OVC110 08/M01 A2955 RMK T00801010 MADISHF,
LGA,2026-01-14 17:00,-73.8803,40.7794,9.0,,,,100.0,6.0,,29.54,,10.0,,OVC,,,,10000.0,,,,,,,,,,,,KLGA 142200Z AUTO 10006KT 10SM OVC100 08/M01 A2954 RMK T00801010 MADISHF,
LGA,2026-01-14 17:05,-73.8803,40.7794,9.0,,,,100.0,6.0,,29.54,,10.0,,BKN,OVC,,,10000.0,11000.0,,,,,,,,,,,KLGA 142205Z AUTO 10006KT 10SM BKN100 OVC110 08/M01 A2954 RMK T00801010 MADISHF,
LGA,2026-01-14 17:10,-73.8803,40.7794,9.0,,,,90.0,7.0,,29.54,,10.0,,BKN,OVC,,,9000.0,10000.0,,,,,,,,,,,KLGA 142210Z AUTO 09007KT 10SM BKN090 OVC100 08/M01 A2954 RMK T00801010 MADISHF,
LGA,2026-01-14 17:15,-73.8803,40.7794,9.0,,,,90.0,8.0,,29.53,,10.0,,BKN,OVC,,,9000.0,10000.0,,,,,,,,,,,KLGA 142215Z AUTO 09008KT 10SM BKN090 OVC100 08/M01 A2953 RMK T00801010 MADISHF,
LGA,2026-01-14 17:20,-73.8803,40.7794,9.0,,,,100.0,7.0,,29.54,,10.0,,BKN,OVC,,,8500.0,10000.0,,,,,,,,,,,KLGA 142220Z AUTO 10007KT 10SM BKN085 OVC100 08/M01 A2954 RMK T00801010 MADISHF,
LGA,2026-01-14 17:25,-73.8803,40.7794,9.0,,,,120.0,7.0,,29.54,,10.0,,OVC,,,,8500.0,,,,,,,,,,,,KLGA 142225Z AUTO 12007KT 10SM OVC085 08/M01 A2954 RMK T00801010 MADISHF,
LGA,2026-01-14 17:30,-73.8803,40.7794,9.0,,,,130.0,7.0,,29.54,,10.0,,OVC,,,,8500.0,,,,,,,,,,,,KLGA 142230Z AUTO 13007KT 10SM OVC085 08/M01 A2954 RMK T00801010 MADISHF,
LGA,2026-01-14 17:35,-73.8803,40.7794,9.0,,,,110.0,6.0,,29.53,,10.0,,OVC,,,,8500.0,,,,,,,,,,,,KLGA 142235Z AUTO 11006KT 10SM OVC085 08/M01 A2953 RMK T00801010 MADISHF,
LGA,2026-01-14 17:40,-73.8803,40.7794,9.0,,,,120.0,5.0,,29.53,,10.0,,OVC,,,,8500.0,,,,,,,,,,,,KLGA 142240Z AUTO 12005KT 10SM OVC085 08/M01 A2953 RMK T00801010 MADISHF,
LGA,2026-01-14 17:45,-73.8803,40.7794,9.0,,,,110.0,5.0,,29.52,,10.0,,OVC,,,,8500.0,,,,,,,,,,,,KLGA 142245Z AUTO 11005KT 10SM OVC085 08/M01 A2952 RMK T00801010 MADISHF,
LGA,2026-01-14 17:50,-73.8803,40.7794,9.0,,,,100.0,6.0,,29.52,,10.0,,BKN,,,,8500.0,,,,,,,,,,,,KLGA 142250Z AUTO 10006KT 10SM BKN085 08/M01 A2952 RMK T00801010 MADISHF,
LGA,2026-01-14 17:51,-73.8803,40.7794,9.0,47.0,30.0,51.37,100.0,8.0,0.00,29.52,999.5,10.0,,BKN,OVC,,,8500.0,25000.0,,,,,,,,,,42.59,KLGA 142251Z 10008KT 10SM BKN085 OVC250 08/M01 A2952 RMK AO2 SLP995 T00831011 $,
LGA,2026-01-14 17:55,-73.8803,40.7794,9.0,,,,80.0,8.0,,29.51,,10.0,,SCT,OVC,,,8000.0,9000.0,,,,,,,,,,,KLGA 142255Z AUTO 08008KT 10SM SCT080 OVC090 08/M01 A2951 RMK T00801010 MADISHF,
LGA,2026-01-14 18:00,-73.8803,40.7794,9.0,,,,70.0,6.0,,29.52,,10.0,,SCT,OVC,,,8000.0,9500.0,,,,,,,,,,,KLGA 142300Z AUTO 07006KT 10SM SCT080 OVC095 07/M01 A2952 RMK T00701010 MADISHF,
LGA,2026-01-14 18:05,-73.8803,40.7794,9.0,,,,100.0,6.0,,29.51,,10.0,,SCT,OVC,,,8000.0,9500.0,,,,,,,,,,,KLGA 142305Z AUTO 10006KT 10SM SCT080 OVC095 07/M01 A2951 RMK T00701010 MADISHF,
LGA,2026-01-14 18:10,-73.8803,40.7794,9.0,,,,110.0,10.0,,29.51,,10.0,,FEW,OVC,,,7500.0,9500.0,,,,,,,,,,,KLGA 142310Z AUTO 11010KT 10SM FEW075 OVC095 08/M01 A2951 RMK T00801010 MADISHF,
LGA,2026-01-14 18:15,-73.8803,40.7794,9.0,,,,100.0,9.0,,29.5,,10.0,,FEW,OVC,,,7000.0,10000.0,,,,,,,,,,,KLGA 142315Z AUTO 10009KT 10SM FEW070 OVC100 08/M01 A2950 RMK T00801010 MADISHF,
LGA,2026-01-14 18:20,-73.8803,40.7794,9.0,,,,110.0,10.0,,29.5,,10.0,,OVC,,,,10000.0,,,,,,,,,,,,KLGA 142320Z AUTO 11010KT 10SM OVC100 08/M01 A2950 RMK T00801010 MADISHF,
LGA,2026-01-14 18:25,-73.8803,40.7794,9.0,,,,110.0,7.0,,29.5,,10.0,,OVC,,,,10000.0,,,,,,,,,,,,KLGA 142325Z AUTO 11007KT 10SM OVC100 08/M01 A2950 RMK T00801010 MADISHF,
LGA,2026-01-14 18:30,-73.8803,40.7794,9.0,,,,110.0,8.0,,29.5,,10.0,,OVC,,,,10000.0,,,,,,,,,,,,KLGA 142330Z AUTO 11008KT 10SM OVC100 08/M01 A2950 RMK T00801010 MADISHF,
LGA,2026-01-14 18:35,-73.8803,40.7794,9.0,,,,100.0,7.0,,29.49,,10.0,,OVC,,,,10000.0,,,,,,,,,,,,KLGA 142335Z AUTO 10007KT 10SM OVC100 08/M01 A2949 RMK T00801010 MADISHF,
LGA,2026-01-14 18:40,-73.8803,40.7794,9.0,,,,120.0,8.0,,29.5,,10.0,,OVC,,,,10000.0,,,,,,,,,,,,KLGA 142340Z AUTO 12008KT 10SM OVC100 08/M01 A2950 RMK T00801010 MADISHF,
LGA,2026-01-14 18:45,-73.8803,40.7794,9.0,,,,130.0,6.0,,29.51,,10.0,,OVC,,,,10000.0,,,,,,,,,,,,KLGA 142345Z AUTO 13006KT 10SM OVC100 08/M01 A2951 RMK T00801010 MADISHF,
LGA,2026-01-14 18:50,-73.8803,40.7794,9.0,,,,130.0,9.0,,29.5,,10.0,,FEW,OVC,,,7500.0,10000.0,,,,,,,,,,,KLGA 142350Z AUTO 13009KT 10SM FEW075 OVC100 07/M01 A2950 RMK T00701010 MADISHF,
LGA,2026-01-14 18:51,-73.8803,40.7794,9.0,45.0,30.0,55.41,130.0,9.0,0.00,29.5,998.9,10.0,,FEW,OVC,,,7500.0,10000.0,,,,,,,,,,39.68,KLGA 142351Z 13009KT 10SM FEW075 OVC100 07/M01 A2950 RMK AO2 SLP989 T00721011 10100 20067 56024,
LGA,2026-01-14 18:55,-73.8803,40.7794,9.0,,,,110.0,5.0,,29.5,,10.0,,OVC,,,,9500.0,,,,,,,,,,,,KLGA 142355Z AUTO 11005KT 10SM OVC095 07/M01 A2950 RMK T00701010 MADISHF,
LGA,2026-01-14 19:00,-73.8803,40.7794,9.0,,,,130.0,8.0,,29.51,,10.0,,OVC,,,,9000.0,,,,,,,,,,,,KLGA 150000Z AUTO 13008KT 10SM OVC090 08/M01 A2951 RMK T00801010 WND 08V16 MADISHF,
LGA,2026-01-14 19:05,-73.8803,40.7794,9.0,,,,120.0,8.0,,29.51,,10.0,,OVC,,,,9000.0,,,,,,,,,,,,KLGA 150005Z AUTO 12008KT 10SM OVC090 08/M01 A2951 RMK T00801010 MADISHF,
LGA,2026-01-14 19:10,-73.8803,40.7794,9.0,,,,160.0,6.0,,29.51,,10.0,,OVC,,,,9000.0,,,,,,,,,,,,KLGA 150010Z AUTO 16006KT 10SM OVC090 08/M01 A2951 RMK T00801010 MADISHF,
LGA,2026-01-14 19:15,-73.8803,40.7794,9.0,,,,160.0,5.0,,29.51,,10.0,,OVC,,,,8500.0,,,,,,,,,,,,KLGA 150015Z AUTO 16005KT 10SM OVC085 08/M01 A2951 RMK T00801010 MADISHF,
LGA,2026-01-14 19:20,-73.8803,40.7794,9.0,,,,150.0,7.0,,29.5,,10.0,,BKN,OVC,,,8000.0,9500.0,,,,,,,,,,,KLGA 150020Z AUTO 15007KT 10SM BKN080 OVC095 07/M01 A2950 RMK T00701010 MADISHF,
LGA,2026-01-14 19:25,-73.8803,40.7794,9.0,,,,180.0,9.0,,29.49,,10.0,,BKN,OVC,,,7500.0,9000.0,,,-RA,,,,,,,,KLGA 150025Z AUTO 18009KT 10SM -RA BKN075 OVC090 07/M00 A2949 RMK T00701000 MADISHF,
LGA,2026-01-14 19:30,-73.8803,40.7794,9.0,,,,160.0,8.0,,29.49,,10.0,,BKN,OVC,,,7000.0,8500.0,,,-RA,,,,,,,,KLGA 150030Z AUTO 16008KT 10SM -RA BKN070 OVC085 07/M00 A2949 RMK T00701000 MADISHF,
LGA,2026-01-14 19:35,-73.8803,40.7794,9.0,,,,160.0,8.0,,29.49,,10.0,,BKN,OVC,,,7000.0,8000.0,,,-RA,,,,,,,,KLGA 150035Z AUTO 16008KT 10SM -RA BKN070 OVC080 07/M00 A2949 RMK T00701000 MADISHF,
LGA,2026-01-14 19:40,-73.8803,40.7794,9.0,,,,120.0,5.0,,29.48,,10.0,,OVC,,,,7500.0,,,,-RA,,,,,,,,KLGA 150040Z AUTO 12005KT 10SM -RA OVC075 07/M00 A2948 RMK T00701000 MADISHF,
LGA,2026-01-14 19:45,-73.8803,40.7794,9.0,,,,170.0,4.0,,29.49,,10.0,,OVC,,,,7500.0,,,,,,,,,,,,KLGA 150045Z AUTO 17004KT 10SM OVC075 07/M00 A2949 RMK T00701000 MADISHF,
LGA,2026-01-14 19:50,-73.8803,40.7794,9.0,,,,170.0,5.0,,29.5,,10.0,,BKN,OVC,,,7500.0,10000.0,,,,,,,,,,,KLGA 150050Z AUTO 17005KT 10SM BKN075 OVC100 07/01 A2950 RMK T00700010 MADISHF,
LGA,2026-01-14 19:51,-73.8803,40.7794,9.0,45.0,33.0,62.56,170.0,6.0,T,29.5,998.8,10.0,,BKN,OVC,,,7500.0,10000.0,,,,,,,,,,41.19,KLGA 150051Z 17006KT 10SM BKN075 OVC100 07/01 A2950 RMK AO2 RAB21E43 SLP988 P0000 T00720006,
LGA,2026-01-14 19:55,-73.8803,40.7794,9.0,,,,170.0,7.0,,29.49,,10.0,,OVC,,,,7500.0,,,,,,,,,,,,KLGA 150055Z AUTO 17007KT 10SM OVC075 07/01 A2949 RMK T00700010 MADISHF,
LGA,2026-01-14 20:00,-73.8803,40.7794,9.0,,,,150.0,7.0,,29.49,,10.0,,OVC,,,,8000.0,,,,,,,,,,,,KLGA 150100Z AUTO 15007KT 10SM OVC080 07/01 A2949 RMK T00700010 MADISHF,
LGA,2026-01-14 20:05,-73.8803,40.7794,9.0,,,,140.0,8.0,,29.49,,10.0,,BKN,OVC,,,7500.0,9000.0,,,,,,,,,,,KLGA 150105Z AUTO 14008KT 10SM BKN075 OVC090 07/01 A2949 RMK T00700010 MADISHF,
LGA,2026-01-14 20:10,-73.8803,40.7794,9.0,,,,130.0,6.0,,29.48,,10.0,,SCT,OVC,,,7000.0,9000.0,,,,,,,,,,,KLGA 150110Z AUTO 13006KT 10SM SCT070 OVC090 07/01 A2948 RMK T00700010 VRB06KT MADISHF,
LGA,2026-01-14 20:15,-73.8803,40.7794,9.0,,,,150.0,7.0,,29.48,,10.0,,SCT,OVC,,,7500.0,9000.0,,,,,,,,,,,KLGA 150115Z AUTO 15007KT 10SM SCT075 OVC090 07/01 A2948 RMK T00700010 MADISHF,
LGA,2026-01-14 20:20,-73.8803,40.7794,9.0,,,,150.0,7.0,,29.48,,10.0,,OVC,,,,9000.0,,,,,,,,,,,,KLGA 150120Z AUTO 15007KT 10SM OVC090 07/01 A2948 RMK T00700010 MADISHF,
LGA,2026-01-14 20:25,-73.8803,40.7794,9.0,,,,150.0,3.0,,29.48,,10.0,,OVC,,,,9500.0,,,,,,,,,,,,KLGA 150125Z AUTO 15003KT 10SM OVC095 07/01 A2948 RMK T00700010 VRB03KT MADISHF,
LGA,2026-01-14 20:30,-73.8803,40.7794,9.0,,,,160.0,4.0,,29.47,,10.0,,OVC,,,,9500.0,,,,,,,,,,,,KLGA 150130Z AUTO 16004KT 10SM OVC095 07/02 A2947 RMK T00700020 MADISHF,
LGA,2026-01-14 20:35,-73.8803,40.7794,9.0,,,,170.0,4.0,,29.47,,10.0,,OVC,,,,9000.0,,,,,,,,,,,,KLGA 150135Z AUTO 17004KT 10SM OVC090 07/02 A2947 RMK T00700020 MADISHF,
LGA,2026-01-14 20:40,-73.8803,40.7794,9.0,,,,160.0,5.0,,29.48,,10.0,,OVC,,,,9000.0,,,,,,,,,,,,KLGA 150140Z AUTO 16005KT 10SM OVC090 07/02 A2948 RMK T00700020 MADISHF,
LGA,2026-01-14 20:45,-73.8803,40.7794,9.0,,,,180.0,4.0,,29.48,,10.0,,OVC,,,,9000.0,,,,,,,,,,,,KLGA 150145Z AUTO 18004KT 10SM OVC090 07/02 A2948 RMK T00700020 MADISHF,
LGA,2026-01-14 20:50,-73.8803,40.7794,9.0,,,,170.0,4.0,,29.47,,10.0,,FEW,OVC,,,7000.0,9000.0,,,,,,,,,,,KLGA 150150Z AUTO 17004KT 10SM FEW070 OVC090 07/02 A2947 RMK T00700020 MADISHF,
LGA,2026-01-14 20:51,-73.8803,40.7794,9.0,45.0,35.0,67.77,180.0,3.0,0.00,29.47,997.9,10.0,,FEW,OVC,,,7000.0,9000.0,,,,,,,,,,43.55,KLGA 150151Z 18003KT 10SM FEW070 OVC090 07/02 A2947 RMK AO2 SLP979 T00720017,
LGA,2026-01-14 20:55,-73.8803,40.7794,9.0,,,,0.0,0.0,,29.47,,10.0,,OVC,,,,8500.0,,,,,,,,,,,,KLGA 150155Z AUTO 00000KT 10SM OVC085 07/02 A2947 RMK T00700020 MADISHF,
LGA,2026-01-14 21:00,-73.8803,40.7794,9.0,,,,140.0,3.0,,29.46,,10.0,,OVC,,,,8500.0,,,,,,,,,,,,KLGA 150200Z AUTO 14003KT 10SM OVC085 08/02 A2946 RMK T00800020 MADISHF,
LGA,2026-01-14 21:05,-73.8803,40.7794,9.0,,,,170.0,4.0,,29.46,,10.0,,OVC,,,,8500.0,,,,,,,,,,,,KLGA 150205Z AUTO 17004KT 10SM OVC085 07/02 A2946 RMK T00700020 MADISHF,
LGA,2026-01-14 21:10,-73.8803,40.7794,9.0,,,,190.0,3.0,,29.46,,10.0,,OVC,,,,8500.0,,,,,,,,,,,,KLGA 150210Z AUTO 19003KT 10SM OVC085 07/02 A2946 RMK T00700020 MADISHF,
LGA,2026-01-14 21:15,-73.8803,40.7794,9.0,,,,160.0,4.0,,29.46,,10.0,,OVC,,,,8000.0,,,,,,,,,,,,KLGA 150215Z AUTO 16004KT 10SM OVC080 07/02 A2946 RMK T00700020 MADISHF,
LGA,2026-01-14 21:20,-73.8803,40.7794,9.0,,,,0.0,0.0,,29.46,,10.0,,OVC,,,,8000.0,,,,,,,,,,,,KLGA 150220Z AUTO 00000KT 10SM OVC080 08/02 A2946 RMK T00800020 MADISHF,
LGA,2026-01-14 21:25,-73.8803,40.7794,9.0,,,,160.0,4.0,,29.46,,10.0,,OVC,,,,8000.0,,,,,,,,,,,,KLGA 150225Z AUTO 16004KT 10SM OVC080 08/02 A2946 RMK T00800020 MADISHF,
LGA,2026-01-14 21:30,-73.8803,40.7794,9.0,,,,0.0,0.0,,29.46,,10.0,,OVC,,,,8000.0,,,,,,,,,,,,KLGA 150230Z AUTO 00000KT 10SM OVC080 08/02 A2946 RMK T00800020 MADISHF,
LGA,2026-01-14 21:35,-73.8803,40.7794,9.0,,,,210.0,5.0,,29.47,,10.0,,SCT,OVC,,,6000.0,8000.0,,,,,,,,,,,KLGA 150235Z AUTO 21005KT 10SM SCT060 OVC080 08/02 A2947 RMK T00800020 MADISHF,
LGA,2026-01-14 21:40,-73.8803,40.7794,9.0,,,,180.0,6.0,,29.46,,10.0,,BKN,OVC,,,5500.0,8000.0,,,,,,,,,,,KLGA 150240Z AUTO 18006KT 10SM BKN055 OVC080 08/02 A2946 RMK T00800020 MADISHF,
LGA,2026-01-14 21:45,-73.8803,40.7794,9.0,,,,170.0,5.0,,29.46,,10.0,,BKN,OVC,,,5500.0,8000.0,,,,,,,,,,,KLGA 150245Z AUTO 17005KT 10SM BKN055 OVC080 08/02 A2946 RMK T00800020 MADISHF,
LGA,2026-01-14 21:50,-73.8803,40.7794,9.0,,,,170.0,5.0,,29.46,,10.0,,BKN,OVC,,,5000.0,8000.0,,,,,,,,,,,KLGA 150250Z AUTO 17005KT 10SM BKN050 OVC080 07/02 A2946 RMK T00700020 MADISHF,
LGA,2026-01-14 21:51,-73.8803,40.7794,9.0,45.0,35.0,67.77,170.0,4.0,0.00,29.46,997.6,10.0,,BKN,OVC,,,5000.0,8000.0,,,,,,,,,,42.6,KLGA 150251Z 17004KT 10SM BKN050 OVC080 07/02 A2946 RMK AO2 SLP976 60000 T00720017 58013,
LGA,2026-01-14 21:55,-73.8803,40.7794,9.0,,,,170.0,6.0,,29.46,,10.0,,SCT,BKN,OVC,,5000.0,6000.0,8000.0,,,,,,,,,,KLGA 150255Z AUTO 17006KT 10SM SCT050 BKN060 OVC080 08/02 A2946 RMK T00800020 MADISHF,
LGA,2026-01-14 22:00,-73.8803,40.7794,9.0,,,,170.0,5.0,,29.46,,10.0,,SCT,BKN,OVC,,5000.0,6000.0,8000.0,,-RA,,,,,,,,KLGA 150300Z AUTO 17005KT 10SM -RA SCT050 BKN060 OVC080 08/02 A2946 RMK T00800020 MADISHF,
LGA,2026-01-14 22:05,-73.8803,40.7794,9.0,,,,180.0,7.0,,29.46,,10.0,,SCT,BKN,OVC,,5000.0,6000.0,8000.0,,-RA,,,,,,,,KLGA 150305Z AUTO 18007KT 10SM -RA SCT050 BKN060 OVC080 07/02 A2946 RMK T00700020 MADISHF,
LGA,2026-01-14 22:10,-73.8803,40.7794,9.0,,,,170.0,7.0,,29.46,,10.0,,SCT,BKN,OVC,,5000.0,6000.0,8000.0,,-RA,,,,,,,,KLGA 150310Z AUTO 17007KT 10SM -RA SCT050 BKN060 OVC080 07/02 A2946 RMK T00700020 MADISHF,
LGA,2026-01-14 22:15,-73.8803,40.7794,9.0,,,,160.0,9.0,,29.46,,10.0,,SCT,BKN,OVC,,5000.0,6000.0,8000.0,,-RA,,,,,,,,KLGA 150315Z AUTO 16009KT 10SM -RA SCT050 BKN060 OVC080 07/02 A2946 RMK T00700020 MADISHF,
LGA,2026-01-14 22:20,-73.8803,40.7794,9.0,,,,170.0,7.0,,29.45,,10.0,,SCT,BKN,OVC,,5000.0,6000.0,8000.0,,,,,,,,,,KLGA 150320Z AUTO 17007KT 10SM SCT050 BKN060 OVC080 08/02 A2945 RMK T00800020 MADISHF,
LGA,2026-01-14 22:25,-73.8803,40.7794,9.0,,,,150.0,7.0,,29.44,,10.0,,SCT,BKN,OVC,,5000.0,6000.0,8000.0,,-RA,,,,,,,,KLGA 150325Z AUTO 15007KT 10SM -RA SCT050 BKN060 OVC080 07/02 A2944 RMK T00700020 MADISHF,
LGA,2026-01-14 22:30,-73.8803,40.7794,9.0,,,,150.0,6.0,,29.44,,10.0,,SCT,BKN,OVC,,5000.0,6000.0,8000.0,,-RA,,,,,,,,KLGA 150330Z AUTO 15006KT 10SM -RA SCT050 BKN060 OVC080 07/02 A2944 RMK T00700020 MADISHF,
LGA,2026-01-14 22:35,-73.8803,40.7794,9.0,,,,150.0,6.0,,29.43,,9.0,,SCT,BKN,OVC,,5000.0,6000.0,8000.0,,-RA,,,,,,,,KLGA 150335Z AUTO 15006KT 8SM -RA SCT050 BKN060 OVC080 07/02 A2943 RMK T00700020 MADISHF,
LGA,2026-01-14 22:40,-73.8803,40.7794,9.0,,,,170.0,6.0,,29.43,,10.0,,SCT,BKN,OVC,,5000.0,6000.0,8000.0,,-RA,,,,,,,,KLGA 150340Z AUTO 17006KT 10SM -RA SCT050 BKN060 OVC080 07/02 A2943 RMK T00700020 MADISHF,
LGA,2026-01-14 22:45,-73.8803,40.7794,9.0,,,,170.0,6.0,,29.43,,10.0,,BKN,OVC,,,4200.0,5000.0,,,,,,,,,,,KLGA 150345Z AUTO 17006KT 10SM BKN042 OVC050 07/02 A2943 RMK T00700020 MADISHF,
LGA,2026-01-14 22:50,-73.8803,40.7794,9.0,,,,170.0,6.0,,29.43,,10.0,,BKN,OVC,,,4200.0,5000.0,,,,,,,,,,,KLGA 150350Z AUTO 17006KT 10SM BKN042 OVC050 07/02 A2943 RMK T00700020 MADISHF,
LGA,2026-01-14 22:51,-73.8803,40.7794,9.0,44.0,36.0,73.25,180.0,6.0,T,29.43,996.5,10.0,,BKN,OVC,,,4200.0,5000.0,,,-RA,,,,,,,39.98,KLGA 150351Z 18006KT 10SM -RA BKN042 OVC050 07/02 A2943 RMK AO2 RAB00 SLP965 P0000 T00670022,
LGA,2026-01-14 22:55,-73.8803,40.7794,9.0,,,,160.0,7.0,,29.43,,10.0,,OVC,,,,4500.0,,,,-RA,,,,,,,,KLGA 150355Z AUTO 16007KT 10SM -RA OVC045 07/02 A2943 RMK T00700020 MADISHF,
LGA,2026-01-14 23:00,-73.8803,40.7794,9.0,,,,170.0,6.0,,29.43,,10.0,,OVC,,,,4500.0,,,,-RA,,,,,,,,KLGA 150400Z AUTO 17006KT 10SM -RA OVC045 07/02 A2943 RMK T00700020 MADISHF,
LGA,2026-01-14 23:05,-73.8803,40.7794,9.0,,,,160.0,8.0,,29.42,,10.0,,BKN,OVC,,,4100.0,4900.0,,,-RA,,,,,,,,KLGA 150405Z AUTO 16008KT 10SM -RA BKN041 OVC049 07/02 A2942 RMK T00700020 MADISHF,
LGA,2026-01-14 23:10,-73.8803,40.7794,9.0,,,,160.0,7.0,,29.42,,10.0,,BKN,OVC,,,4100.0,4900.0,,,,,,,,,,,KLGA 150410Z AUTO 16007KT 10SM BKN041 OVC049 07/02 A2942 RMK T00700020 MADISHF,
LGA,2026-01-14 23:15,-73.8803,40.7794,9.0,,,,170.0,6.0,,29.41,,10.0,,SCT,OVC,,,4100.0,5500.0,,,,,,,,,,,KLGA 150415Z AUTO 17006KT 10SM SCT041 OVC055 07/02 A2941 RMK T00700020 MADISHF,
LGA,2026-01-14 23:20,-73.8803,40.7794,9.0,,,,160.0,6.0,,29.41,,10.0,,SCT,OVC,,,3900.0,5500.0,,,,,,,,,,,KLGA 150420Z AUTO 16006KT 10SM SCT039 OVC055 07/02 A2941 RMK T00700020 MADISHF,
LGA,2026-01-14 23:25,-73.8803,40.7794,9.0,,,,160.0,6.0,,29.41,,10.0,,SCT,OVC,,,3900.0,6000.0,,,,,,,,,,,KLGA 150425Z AUTO 16006KT 10SM SCT039 OVC060 07/02 A2941 RMK T00700020 MADISHF,
LGA,2026-01-14 23:30,-73.8803,40.7794,9.0,,,,160.0,7.0,,29.41,,10.0,,SCT,OVC,,,3900.0,6000.0,,,,,,,,,,,KLGA 150430Z AUTO 16007KT 10SM SCT039 OVC060 07/02 A2941 RMK T00700020 MADISHF,
LGA,2026-01-14 23:35,-73.8803,40.7794,9.0,,,,160.0,8.0,,29.4,,10.0,,SCT,OVC,,,3900.0,6000.0,,,,,,,,,,,KLGA 150435Z AUTO 16008KT 10SM SCT039 OVC060 07/02 A2940 RMK T00700020 MADISHF,
LGA,2026-01-14 23:40,-73.8803,40.7794,9.0,,,,170.0,6.0,,29.4,,10.0,,FEW,OVC,,,3900.0,6000.0,,,,,,,,,,,KLGA 150440Z AUTO 17006KT 10SM FEW039 OVC060 07/02 A2940 RMK T00700020 MADISHF,
LGA,2026-01-14 23:45,-73.8803,40.7794,9.0,,,,180.0,6.0,,29.4,,10.0,,SCT,OVC,,,3900.0,6000.0,,,,,,,,,,,KLGA 150445Z AUTO 18006KT 10SM SCT039 OVC060 07/03 A2940 RMK T00700030 MADISHF,
LGA,2026-01-14 23:50,-73.8803,40.7794,9.0,,,,180.0,5.0,,29.4,,10.0,,SCT,OVC,,,3900.0,6000.0,,,,,,,,,,,KLGA 150450Z AUTO 18005KT 10SM SCT039 OVC060 07/02 A2940 RMK T00700020 MADISHF,
LGA,2026-01-14 23:51,-73.8803,40.7794,9.0,45.0,36.0,70.51,180.0,5.0,T,29.4,995.5,10.0,,FEW,SCT,OVC,,3900.0,5500.0,6500.0,,,,,,,,,41.83,KLGA 150451Z 18005KT 10SM FEW039 SCT055 OVC065 07/02 A2940 RMK AO2 RAE10 SLP955 P0000 T00720022 401060056,
LGA,2026-01-14 23:55,-73.8803,40.7794,9.0,,,,180.0,5.0,,29.4,,10.0,,FEW,SCT,OVC,,3900.0,5500.0,6500.0,,,,,,,,,,KLGA 150455Z AUTO 18005KT 10SM FEW039 SCT055 OVC065 07/03 A2940 RMK T00700030 MADISHF,
LGA,2026-01-15 00:00,-73.8803,40.7794,9.0,,,,180.0,5.0,,29.39,,10.0,,FEW,BKN,OVC,,3900.0,4800.0,6500.0,,,,,,,,,,KLGA 150500Z AUTO 18005KT 10SM FEW039 BKN048 OVC065 07/03 A2939 RMK T00700030 MADISHF,
LGA,2026-01-15 00:05,-73.8803,40.7794,9.0,,,,180.0,7.0,,29.39,,10.0,,BKN,OVC,,,4800.0,6500.0,,,,,,,,,,,KLGA 150505Z AUTO 18007KT 10SM BKN048 OVC065 07/02 A2939 RMK T00700020 MADISHF,
LGA,2026-01-15 00:10,-73.8803,40.7794,9.0,,,,180.0,6.0,,29.39,,10.0,,BKN,OVC,,,5000.0,6500.0,,,,,,,,,,,KLGA 150510Z AUTO 18006KT 10SM BKN050 OVC065 07/02 A2939 RMK T00700020 MADISHF,
LGA,2026-01-15 00:15,-73.8803,40.7794,9.0,,,,190.0,6.0,,29.39,,10.0,,BKN,OVC,,,5000.0,6500.0,,,,,,,,,,,KLGA 150515Z AUTO 19006KT 10SM BKN050 OVC065 07/02 A2939 RMK T00700020 MADISHF,
LGA,2026-01-15 00:20,-73.8803,40.7794,9.0,,,,190.0,6.0,,29.39,,10.0,,SCT,OVC,,,5000.0,6000.0,,,,,,,,,,,KLGA 150520Z AUTO 19006KT 10SM SCT050 OVC060 07/02 A2939 RMK T00700020 MADISHF,
LGA,2026-01-15 00:25,-73.8803,40.7794,9.0,,,,180.0,5.0,,29.39,,10.0,,SCT,OVC,,,4800.0,6000.0,,,,,,,,,,,KLGA 150525Z AUTO 18005KT 10SM SCT048 OVC060 07/02 A2939 RMK T00700020 MADISHF,
LGA,2026-01-15 00:30,-73.8803,40.7794,9.0,,,,180.0,5.0,,29.38,,10.0,,OVC,,,,6000.0,,,,,,,,,,,,KLGA 150530Z AUTO 18005KT 10SM OVC060 07/02 A2938 RMK T00700020 MADISHF,
LGA,2026-01-15 00:35,-73.8803,40.7794,9.0,,,,180.0,6.0,,29.38,,10.0,,OVC,,,,6000.0,,,,,,,,,,,,KLGA 150535Z AUTO 18006KT 10SM OVC060 07/02 A2938 RMK T00700020 MADISHF,
LGA,2026-01-15 00:40,-73.8803,40.7794,9.0,,,,170.0,6.0,,29.38,,10.0,,OVC,,,,6000.0,,,,,,,,,,,,KLGA 150540Z AUTO 17006KT 10SM OVC060 07/02 A2938 RMK T00700020 MADISHF,
LGA,2026-01-15 00:45,-73.8803,40.7794,9.0,,,,180.0,7.0,,29.38,,10.0,,OVC,,,,6000.0,,,,,,,,,,,,KLGA 150545Z AUTO 18007KT 10SM OVC060 07/02 A2938 RMK T00700020 MADISHF,
LGA,2026-01-15 00:50,-73.8803,40.7794,9.0,,,,170.0,7.0,,29.37,,10.0,,OVC,,,,6000.0,,,,,,,,,,,,KLGA 150550Z AUTO 17007KT 10SM OVC060 07/02 A2937 RMK T00700020 MADISHF,
LGA,2026-01-15 00:51,-73.8803,40.7794,9.0,44.0,36.0,73.25,170.0,7.0,0.00,29.37,994.6,10.0,,OVC,,,,6000.0,,,,,,,,,,,39.41,KLGA 150551Z 17007KT 10SM OVC060 07/02 A2937 RMK AO2 SLP946 60000 T00670022 10078 20067 56030,
LGA,2026-01-15 00:55,-73.8803,40.7794,9.0,,,,180.0,6.0,,29.37,,10.0,,OVC,,,,6000.0,,,,,,,,,,,,KLGA 150555Z AUTO 18006KT 10SM OVC060 07/02 A2937 RMK T00700020 MADISHF,
LGA,2026-01-15 01:00,-73.8803,40.7794,9.0,,,,170.0,5.0,,29.36,,10.0,,OVC,,,,6000.0,,,,,,,,,,,,KLGA 150600Z AUTO 17005KT 10SM OVC060 07/02 A2936 RMK T00700020 MADISHF,
LGA,2026-01-15 01:05,-73.8803,40.7794,9.0,,,,180.0,5.0,,29.36,,10.0,,OVC,,,,6500.0,,,,,,,,,,,,KLGA 150605Z AUTO 18005KT 10SM OVC065 07/02 A2936 RMK T00700020 MADISHF,
LGA,2026-01-15 01:10,-73.8803,40.7794,9.0,,,,180.0,5.0,,29.36,,10.0,,BKN,OVC,,,6500.0,12000.0,,,,,,,,,,,KLGA 150610Z AUTO 18005KT 10SM BKN065 OVC120 07/02 A2936 RMK T00700020 MADISHF,
LGA,2026-01-15 01:15,-73.8803,40.7794,9.0,,,,190.0,5.0,,29.36,,10.0,,BKN,OVC,,,6500.0,12000.0,,,,,,,,,,,KLGA 150615Z AUTO 19005KT 10SM BKN065 OVC120 07/02 A2936 RMK T00700020 MADISHF,
LGA,2026-01-15 01:20,-73.8803,40.7794,9.0,,,,200.0,5.0,,29.37,,10.0,,OVC,,,,6500.0,,,,,,,,,,,,KLGA 150620Z AUTO 20005KT 10SM OVC065 07/02 A2937 RMK T00700020 MADISHF,
LGA,2026-01-15 01:25,-73.8803,40.7794,9.0,,,,200.0,5.0,,29.36,,10.0,,OVC,,,,6500.0,,,,,,,,,,,,KLGA 150625Z AUTO 20005KT 10SM OVC065 07/02 A2936 RMK T00700020 MADISHF,
LGA,2026-01-15 01:30,-73.8803,40.7794,9.0,,,,200.0,6.0,,29.36,,10.0,,BKN,OVC,,,6500.0,12000.0,,,,,,,,,,,KLGA 150630Z AUTO 20006KT 10SM BKN065 OVC120 07/02 A2936 RMK T00700020 MADISHF,
LGA,2026-01-15 01:35,-73.8803,40.7794,9.0,,,,210.0,6.0,,29.36,,10.0,,BKN,OVC,,,6500.0,12000.0,,,,,,,,,,,KLGA 150635Z AUTO 21006KT 10SM BKN065 OVC120 08/02 A2936 RMK T00800020 MADISHF,
LGA,2026-01-15 01:40,-73.8803,40.7794,9.0,,,,210.0,4.0,,29.36,,10.0,,BKN,OVC,,,6500.0,12000.0,,,,,,,,,,,KLGA 150640Z AUTO 21004KT 10SM BKN065 OVC120 08/02 A2936 RMK T00800020 MADISHF,
LGA,2026-01-15 01:45,-73.8803,40.7794,9.0,,,,210.0,8.0,,29.36,,10.0,,BKN,OVC,,,6500.0,12000.0,,,,,,,,,,,KLGA 150645Z AUTO 21008KT 10SM BKN065 OVC120 08/02 A2936 RMK T00800020 MADISHF,
LGA,2026-01-15 01:50,-73.8803,40.7794,9.0,,,,220.0,7.0,,29.36,,10.0,,SCT,OVC,,,6000.0,12000.0,,,,,,,,,,,KLGA 150650Z AUTO 22007KT 10SM SCT060 OVC120 08/02 A2936 RMK T00800020 MADISHF,
LGA,2026-01-15 01:51,-73.8803,40.7794,9.0,46.0,35.0,65.24,220.0,6.0,0.00,29.36,994.1,10.0,,SCT,OVC,,,6000.0,12000.0,,,,,,,,,,42.39,KLGA 150651Z 22006KT 10SM SCT060 OVC120 08/02 A2936 RMK AO2 SLP941 T00780017,
LGA,2026-01-15 01:55,-73.8803,40.7794,9.0,,,,210.0,8.0,,29.36,,10.0,,FEW,OVC,,,6000.0,12000.0,,,,,,,,,,,KLGA 150655Z AUTO 21008KT 10SM FEW060 OVC120 08/02 A2936 RMK T00800020 MADISHF,
LGA,2026-01-15 02:00,-73.8803,40.7794,9.0,,,,220.0,8.0,,29.36,,10.0,,FEW,OVC,,,6000.0,12000.0,,,,,,,,,,,KLGA 150700Z AUTO 22008KT 10SM FEW060 OVC120 08/01 A2936 RMK T00800010 MADISHF,
LGA,2026-01-15 02:05,-73.8803,40.7794,9.0,,,,220.0,5.0,,29.35,,10.0,,FEW,OVC,,,6000.0,12000.0,,,,,,,,,,,KLGA 150705Z AUTO 22005KT 10SM FEW060 OVC120 08/01 A2935 RMK T00800010 MADISHF,
LGA,2026-01-15 02:10,-73.8803,40.7794,9.0,,,,210.0,5.0,,29.35,,10.0,,BKN,,,,12000.0,,,,,,,,,,,,KLGA 150710Z AUTO 21005KT 10SM BKN120 08/01 A2935 RMK T00800010 MADISHF,
LGA,2026-01-15 02:15,-73.8803,40.7794,9.0,,,,210.0,5.0,,29.35,,10.0,,BKN,,,,12000.0,,,,,,,,,,,,KLGA 150715Z AUTO 21005KT 10SM BKN120 08/01 A2935 RMK T00800010 MADISHF,
LGA,2026-01-15 02:20,-73.8803,40.7794,9.0,,,,220.0,6.0,,29.35,,10.0,,SCT,,,,12000.0,,,,,,,,,,,,KLGA 150720Z AUTO 22006KT 10SM SCT120 08/01 A2935 RMK T00800010 MADISHF,
LGA,2026-01-15 02:25,-73.8803,40.7794,9.0,,,,220.0,7.0,,29.36,,10.0,,FEW,SCT,,,8500.0,12000.0,,,,,,,,,,,KLGA 150725Z AUTO 22007KT 10SM FEW085 SCT120 07/01 A2936 RMK T00700010 MADISHF,
LGA,2026-01-15 02:30,-73.8803,40.7794,9.0,,,,200.0,8.0,,29.35,,10.0,,FEW,SCT,,,8500.0,12000.0,,,,,,,,,,,KLGA 150730Z AUTO 20008KT 10SM FEW085 SCT120 08/01 A2935 RMK T00800010 MADISHF,
LGA,2026-01-15 02:35,-73.8803,40.7794,9.0,,,,200.0,8.0,,29.36,,10.0,,SCT,BKN,,,8500.0,12000.0,,,,,,,,,,,KLGA 150735Z AUTO 20008KT 10SM SCT085 BKN120 08/01 A2936 RMK T00800010 MADISHF,
LGA,2026-01-15 02:40,-73.8803,40.7794,9.0,,,,210.0,9.0,,29.36,,10.0,,BKN,BKN,,,8500.0,12000.0,,,,,,,,,,,KLGA 150740Z AUTO 21009KT 10SM BKN085 BKN120 08/01 A2936 RMK T00800010 MADISHF,
LGA,2026-01-15 02:45,-73.8803,40.7794,9.0,,,,220.0,6.0,,29.36,,10.0,,BKN,BKN,,,8000.0,12000.0,,,,,,,,,,,KLGA 150745Z AUTO 22006KT 10SM BKN080 BKN120 07/01 A2936 RMK T00700010 MADISHF,
LGA,2026-01-15 02:50,-73.8803,40.7794,9.0,,,,220.0,8.0,,29.35,,10.0,,BKN,OVC,,,8000.0,12000.0,,,,,,,,,,,KLGA 150750Z AUTO 22008KT 10SM BKN080 OVC120 07/01 A2935 RMK T00700010 MADISHF,
LGA,2026-01-15 02:51,-73.8803,40.7794,9.0,45.0,33.0,62.56,220.0,8.0,0.00,29.35,993.9,10.0,,BKN,OVC,,,8000.0,12000.0,,,,,,,,,,40.13,KLGA 150751Z 22008KT 10SM BKN080 OVC120 07/01 A2935 RMK AO2 SLP939 T00720006,
LGA,2026-01-15 02:55,-73.8803,40.7794,9.0,,,,210.0,7.0,,29.35,,10.0,,BKN,OVC,,,8000.0,12000.0,,,,,,,,,,,KLGA 150755Z AUTO 21007KT 10SM BKN080 OVC120 07/M00 A2935 RMK T00701000 MADISHF,
LGA,2026-01-15 03:00,-73.8803,40.7794,9.0,,,,220.0,8.0,,29.35,,10.0,,BKN,BKN,,,8000.0,12000.0,,,,,,,,,,,KLGA 150800Z AUTO 22008KT 10SM BKN080 BKN120 07/M00 A2935 RMK T00701000 MADISHF,
LGA,2026-01-15 03:05,-73.8803,40.7794,9.0,,,,210.0,7.0,,29.35,,10.0,,SCT,BKN,,,8000.0,12000.0,,,,,,,,,,,KLGA 150805Z AUTO 21007KT 10SM SCT080 BKN120 07/M00 A2935 RMK T00701000 MADISHF,
LGA,2026-01-15 03:10,-73.8803,40.7794,9.0,,,,220.0,10.0,,29.35,,10.0,,FEW,SCT,,,7500.0,12000.0,,,,,,,,,,,KLGA 150810Z AUTO 22010KT 10SM FEW075 SCT120 07/M00 A2935 RMK T00701000 MADISHF,
LGA,2026-01-15 03:15,-73.8803,40.7794,9.0,,,,220.0,7.0,,29.35,,10.0,,FEW,FEW,,,8500.0,12000.0,,,,,,,,,,,KLGA 150815Z AUTO 22007KT 10SM FEW085 FEW120 07/M00 A2935 RMK T00701000 MADISHF,
LGA,2026-01-15 03:20,-73.8803,40.7794,9.0,,,,210.0,8.0,,29.34,,10.0,,FEW,,,,12000.0,,,,,,,,,,,,KLGA 150820Z AUTO 21008KT 10SM FEW120 07/M00 A2934 RMK T00701000 MADISHF,
LGA,2026-01-15 03:25,-73.8803,40.7794,9.0,,,,230.0,8.0,,29.35,,10.0,,CLR,,,,,,,,,,,,,,,,KLGA 150825Z AUTO 23008KT 10SM CLR 07/M00 A2935 RMK T00701000 MADISHF,
LGA,2026-01-15 03:30,-73.8803,40.7794,9.0,,,,230.0,10.0,,29.35,,10.0,15.0,FEW,,,,4000.0,,,,,,,,,,,,KLGA 150830Z AUTO 23010G15KT 10SM FEW040 07/M00 A2935 RMK T00701000 MADISHF,
LGA,2026-01-15 03:35,-73.8803,40.7794,9.0,,,,230.0,6.0,,29.35,,10.0,,FEW,,,,4000.0,,,,,,,,,,,,KLGA 150835Z AUTO 23006KT 10SM FEW040 07/M00 A2935 RMK T00701000 MADISHF,
LGA,2026-01-15 03:40,-73.8803,40.7794,9.0,,,,230.0,8.0,,29.35,,10.0,,SCT,,,,4200.0,,,,,,,,,,,,KLGA 150840Z AUTO 23008KT 10SM SCT042 07/M00 A2935 RMK T00701000 MADISHF,
LGA,2026-01-15 03:45,-73.8803,40.7794,9.0,,,,230.0,8.0,,29.34,,10.0,,SCT,,,,4200.0,,,,,,,,,,,,KLGA 150845Z AUTO 23008KT 10SM SCT042 07/M00 A2934 RMK T00701000 MADISHF,
LGA,2026-01-15 03:50,-73.8803,40.7794,9.0,,,,220.0,6.0,,29.34,,10.0,,BKN,OVC,,,4200.0,11000.0,,,,,,,,,,,KLGA 150850Z AUTO 22006KT 10SM BKN042 OVC110 07/M00 A2934 RMK T00701000 MADISHF,
LGA,2026-01-15 03:51,-73.8803,40.7794,9.0,45.0,32.0,60.09,230.0,6.0,0.00,29.34,993.6,10.0,,BKN,OVC,,,4200.0,11000.0,,,,,,,,,,41.19,KLGA 150851Z 23006KT 10SM BKN042 OVC110 07/00 A2934 RMK AO2 SLP936 T00720000 56010,
LGA,2026-01-15 03:55,-73.8803,40.7794,9.0,,,,220.0,7.0,,29.34,,10.0,,SCT,SCT,,,4200.0,5000.0,,,,,,,,,,,KLGA 150855Z AUTO 22007KT 10SM SCT042 SCT050 07/M00 A2934 RMK T00701000 MADISHF,
LGA,2026-01-15 04:00,-73.8803,40.7794,9.0,,,,230.0,9.0,,29.35,,10.0,,FEW,BKN,,,4300.0,5500.0,,,,,,,,,,,KLGA 150900Z AUTO 23009KT 10SM FEW043 BKN055 07/M00 A2935 RMK T00701000 MADISHF,
LGA,2026-01-15 04:05,-73.8803,40.7794,9.0,,,,230.0,9.0,,29.35,,10.0,,SCT,BKN,,,4300.0,5500.0,,,,,,,,,,,KLGA 150905Z AUTO 23009KT 10SM SCT043 BKN055 07/M00 A2935 RMK T00701000 MADISHF,
LGA,2026-01-15 04:10,-73.8803,40.7794,9.0,,,,240.0,6.0,,29.34,,10.0,,SCT,BKN,,,4100.0,5500.0,,,,,,,,,,,KLGA 150910Z AUTO 24006KT 10SM SCT041 BKN055 07/M00 A2934 RMK T00701000 MADISHF,
LGA,2026-01-15 04:15,-73.8803,40.7794,9.0,,,,240.0,10.0,,29.35,,10.0,15.0,FEW,BKN,,,4100.0,5500.0,,,,,,,,,,,KLGA 150915Z AUTO 24010G15KT 10SM FEW041 BKN055 07/M00 A2935 RMK T00701000 MADISHF,
LGA,2026-01-15 04:20,-73.8803,40.7794,9.0,,,,240.0,11.0,,29.35,,10.0,16.0,FEW,BKN,,,3900.0,5500.0,,,,,,,,,,,KLGA 150920Z AUTO 24011G16KT 10SM FEW039 BKN055 07/M00 A2935 RMK T00701000 MADISHF,
LGA,2026-01-15 04:25,-73.8803,40.7794,9.0,,,,240.0,9.0,,29.34,,10.0,,SCT,BKN,,,3900.0,5500.0,,,,,,,,,,,KLGA 150925Z AUTO 24009KT 10SM SCT039 BKN055 07/M00 A2934 RMK T00701000 MADISHF,
LGA,2026-01-15 04:30,-73.8803,40.7794,9.0,,,,230.0,8.0,,29.34,,10.0,,SCT,BKN,BKN,,3900.0,6000.0,10000.0,,,,,,,,,,KLGA 150930Z AUTO 23008KT 10SM SCT039 BKN060 BKN100 07/M00 A2934 RMK T00701000 MADISHF,
LGA,2026-01-15 04:35,-73.8803,40.7794,9.0,,,,230.0,8.0,,29.34,,10.0,,FEW,SCT,BKN,,3800.0,6000.0,10000.0,,,,,,,,,,KLGA 150935Z AUTO 23008KT 10SM FEW038 SCT060 BKN100 07/M00 A2934 RMK T00701000 MADISHF,
LGA,2026-01-15 04:40,-73.8803,40.7794,9.0,,,,230.0,9.0,,29.34,,10.0,,FEW,SCT,BKN,,3800.0,6000.0,10000.0,,,,,,,,,,KLGA 150940Z AUTO 23009KT 10SM FEW038 SCT060 BKN100 07/M00 A2934 RMK T00701000 MADISHF,
LGA,2026-01-15 04:45,-73.8803,40.7794,9.0,,,,220.0,9.0,,29.34,,10.0,,FEW,BKN,OVC,,3700.0,6000.0,10000.0,,,,,,,,,,KLGA 150945Z AUTO 22009KT 10SM FEW037 BKN060 OVC100 07/M00 A2934 RMK T00701000 MADISHF,
LGA,2026-01-15 04:50,-73.8803,40.7794,9.0,,,,210.0,8.0,,29.34,,10.0,,FEW,BKN,OVC,,3700.0,6000.0,10000.0,,,,,,,,,,KLGA 150950Z AUTO 21008KT 10SM FEW037 BKN060 OVC100 07/M00 A2934 RMK T00701000 MADISHF,
LGA,2026-01-15 04:51,-73.8803,40.7794,9.0,45.0,32.0,60.09,220.0,8.0,0.00,29.34,993.5,10.0,,FEW,BKN,OVC,,3700.0,6000.0,10000.0,,,,,,,,,40.13,KLGA 150951Z 22008KT 10SM FEW037 BKN060 OVC100 07/00 A2934 RMK AO2 SLP935 T00720000,
LGA,2026-01-15 04:55,-73.8803,40.7794,9.0,,,,220.0,8.0,,29.34,,10.0,,SCT,BKN,OVC,,6000.0,8000.0,10000.0,,,,,,,,,,KLGA 150955Z AUTO 22008KT 10SM SCT060 BKN080 OVC100 07/M00 A2934 RMK T00701000 MADISHF,
LGA,2026-01-15 05:00,-73.8803,40.7794,9.0,,,,220.0,7.0,,29.34,,10.0,,SCT,BKN,OVC,,6000.0,8000.0,10000.0,,,,,,,,,,KLGA 151000Z AUTO 22007KT 10SM SCT060 BKN080 OVC100 07/M00 A2934 RMK T00701000 MADISHF,
LGA,2026-01-15 05:05,-73.8803,40.7794,9.0,,,,230.0,10.0,,29.35,,10.0,,BKN,BKN,OVC,,6000.0,8000.0,9500.0,,,,,,,,,,KLGA 151005Z AUTO 23010KT 10SM BKN060 BKN080 OVC095 07/M00 A2935 RMK T00701000 MADISHF,
LGA,2026-01-15 05:10,-73.8803,40.7794,9.0,,,,230.0,10.0,,29.35,,10.0,,FEW,BKN,OVC,,3700.0,5500.0,8000.0,,,,,,,,,,KLGA 151010Z AUTO 23010KT 10SM FEW037 BKN055 OVC080 07/M00 A2935 RMK T00701000 MADISHF,
LGA,2026-01-15 05:15,-73.8803,40.7794,9.0,,,,230.0,10.0,,29.35,,10.0,,FEW,BKN,OVC,,3700.0,5500.0,8000.0,,,,,,,,,,KLGA 151015Z AUTO 23010KT 10SM FEW037 BKN055 OVC080 07/M00 A2935 RMK T00701000 MADISHF,
LGA,2026-01-15 05:20,-73.8803,40.7794,9.0,,,,230.0,10.0,,29.34,,10.0,,SCT,OVC,,,4000.0,5000.0,,,,,,,,,,,KLGA 151020Z AUTO 23010KT 10SM SCT040 OVC050 07/M00 A2934 RMK T00701000 MADISHF,
LGA,2026-01-15 05:25,-73.8803,40.7794,9.0,,,,220.0,10.0,,29.34,,10.0,,BKN,OVC,,,4300.0,5500.0,,,,,,,,,,,KLGA 151025Z AUTO 22010KT 10SM BKN043 OVC055 07/M00 A2934 RMK T00701000 MADISHF,
LGA,2026-01-15 05:30,-73.8803,40.7794,9.0,,,,240.0,11.0,,29.35,,10.0,,FEW,BKN,OVC,,3600.0,4400.0,5500.0,,,,,,,,,,KLGA 151030Z AUTO 24011KT 10SM FEW036 BKN044 OVC055 07/M00 A2935 RMK T00701000 MADISHF,
LGA,2026-01-15 05:35,-73.8803,40.7794,9.0,,,,230.0,8.0,,29.35,,10.0,,SCT,OVC,,,4100.0,4800.0,,,,,,,,,,,KLGA 151035Z AUTO 23008KT 10SM SCT041 OVC048 07/M00 A2935 RMK T00701000 MADISHF,
LGA,2026-01-15 05:40,-73.8803,40.7794,9.0,,,,230.0,8.0,,29.35,,10.0,,OVC,,,,4700.0,,,,,,,,,,,,KLGA 151040Z AUTO 23008KT 10SM OVC047 07/01 A2935 RMK T00700010 MADISHF,
LGA,2026-01-15 05:45,-73.8803,40.7794,9.0,,,,240.0,8.0,,29.35,,10.0,,FEW,BKN,OVC,,4200.0,4900.0,6000.0,,,,,,,,,,KLGA 151045Z AUTO 24008KT 10SM FEW042 BKN049 OVC060 07/01 A2935 RMK T00700010 MADISHF,
LGA,2026-01-15 05:50,-73.8803,40.7794,9.0,,,,230.0,7.0,,29.34,,10.0,,BKN,BKN,OVC,,4700.0,6000.0,9000.0,,,,,,,,,,KLGA 151050Z AUTO 23007KT 10SM BKN047 BKN060 OVC090 07/01 A2934 RMK T00700010 MADISHF,
LGA,2026-01-15 05:51,-73.8803,40.7794,9.0,44.0,33.0,64.99,230.0,7.0,0.00,29.34,993.7,10.0,,BKN,BKN,OVC,,4700.0,6000.0,9000.0,,,,,,,,,39.41,KLGA 151051Z 23007KT 10SM BKN047 BKN060 OVC090 07/01 A2934 RMK AO2 SLP937 T00670006,
LGA,2026-01-15 05:55,-73.8803,40.7794,9.0,,,,250.0,9.0,,29.35,,10.0,,SCT,BKN,OVC,,4700.0,6000.0,9500.0,,,,,,,,,,KLGA 151055Z AUTO 25009KT 10SM SCT047 BKN060 OVC095 07/01 A2935 RMK T00700010 MADISHF,
LGA,2026-01-15 06:00,-73.8803,40.7794,9.0,,,,250.0,7.0,,29.35,,10.0,,SCT,BKN,OVC,,4700.0,8000.0,9500.0,,,,,,,,,,KLGA 151100Z AUTO 25007KT 10SM SCT047 BKN080 OVC095 07/01 A2935 RMK T00700010 MADISHF,
LGA,2026-01-15 06:05,-73.8803,40.7794,9.0,,,,240.0,9.0,,29.35,,10.0,,BKN,BKN,OVC,,4700.0,6000.0,9500.0,,,,,,,,,,KLGA 151105Z AUTO 24009KT 10SM BKN047 BKN060 OVC095 07/01 A2935 RMK T00700010 MADISHF,
LGA,2026-01-15 06:10,-73.8803,40.7794,9.0,,,,230.0,12.0,,29.35,,10.0,,BKN,BKN,OVC,,4700.0,6000.0,9500.0,,,,,,,,,,KLGA 151110Z AUTO 23012KT 10SM BKN047 BKN060 OVC095 07/01 A2935 RMK T00700010 MADISHF,
LGA,2026-01-15 06:15,-73.8803,40.7794,9.0,,,,230.0,11.0,,29.36,,10.0,,BKN,BKN,OVC,,4700.0,6000.0,9500.0,,,,,,,,,,KLGA 151115Z AUTO 23011KT 10SM BKN047 BKN060 OVC095 07/01 A2936 RMK T00700010 MADISHF,
LGA,2026-01-15 06:20,-73.8803,40.7794,9.0,,,,230.0,9.0,,29.36,,10.0,,BKN,BKN,OVC,,4700.0,6000.0,9500.0,,,,,,,,,,KLGA 151120Z AUTO 23009KT 10SM BKN047 BKN060 OVC095 07/01 A2936 RMK T00700010 MADISHF,
LGA,2026-01-15 06:25,-73.8803,40.7794,9.0,,,,240.0,10.0,,29.36,,10.0,,BKN,BKN,OVC,,4700.0,6000.0,9500.0,,,,,,,,,,KLGA 151125Z AUTO 24010KT 10SM BKN047 BKN060 OVC095 07/01 A2936 RMK T00700010 MADISHF,
LGA,2026-01-15 06:30,-73.8803,40.7794,9.0,,,,230.0,10.0,,29.36,,10.0,,BKN,BKN,OVC,,4700.0,6000.0,9500.0,,,,,,,,,,KLGA 151130Z AUTO 23010KT 10SM BKN047 BKN060 OVC095 07/01 A2936 RMK T00700010 MADISHF,
LGA,2026-01-15 06:35,-73.8803,40.7794,9.0,,,,250.0,7.0,,29.36,,10.0,,BKN,BKN,OVC,,4700.0,6000.0,9500.0,,,,,,,,,,KLGA 151135Z AUTO 25007KT 10SM BKN047 BKN060 OVC095 07/01 A2936 RMK T00700010 MADISHF,
LGA,2026-01-15 06:40,-73.8803,40.7794,9.0,,,,240.0,8.0,,29.36,,10.0,,SCT,BKN,OVC,,2300.0,7000.0,11000.0,,,,,,,,,,KLGA 151140Z AUTO 24008KT 10SM SCT023 BKN070 OVC110 07/01 A2936 RMK T00700010 MADISHF,
LGA,2026-01-15 06:45,-73.8803,40.7794,9.0,,,,230.0,8.0,,29.36,,10.0,,SCT,BKN,OVC,,2300.0,7000.0,11000.0,,,,,,,,,,KLGA 151145Z AUTO 23008KT 10SM SCT023 BKN070 OVC110 07/01 A2936 RMK T00700010 MADISHF,
LGA,2026-01-15 06:50,-73.8803,40.7794,9.0,,,,250.0,9.0,,29.36,,10.0,14.0,SCT,BKN,OVC,,2300.0,7000.0,11000.0,,,,,,,,,,KLGA 151150Z AUTO 25009G14KT 10SM SCT023 BKN070 OVC110 07/01 A2936 RMK T00700010 MADISHF,
LGA,2026-01-15 06:51,-73.8803,40.7794,9.0,44.0,33.0,64.99,250.0,10.0,0.00,29.36,994.1,10.0,,SCT,BKN,OVC,,2300.0,7000.0,11000.0,,,,,,,,,38.02,KLGA 151151Z 25010KT 10SM SCT023 BKN070 OVC110 07/01 A2936 RMK AO2 SLP941 T00670006 10078 20067 53004,
LGA,2026-01-15 06:55,-73.8803,40.7794,9.0,,,,240.0,8.0,,29.36,,10.0,,SCT,BKN,OVC,,2300.0,7000.0,12000.0,,,,,,,,,,KLGA 151155Z AUTO 24008KT 10SM SCT023 BKN070 OVC120 07/01 A2936 RMK T00700010 MADISHF,
LGA,2026-01-15 07:00,-73.8803,40.7794,9.0,,,,250.0,9.0,,29.36,,10.0,,SCT,BKN,OVC,,2300.0,7000.0,12000.0,,,,,,,,,,KLGA 151200Z AUTO 25009KT 10SM SCT023 BKN070 OVC120 07/01 A2936 RMK T00700010 MADISHF,
LGA,2026-01-15 07:05,-73.8803,40.7794,9.0,,,,250.0,12.0,,29.36,,10.0,,SCT,BKN,OVC,,2300.0,7000.0,12000.0,,,,,,,,,,KLGA 151205Z AUTO 25012KT 10SM SCT023 BKN070 OVC120 07/01 A2936 RMK T00700010 MADISHF,
LGA,2026-01-15 07:10,-73.8803,40.7794,9.0,,,,250.0,11.0,,29.36,,10.0,,SCT,BKN,OVC,,2300.0,7000.0,12000.0,,,,,,,,,,KLGA 151210Z AUTO 25011KT 10SM SCT023 BKN070 OVC120 07/01 A2936 RMK T00700010 MADISHF,
LGA,2026-01-15 07:15,-73.8803,40.7794,9.0,,,,240.0,11.0,,29.37,,10.0,,SCT,BKN,OVC,,2300.0,7000.0,12000.0,,,,,,,,,,KLGA 151215Z AUTO 24011KT 10SM SCT023 BKN070 OVC120 07/01 A2937 RMK T00700010 MADISHF,
LGA,2026-01-15 07:20,-73.8803,40.7794,9.0,,,,260.0,10.0,,29.37,,10.0,,SCT,BKN,OVC,,2300.0,7000.0,12000.0,,,,,,,,,,KLGA 151220Z AUTO 26010KT 10SM SCT023 BKN070 OVC120 07/01 A2937 RMK T00700010 MADISHF,
LGA,2026-01-15 07:25,-73.8803,40.7794,9.0,,,,260.0,14.0,,29.37,,10.0,,SCT,BKN,OVC,,2300.0,7000.0,12000.0,,,,,,,,,,KLGA 151225Z AUTO 26014KT 10SM SCT023 BKN070 OVC120 06/01 A2937 RMK T00600010 MADISHF,
LGA,2026-01-15 07:30,-73.8803,40.7794,9.0,,,,260.0,14.0,,29.37,,10.0,,SCT,BKN,OVC,,2300.0,7000.0,12000.0,,,,,,,,,,KLGA 151230Z AUTO 26014KT 10SM SCT023 BKN070 OVC120 06/01 A2937 RMK T00600010 MADISHF,
LGA,2026-01-15 07:35,-73.8803,40.7794,9.0,,,,260.0,13.0,,29.37,,10.0,,SCT,BKN,OVC,,2300.0,7000.0,12000.0,,,,,,,,,,KLGA 151235Z AUTO 26013KT 10SM SCT023 BKN070 OVC120 06/M00 A2937 RMK T00601000 MADISHF,
LGA,2026-01-15 07:40,-73.8803,40.7794,9.0,,,,250.0,13.0,,29.38,,10.0,,SCT,BKN,OVC,,2300.0,7000.0,12000.0,,,,,,,,,,KLGA 151240Z AUTO 25013KT 10SM SCT023 BKN070 OVC120 06/M00 A2938 RMK T00601000 MADISHF,
LGA,2026-01-15 07:45,-73.8803,40.7794,9.0,,,,250.0,14.0,,29.38,,10.0,,SCT,BKN,OVC,,2300.0,7000.0,12000.0,,,,,,,,,,KLGA 151245Z AUTO 25014KT 10SM SCT023 BKN070 OVC120 06/M00 A2938 RMK T00601000 MADISHF,
LGA,2026-01-15 07:50,-73.8803,40.7794,9.0,,,,280.0,17.0,,29.38,,10.0,23.0,SCT,BKN,OVC,,2300.0,7000.0,12000.0,,,,,,,,,,KLGA 151250Z AUTO 28017G23KT 10SM SCT023 BKN070 OVC120 06/M00 A2938 RMK T00601000 MADISHF,
LGA,2026-01-15 07:51,-73.8803,40.7794,9.0,43.0,32.0,64.86,270.0,14.0,0.00,29.38,994.8,10.0,24.0,SCT,BKN,OVC,,2300.0,4200.0,9000.0,,,,,,,,,35.34,KLGA 151251Z 27014G24KT 10SM SCT023 BKN042 OVC090 06/00 A2938 RMK AO2 SLP948 T00610000,
LGA,2026-01-15 07:55,-73.8803,40.7794,9.0,,,,260.0,17.0,,29.38,,10.0,,SCT,BKN,OVC,,2300.0,4200.0,9000.0,,,,,,,,,,KLGA 151255Z AUTO 26017KT 10SM SCT023 BKN042 OVC090 06/M00 A2938 RMK T00601000 MADISHF,
LGA,2026-01-15 08:00,-73.8803,40.7794,9.0,,,,250.0,13.0,,29.38,,10.0,,SCT,BKN,OVC,,2300.0,4200.0,9000.0,,,,,,,,,,KLGA 151300Z AUTO 25013KT 10SM SCT023 BKN042 OVC090 06/M00 A2938 RMK T00601000 MADISHF,
LGA,2026-01-15 08:05,-73.8803,40.7794,9.0,,,,250.0,15.0,,29.38,,10.0,,SCT,BKN,OVC,,2300.0,4200.0,9000.0,,,,,,,,,,KLGA 151305Z AUTO 25015KT 10SM SCT023 BKN042 OVC090 06/M00 A2938 RMK T00601000 MADISHF,
LGA,2026-01-15 08:10,-73.8803,40.7794,9.0,,,,260.0,13.0,,29.38,,10.0,,SCT,BKN,OVC,,2300.0,4200.0,9000.0,,,,,,,,,,KLGA 151310Z AUTO 26013KT 10SM SCT023 BKN042 OVC090 06/M00 A2938 RMK T00601000 MADISHF,
LGA,2026-01-15 08:15,-73.8803,40.7794,9.0,,,,270.0,15.0,,29.38,,10.0,,SCT,BKN,OVC,,2300.0,4200.0,9000.0,,,,,,,,,,KLGA 151315Z AUTO 27015KT 10SM SCT023 BKN042 OVC090 06/M00 A2938 RMK T00601000 MADISHF,
LGA,2026-01-15 08:20,-73.8803,40.7794,9.0,,,,260.0,13.0,,29.39,,10.0,,SCT,BKN,OVC,,2300.0,4200.0,9000.0,,,,,,,,,,KLGA 151320Z AUTO 26013KT 10SM SCT023 BKN042 OVC090 06/M00 A2939 RMK T00601000 MADISHF,
LGA,2026-01-15 08:25,-73.8803,40.7794,9.0,,,,250.0,15.0,,29.39,,10.0,25.0,SCT,BKN,OVC,,2300.0,4200.0,9000.0,,,,,,,,,,KLGA 151325Z AUTO 25015G25KT 10SM SCT023 BKN042 OVC090 06/M01 A2939 RMK T00601010 MADISHF,
LGA,2026-01-15 08:30,-73.8803,40.7794,9.0,,,,260.0,16.0,,29.4,,10.0,,SCT,BKN,OVC,,2300.0,4200.0,9000.0,,,,,,,,,,KLGA 151330Z AUTO 26016KT 10SM SCT023 BKN042 OVC090 06/M01 A2940 RMK T00601010 MADISHF,
LGA,2026-01-15 08:35,-73.8803,40.7794,9.0,,,,260.0,15.0,,29.4,,10.0,,SCT,BKN,OVC,,2300.0,4200.0,9000.0,,,,,,,,,,KLGA 151335Z AUTO 26015KT 10SM SCT023 BKN042 OVC090 06/M01 A2940 RMK T00601010 MADISHF,
LGA,2026-01-15 08:40,-73.8803,40.7794,9.0,,,,270.0,14.0,,29.4,,10.0,,SCT,BKN,OVC,,2300.0,4200.0,9000.0,,,,,,,,,,KLGA 151340Z AUTO 27014KT 10SM SCT023 BKN042 OVC090 06/M01 A2940 RMK T00601010 MADISHF,
LGA,2026-01-15 08:45,-73.8803,40.7794,9.0,,,,260.0,14.0,,29.4,,10.0,19.0,SCT,BKN,OVC,,2300.0,4200.0,9000.0,,,,,,,,,,KLGA 151345Z AUTO 26014G19KT 10SM SCT023 BKN042 OVC090 06/M02 A2940 RMK T00601020 MADISHF,
LGA,2026-01-15 08:50,-73.8803,40.7794,9.0,,,,260.0,19.0,,29.4,,10.0,,SCT,BKN,OVC,,2300.0,4200.0,9000.0,,,,,,,,,,KLGA 151350Z AUTO 26019KT 10SM SCT023 BKN042 OVC090 06/M02 A2940 RMK T00601020 MADISHF,
LGA,2026-01-15 08:51,-73.8803,40.7794,9.0,42.0,28.0,57.28,250.0,18.0,0.00,29.4,995.7,10.0,26.0,FEW,BKN,BKN,OVC,2300.0,3700.0,6000.0,15000.0,,,,,26.0,250.0,2026-01-15 08:51,32.91,KLGA 151351Z 25018G26KT 10SM FEW023 BKN037 BKN060 OVC150 06/M02 A2940 RMK AO2 PK WND 25026/1351 SLP957 T00561022,
LGA,2026-01-15 08:55,-73.8803,40.7794,9.0,,,,260.0,18.0,,29.41,,10.0,25.0,FEW,BKN,BKN,,2300.0,3700.0,5500.0,,,,,,,,,,KLGA 151355Z AUTO 26018G25KT 10SM FEW023 BKN037 BKN055 06/M03 A2941 RMK T00601030 MADISHF,
LGA,2026-01-15 09:00,-73.8803,40.7794,9.0,,,,270.0,17.0,,29.41,,10.0,22.0,FEW,BKN,BKN,,2300.0,3700.0,5500.0,,,,,,,,,,KLGA 151400Z AUTO 27017G22KT 10SM FEW023 BKN037 BKN055 06/M03 A2941 RMK T00601030 MADISHF,
LGA,2026-01-15 09:05,-73.8803,40.7794,9.0,,,,270.0,13.0,,29.41,,10.0,,FEW,BKN,BKN,,2300.0,3700.0,5500.0,,,,,,,,,,KLGA 151405Z AUTO 27013KT 10SM FEW023 BKN037 BKN055 06/M03 A2941 RMK T00601030 MADISHF,
LGA,2026-01-15 09:10,-73.8803,40.7794,9.0,,,,250.0,16.0,,29.41,,10.0,,FEW,BKN,BKN,,2300.0,3700.0,5500.0,,,,,,,,,,KLGA 151410Z AUTO 25016KT 10SM FEW023 BKN037 BKN055 05/M03 A2941 RMK T00501030 MADISHF,
LGA,2026-01-15 09:15,-73.8803,40.7794,9.0,,,,260.0,13.0,,29.42,,10.0,,FEW,BKN,BKN,,2300.0,3700.0,5500.0,,,,,,,,,,KLGA 151415Z AUTO 26013KT 10SM FEW023 BKN037 BKN055 05/M03 A2942 RMK T00501030 MADISHF,
LGA,2026-01-15 09:20,-73.8803,40.7794,9.0,,,,260.0,15.0,,29.42,,10.0,,FEW,BKN,BKN,,2300.0,3700.0,5500.0,,,,,,,,,,KLGA 151420Z AUTO 26015KT 10SM FEW023 BKN037 BKN055 05/M03 A2942 RMK T00501030 MADISHF,
LGA,2026-01-15 09:25,-73.8803,40.7794,9.0,,,,260.0,16.0,,29.42,,10.0,24.0,FEW,BKN,BKN,,2300.0,3700.0,5500.0,,,,,,,,,,KLGA 151425Z AUTO 26016G24KT 10SM FEW023 BKN037 BKN055 05/M03 A2942 RMK T00501030 MADISHF,
LGA,2026-01-15 09:30,-73.8803,40.7794,9.0,,,,270.0,17.0,,29.43,,10.0,,FEW,BKN,BKN,,2300.0,3700.0,5500.0,,,,,,,,,,KLGA 151430Z AUTO 27017KT 10SM FEW023 BKN037 BKN055 05/M03 A2943 RMK T00501030 MADISHF,
LGA,2026-01-15 09:35,-73.8803,40.7794,9.0,,,,270.0,19.0,,29.43,,10.0,,FEW,BKN,BKN,,2300.0,3700.0,5500.0,,,,,,,,,,KLGA 151435Z AUTO 27019KT 10SM FEW023 BKN037 BKN055 05/M03 A2943 RMK T00501030 MADISHF,
LGA,2026-01-15 09:40,-73.8803,40.7794,9.0,,,,260.0,19.0,,29.43,,10.0,25.0,FEW,BKN,BKN,,2300.0,3700.0,5500.0,,,,,,,,,,KLGA 151440Z AUTO 26019G25KT 10SM FEW023 BKN037 BKN055 04/M04 A2943 RMK T00401040 MADISHF,
LGA,2026-01-15 09:45,-73.8803,40.7794,9.0,,,,260.0,15.0,,29.44,,10.0,,FEW,BKN,BKN,,2300.0,3700.0,5500.0,,,,,,,,,,KLGA 151445Z AUTO 26015KT 10SM FEW023 BKN037 BKN055 04/M04 A2944 RMK T00401040 MADISHF,
LGA,2026-01-15 09:50,-73.8803,40.7794,9.0,,,,,,,29.44,,10.0,27.0,FEW,BKN,BKN,,2300.0,3700.0,5500.0,,,,,,,,,,KLGA 151450Z AUTO /////G27KT 10SM FEW023 BKN037 BKN055 04/M05 A2944 RMK T00401050 MADISHF,
LGA,2026-01-15 09:51,-73.8803,40.7794,9.0,40.0,23.0,50.27,260.0,20.0,0.00,29.44,996.8,10.0,27.0,SCT,BKN,BKN,,4600.0,7000.0,15000.0,,,,,,28.0,260.0,2026-01-15 09:33,29.76,KLGA 151451Z 26020G27KT 10SM SCT046 BKN070 BKN150 04/M05 A2944 RMK AO2 PK WND 26028/1433 SLP968 T00441050 53028,
LGA,2026-01-15 09:55,-73.8803,40.7794,9.0,,,,260.0,16.0,,29.44,,10.0,,SCT,OVC,,,4800.0,7000.0,,,,,,,,,,,KLGA 151455Z AUTO 26016KT 10SM SCT048 OVC070 04/M05 A2944 RMK T00401050 MADISHF,
LGA,2026-01-15 10:00,-73.8803,40.7794,9.0,,,,250.0,18.0,,29.45,,10.0,23.0,SCT,BKN,OVC,,4800.0,7500.0,10000.0,,,,,,,,,,KLGA 151500Z AUTO 25018G23KT 10SM SCT048 BKN075 OVC100 04/M05 A2945 RMK T00401050 MADISHF,
LGA,2026-01-15 10:05,-73.8803,40.7794,9.0,,,,250.0,16.0,,29.45,,10.0,22.0,FEW,BKN,OVC,,5000.0,7500.0,10000.0,,,,,,,,,,KLGA 151505Z AUTO 25016G22KT 10SM FEW050 BKN075 OVC100 04/M06 A2945 RMK T00401060 MADISHF,
LGA,2026-01-15 10:10,-73.8803,40.7794,9.0,,,,270.0,19.0,,29.44,,10.0,26.0,SCT,BKN,,,7000.0,10000.0,,,,,,,,,,,KLGA 151510Z AUTO 27019G26KT 10SM SCT070 BKN100 04/M05 A2944 RMK T00401050 MADISHF,
LGA,2026-01-15 10:15,-73.8803,40.7794,9.0,,,,260.0,18.0,,29.44,,10.0,25.0,SCT,BKN,,,7500.0,10000.0,,,,,,,,,,,KLGA 151515Z AUTO 26018G25KT 10SM SCT075 BKN100 04/M06 A2944 RMK T00401060 MADISHF,
LGA,2026-01-15 10:20,-73.8803,40.7794,9.0,,,,260.0,13.0,,29.44,,10.0,21.0,FEW,BKN,,,7500.0,10000.0,,,,,,,,,,,KLGA 151520Z AUTO 26013G21KT 10SM FEW075 BKN100 04/M06 A2944 RMK T00401060 MADISHF,
LGA,2026-01-15 10:25,-73.8803,40.7794,9.0,,,,270.0,19.0,,29.44,,10.0,28.0,BKN,,,,10000.0,,,,,,,,,,,,KLGA 151525Z AUTO 27019G28KT 10SM BKN100 04/M06 A2944 RMK T00401060 MADISHF,
LGA,2026-01-15 10:30,-73.8803,40.7794,9.0,,,,270.0,20.0,,29.44,,10.0,28.0,SCT,,,,9500.0,,,,,,,,,,,,KLGA 151530Z AUTO 27020G28KT 10SM SCT095 04/M06 A2944 RMK T00401060 MADISHF,
LGA,2026-01-15 10:35,-73.8803,40.7794,9.0,,,,270.0,19.0,,29.44,,10.0,25.0,SCT,,,,9500.0,,,,,,,,,,,,KLGA 151535Z AUTO 27019G25KT 10SM SCT095 04/M06 A2944 RMK T00401060 MADISHF,
LGA,2026-01-15 10:40,-73.8803,40.7794,9.0,,,,250.0,16.0,,29.44,,10.0,,FEW,,,,9500.0,,,,,,,,,,,,KLGA 151540Z AUTO 25016KT 10SM FEW095 04/M06 A2944 RMK T00401060 MADISHF,
LGA,2026-01-15 10:45,-73.8803,40.7794,9.0,,,,250.0,16.0,,29.44,,10.0,21.0,FEW,,,,9500.0,,,,,,,,,,,,KLGA 151545Z AUTO 25016G21KT 10SM FEW095 04/M06 A2944 RMK T00401060 MADISHF,
LGA,2026-01-15 10:50,-73.8803,40.7794,9.0,,,,250.0,18.0,,29.44,,10.0,,FEW,,,,9000.0,,,,,,,,,,,,KLGA 151550Z AUTO 25018KT 10SM FEW090 04/M06 A2944 RMK T00401060 MADISHF,
LGA,2026-01-15 10:51,-73.8803,40.7794,9.0,40.0,21.0,46.2,260.0,16.0,0.00,29.44,996.9,10.0,27.0,FEW,FEW,FEW,,4000.0,7000.0,25000.0,,,,,,30.0,240.0,2026-01-15 09:56,30.85,KLGA 151551Z COR 26016G27KT 10SM FEW040 FEW070 FEW250 04/M06 A2944 RMK AO2 PK WND 24030/1456 SLP969 T00441061,
LGA,2026-01-15 10:55,-73.8803,40.7794,9.0,,,,250.0,17.0,,29.44,,10.0,23.0,CLR,,,,,,,,,,,,,,,,KLGA 151555Z AUTO 25017G23KT 10SM CLR 04/M07 A2944 RMK T00401070 MADISHF,
LGA,2026-01-15 11:00,-73.8803,40.7794,9.0,,,,250.0,17.0,,29.44,,10.0,,CLR,,,,,,,,,,,,,,,,KLGA 151600Z AUTO 25017KT 10SM CLR 04/M07 A2944 RMK T00401070 MADISHF,
LGA,2026-01-15 11:05,-73.8803,40.7794,9.0,,,,260.0,15.0,,29.44,,10.0,,CLR,,,,,,,,,,,,,,,,KLGA 151605Z AUTO 26015KT 10SM CLR 04/M08 A2944 RMK T00401080 MADISHF,
LGA,2026-01-15 11:10,-73.8803,40.7794,9.0,,,,260.0,18.0,,29.44,,10.0,,CLR,,,,,,,,,,,,,,,,KLGA 151610Z AUTO 26018KT 10SM CLR 04/M08 A2944 RMK T00401080 MADISHF,
LGA,2026-01-15 11:15,-73.8803,40.7794,9.0,,,,250.0,19.0,,29.44,,10.0,24.0,CLR,,,,,,,,,,,,,,,,KLGA 151615Z AUTO 25019G24KT 10SM CLR 04/M08 A2944 RMK T00401080 MADISHF,
LGA,2026-01-15 11:20,-73.8803,40.7794,9.0,,,,250.0,15.0,,29.44,,10.0,,CLR,,,,,,,,,,,,,,,,KLGA 151620Z AUTO 25015KT 10SM CLR 04/M09 A2944 RMK T00401090 MADISHF,
LGA,2026-01-15 11:25,-73.8803,40.7794,9.0,,,,260.0,14.0,,29.44,,10.0,,CLR,,,,,,,,,,,,,,,,KLGA 151625Z AUTO 26014KT 10SM CLR 04/M09 A2944 RMK T00401090 MADISHF,
LGA,2026-01-15 11:30,-73.8803,40.7794,9.0,,,,260.0,18.0,,29.43,,10.0,,CLR,,,,,,,,,,,,,,,,KLGA 151630Z AUTO 26018KT 10SM CLR 04/M09 A2943 RMK T00401090 MADISHF,
LGA,2026-01-15 11:35,-73.8803,40.7794,9.0,,,,250.0,16.0,,29.43,,10.0,,CLR,,,,,,,,,,,,,,,,KLGA 151635Z AUTO 25016KT 10SM CLR 04/M09 A2943 RMK T00401090 MADISHF,
LGA,2026-01-15 11:40,-73.8803,40.7794,9.0,,,,250.0,17.0,,29.44,,10.0,,FEW,,,,4000.0,,,,,,,,,,,,KLGA 151640Z AUTO 25017KT 10SM FEW040 04/M10 A2944 RMK T00401100 MADISHF,
LGA,2026-01-15 11:45,-73.8803,40.7794,9.0,,,,260.0,15.0,,29.44,,10.0,25.0,FEW,,,,4000.0,,,,,,,,,,,,KLGA 151645Z AUTO 26015G25KT 10SM FEW040 03/M10 A2944 RMK T00301100 MADISHF,
LGA,2026-01-15 11:50,-73.8803,40.7794,9.0,,,,250.0,18.0,,29.44,,10.0,25.0,FEW,,,,4000.0,,,,,,,,,,,,KLGA 151650Z AUTO 25018G25KT 10SM FEW040 03/M10 A2944 RMK T00301100 MADISHF,
LGA,2026-01-15 11:51,-73.8803,40.7794,9.0,38.0,14.0,36.93,250.0,19.0,0.00,29.44,996.8,10.0,26.0,FEW,FEW,,,4000.0,25000.0,,,,,,,29.0,250.0,2026-01-15 11:16,27.37,KLGA 151651Z 25019G26KT 10SM FEW040 FEW250 03/M10 A2944 RMK AO2 PK WND 25029/1616 SLP968 T00331100,
LGA,2026-01-15 11:55,-73.8803,40.7794,9.0,,,,250.0,15.0,,29.43,,10.0,,CLR,,,,,,,,,,,,,,,,KLGA 151655Z AUTO 25015KT 10SM CLR 03/M11 A2943 RMK T00301110 MADISHF,
LGA,2026-01-15 12:00,-73.8803,40.7794,9.0,,,,260.0,15.0,,29.43,,10.0,,CLR,,,,,,,,,,,,,,,,KLGA 151700Z AUTO 26015KT 10SM CLR 03/M10 A2943 RMK T00301100 MADISHF,
LGA,2026-01-15 12:05,-73.8803,40.7794,9.0,,,,260.0,13.0,,29.43,,10.0,,CLR,,,,,,,,,,,,,,,,KLGA 151705Z AUTO 26013KT 10SM CLR 03/M11 A2943 RMK T00301110 MADISHF,
LGA,2026-01-15 12:10,-73.8803,40.7794,9.0,,,,260.0,13.0,,29.43,,10.0,,CLR,,,,,,,,,,,,,,,,KLGA 151710Z AUTO 26013KT 10SM CLR 03/M11 A2943 RMK T00301110 MADISHF,
LGA,2026-01-15 12:15,-73.8803,40.7794,9.0,,,,260.0,14.0,,29.43,,10.0,,CLR,,,,,,,,,,,,,,,,KLGA 151715Z AUTO 26014KT 10SM CLR 04/M11 A2943 RMK T00401110 MADISHF,
LGA,2026-01-15 12:20,-73.8803,40.7794,9.0,,,,250.0,14.0,,29.43,,10.0,,CLR,,,,,,,,,,,,,,,,KLGA 151720Z AUTO 25014KT 10SM CLR 04/M11 A2943 RMK T00401110 MADISHF,
LGA,2026-01-15 12:25,-73.8803,40.7794,9.0,,,,,,,29.43,,10.0,,CLR,,,,,,,,,,,,,,,,KLGA 151725Z AUTO /////KT 10SM CLR 03/M11 A2943 RMK T00301110 MADISHF,
LGA,2026-01-15 12:30,-73.8803,40.7794,9.0,,,,260.0,14.0,,29.43,,10.0,19.0,CLR,,,,,,,,,,,,,,,,KLGA 151730Z AUTO 26014G19KT 10SM CLR 03/M11 A2943 RMK T00301110 MADISHF,
LGA,2026-01-15 12:35,-73.8803,40.7794,9.0,,,,260.0,15.0,,29.43,,10.0,21.0,CLR,,,,,,,,,,,,,,,,KLGA 151735Z AUTO 26015G21KT 10SM CLR 03/M11 A2943 RMK T00301110 MADISHF,
LGA,2026-01-15 12:40,-73.8803,40.7794,9.0,,,,270.0,14.0,,29.43,,10.0,,CLR,,,,,,,,,,,,,,,,KLGA 151740Z AUTO 27014KT 10SM CLR 03/M11 A2943 RMK T00301110 MADISHF,
LGA,2026-01-15 12:45,-73.8803,40.7794,9.0,,,,270.0,19.0,,29.43,,10.0,,CLR,,,,,,,,,,,,,,,,KLGA 151745Z AUTO 27019KT 10SM CLR 03/M11 A2943 RMK T00301110 MADISHF,
LGA,2026-01-15 12:50,-73.8803,40.7794,9.0,,,,250.0,17.0,,29.43,,10.0,26.0,FEW,,,,4000.0,,,,,,,,,,,,KLGA 151750Z AUTO 25017G26KT 10SM FEW040 03/M11 A2943 RMK T00301110 MADISHF,
LGA,2026-01-15 12:51,-73.8803,40.7794,9.0,38.0,13.0,35.34,250.0,19.0,0.00,29.43,996.5,10.0,29.0,FEW,FEW,,,4000.0,25000.0,,,,,,,29.0,250.0,2026-01-15 12:44,27.37,KLGA 151751Z 25019G29KT 10SM FEW040 FEW250 03/M11 A2943 RMK AO2 PK WND 25029/1744 SLP965 T00331106 10067 20033 58003,
LGA,2026-01-15 12:55,-73.8803,40.7794,9.0,,,,260.0,17.0,,29.43,,10.0,24.0,CLR,,,,,,,,,,,,,,,,KLGA 151755Z AUTO 26017G24KT 10SM CLR 03/M11 A2943 RMK T00301110 MADISHF,
LGA,2026-01-15 13:00,-73.8803,40.7794,9.0,,,,250.0,16.0,,29.43,,10.0,23.0,CLR,,,,,,,,,,,,,,,,KLGA 151800Z AUTO 25016G23KT 10SM CLR 03/M11 A2943 RMK T00301110 MADISHF,
LGA,2026-01-15 13:05,-73.8803,40.7794,9.0,,,,250.0,16.0,,29.43,,10.0,25.0,FEW,,,,4500.0,,,,,,,,,,,,KLGA 151805Z AUTO 25016G25KT 10SM FEW045 03/M11 A2943 RMK T00301110 MADISHF,
LGA,2026-01-15 13:10,-73.8803,40.7794,9.0,,,,270.0,17.0,,29.43,,10.0,23.0,FEW,,,,4500.0,,,,,,,,,,,,KLGA 151810Z AUTO 27017G23KT 10SM FEW045 03/M12 A2943 RMK T00301120 MADISHF,
LGA,2026-01-15 13:15,-73.8803,40.7794,9.0,,,,280.0,13.0,,29.42,,10.0,,FEW,,,,4500.0,,,,,,,,,,,,KLGA 151815Z AUTO 28013KT 10SM FEW045 03/M12 A2942 RMK T00301120 MADISHF,
LGA,2026-01-15 13:20,-73.8803,40.7794,9.0,,,,290.0,17.0,,29.42,,10.0,,FEW,,,,4500.0,,,,,,,,,,,,KLGA 151820Z AUTO 29017KT 10SM FEW045 03/M11 A2942 RMK T00301110 MADISHF,
LGA,2026-01-15 13:25,-73.8803,40.7794,9.0,,,,250.0,14.0,,29.43,,10.0,21.0,FEW,,,,4500.0,,,,,,,,,,,,KLGA 151825Z AUTO 25014G21KT 10SM FEW045 03/M11 A2943 RMK T00301110 MADISHF,
LGA,2026-01-15 13:35,-73.8803,40.7794,9.0,,,,250.0,15.0,,29.42,,10.0,,FEW,,,,4500.0,,,,,,,,,,,,KLGA 151835Z AUTO 25015KT 10SM FEW045 03/M11 A2942 RMK T00301110 MADISHF,
LGA,2026-01-15 13:40,-73.8803,40.7794,9.0,,,,270.0,19.0,,29.42,,10.0,24.0,FEW,,,,4500.0,,,,,,,,,,,,KLGA 151840Z AUTO 27019G24KT 10SM FEW045 03/M12 A2942 RMK T00301120 MADISHF,
LGA,2026-01-15 13:45,-73.8803,40.7794,9.0,,,,260.0,15.0,,29.42,,10.0,,FEW,,,,4500.0,,,,,,,,,,,,KLGA 151845Z AUTO 26015KT 10SM FEW045 03/M12 A2942 RMK T00301120 MADISHF,
LGA,2026-01-15 13:50,-73.8803,40.7794,9.0,,,,270.0,15.0,,29.43,,10.0,,FEW,,,,4500.0,,,,,,,,,,,,KLGA 151850Z AUTO 27015KT 10SM FEW045 03/M12 A2943 RMK T00301120 MADISHF,
LGA,2026-01-15 13:51,-73.8803,40.7794,9.0,37.0,10.0,32.17,260.0,16.0,0.00,29.43,996.4,10.0,,FEW,FEW,,,4500.0,25000.0,,,,,,,26.0,260.0,2026-01-15 12:52,26.94,KLGA 151851Z 26016KT 10SM FEW045 FEW250 03/M12 A2943 RMK AO2 PK WND 26026/1752 SLP964 T00281122,
LGA,2026-01-15 13:55,-73.8803,40.7794,9.0,,,,260.0,15.0,,29.43,,10.0,21.0,CLR,,,,,,,,,,,,,,,,KLGA 151855Z AUTO 26015G21KT 10SM CLR 03/M12 A2943 RMK T00301120 MADISHF,
LGA,2026-01-15 14:00,-73.8803,40.7794,9.0,,,,260.0,13.0,,29.43,,10.0,,CLR,,,,,,,,,,,,,,,,KLGA 151900Z AUTO 26013KT 10SM CLR 03/M12 A2943 RMK T00301120 MADISHF,
LGA,2026-01-15 14:05,-73.8803,40.7794,9.0,,,,270.0,15.0,,29.43,,10.0,,CLR,,,,,,,,,,,,,,,,KLGA 151905Z AUTO 27015KT 10SM CLR 03/M12 A2943 RMK T00301120 MADISHF,
LGA,2026-01-15 14:10,-73.8803,40.7794,9.0,,,,260.0,14.0,,29.43,,10.0,19.0,CLR,,,,,,,,,,,,,,,,KLGA 151910Z AUTO 26014G19KT 10SM CLR 03/M12 A2943 RMK T00301120 MADISHF,
LGA,2026-01-15 14:15,-73.8803,40.7794,9.0,,,,270.0,17.0,,29.43,,10.0,24.0,CLR,,,,,,,,,,,,,,,,KLGA 151915Z AUTO 27017G24KT 10SM CLR 03/M12 A2943 RMK T00301120 MADISHF,
LGA,2026-01-15 14:20,-73.8803,40.7794,9.0,,,,270.0,16.0,,29.43,,10.0,,CLR,,,,,,,,,,,,,,,,KLGA 151920Z AUTO 27016KT 10SM CLR 03/M13 A2943 RMK T00301130 MADISHF,
LGA,2026-01-15 14:25,-73.8803,40.7794,9.0,,,,260.0,14.0,,29.44,,10.0,19.0,CLR,,,,,,,,,,,,,,,,KLGA 151925Z AUTO 26014G19KT 10SM CLR 03/M13 A2944 RMK T00301130 MADISHF,
LGA,2026-01-15 14:30,-73.8803,40.7794,9.0,,,,270.0,15.0,,29.45,,10.0,21.0,CLR,,,,,,,,,,,,,,,,KLGA 151930Z AUTO 27015G21KT 10SM CLR 03/M13 A2945 RMK T00301130 MADISHF,
LGA,2026-01-15 14:35,-73.8803,40.7794,9.0,,,,250.0,14.0,,29.45,,10.0,19.0,CLR,,,,,,,,,,,,,,,,KLGA 151935Z AUTO 25014G19KT 10SM CLR 03/M13 A2945 RMK T00301130 MADISHF,
LGA,2026-01-15 14:40,-73.8803,40.7794,9.0,,,,250.0,19.0,,29.45,,10.0,24.0,CLR,,,,,,,,,,,,,,,,KLGA 151940Z AUTO 25019G24KT 10SM CLR 03/M13 A2945 RMK T00301130 MADISHF,
LGA,2026-01-15 14:45,-73.8803,40.7794,9.0,,,,260.0,17.0,,29.45,,10.0,22.0,CLR,,,,,,,,,,,,,,,,KLGA 151945Z AUTO 26017G22KT 10SM CLR 03/M13 A2945 RMK T00301130 MADISHF,
LGA,2026-01-15 14:50,-73.8803,40.7794,9.0,,,,250.0,17.0,,29.45,,10.0,,FEW,,,,5500.0,,,,,,,,,,,,KLGA 151950Z AUTO 25017KT 10SM FEW055 02/M14 A2945 RMK T00201140 MADISHF,
LGA,2026-01-15 14:51,-73.8803,40.7794,9.0,36.0,7.0,29.24,250.0,14.0,0.00,29.45,997.1,10.0,26.0,FEW,,,,5500.0,,,,,,,,29.0,290.0,2026-01-15 14:14,26.32,KLGA 151951Z 25014G26KT 10SM FEW055 02/M14 A2945 RMK AO2 PK WND 29029/1914 SLP971 T00221139,
LGA,2026-01-15 14:55,-73.8803,40.7794,9.0,,,,260.0,14.0,,29.45,,10.0,,CLR,,,,,,,,,,,,,,,,KLGA 151955Z AUTO 26014KT 10SM CLR 03/M14 A2945 RMK T00301140 MADISHF,
LGA,2026-01-15 15:00,-73.8803,40.7794,9.0,,,,270.0,16.0,,29.45,,10.0,21.0,CLR,,,,,,,,,,,,,,,,KLGA 152000Z AUTO 27016G21KT 10SM CLR 02/M14 A2945 RMK T00201140 MADISHF,
LGA,2026-01-15 15:05,-73.8803,40.7794,9.0,,,,250.0,16.0,,29.45,,10.0,26.0,CLR,,,,,,,,,,,,,,,,KLGA 152005Z AUTO 25016G26KT 10SM CLR 02/M13 A2945 RMK T00201130 MADISHF,
LGA,2026-01-15 15:10,-73.8803,40.7794,9.0,,,,260.0,17.0,,29.46,,10.0,,CLR,,,,,,,,,,,,,,,,KLGA 152010Z AUTO 26017KT 10SM CLR 02/M13 A2946 RMK T00201130 MADISHF,
LGA,2026-01-15 15:15,-73.8803,40.7794,9.0,,,,270.0,17.0,,29.46,,10.0,23.0,CLR,,,,,,,,,,,,,,,,KLGA 152015Z AUTO 27017G23KT 10SM CLR 02/M14 A2946 RMK T00201140 MADISHF,
LGA,2026-01-15 15:20,-73.8803,40.7794,9.0,,,,260.0,16.0,,29.46,,10.0,21.0,CLR,,,,,,,,,,,,,,,,KLGA 152020Z AUTO 26016G21KT 10SM CLR 02/M14 A2946 RMK T00201140 MADISHF,
LGA,2026-01-15 15:25,-73.8803,40.7794,9.0,,,,260.0,18.0,,29.47,,10.0,,CLR,,,,,,,,,,,,,,,,KLGA 152025Z AUTO 26018KT 10SM CLR 02/M14 A2947 RMK T00201140 MADISHF,
LGA,2026-01-15 15:30,-73.8803,40.7794,9.0,,,,270.0,15.0,,29.47,,10.0,24.0,CLR,,,,,,,,,,,,,,,,KLGA 152030Z AUTO 27015G24KT 10SM CLR 02/M13 A2947 RMK T00201130 MADISHF,
LGA,2026-01-15 15:35,-73.8803,40.7794,9.0,,,,260.0,19.0,,29.47,,10.0,24.0,CLR,,,,,,,,,,,,,,,,KLGA 152035Z AUTO 26019G24KT 10SM CLR 02/M13 A2947 RMK T00201130 MADISHF,
LGA,2026-01-15 15:40,-73.8803,40.7794,9.0,,,,260.0,19.0,,29.47,,10.0,,CLR,,,,,,,,,,,,,,,,KLGA 152040Z AUTO 26019KT 10SM CLR 02/M14 A2947 RMK T00201140 MADISHF,
LGA,2026-01-15 15:45,-73.8803,40.7794,9.0,,,,250.0,12.0,,29.47,,10.0,,CLR,,,,,,,,,,,,,,,,KLGA 152045Z AUTO 25012KT 10SM CLR 01/M14 A2947 RMK T00101140 MADISHF,
LGA,2026-01-15 15:50,-73.8803,40.7794,9.0,,,,260.0,16.0,,29.47,,10.0,22.0,FEW,,,,5500.0,,,,,,,,,,,,KLGA 152050Z AUTO 26016G22KT 10SM FEW055 02/M13 A2947 RMK T00201130 MADISHF,
LGA,2026-01-15 15:51,-73.8803,40.7794,9.0,35.0,7.0,30.42,260.0,18.0,0.00,29.48,998.1,10.0,25.0,FEW,FEW,,,5500.0,25000.0,,,,,,,29.0,280.0,2026-01-15 15:23,23.7,KLGA 152051Z 26018G25KT 10SM FEW055 FEW250 02/M14 A2948 RMK AO2 PK WND 28029/2023 SLP981 T00171139 53016,
LGA,2026-01-15 15:55,-73.8803,40.7794,9.0,,,,250.0,17.0,,29.48,,10.0,24.0,CLR,,,,,,,,,,,,,,,,KLGA 152055Z AUTO 25017G24KT 10SM CLR 01/M14 A2948 RMK T00101140 MADISHF,
LGA,2026-01-15 16:00,-73.8803,40.7794,9.0,,,,260.0,15.0,,29.48,,10.0,21.0,CLR,,,,,,,,,,,,,,,,KLGA 152100Z AUTO 26015G21KT 10SM CLR 01/M14 A2948 RMK T00101140 MADISHF,
LGA,2026-01-15 16:05,-73.8803,40.7794,9.0,,,,260.0,17.0,,29.48,,10.0,,CLR,,,,,,,,,,,,,,,,KLGA 152105Z AUTO 26017KT 10SM CLR 01/M14 A2948 RMK T00101140 MADISHF,
LGA,2026-01-15 16:10,-73.8803,40.7794,9.0,,,,270.0,14.0,,29.48,,10.0,22.0,CLR,,,,,,,,,,,,,,,,KLGA 152110Z AUTO 27014G22KT 10SM CLR 01/M14 A2948 RMK T00101140 MADISHF,
LGA,2026-01-15 16:15,-73.8803,40.7794,9.0,,,,280.0,12.0,,29.48,,10.0,,CLR,,,,,,,,,,,,,,,,KLGA 152115Z AUTO 28012KT 10SM CLR 01/M14 A2948 RMK T00101140 MADISHF,
LGA,2026-01-15 16:20,-73.8803,40.7794,9.0,,,,270.0,11.0,,29.48,,10.0,18.0,CLR,,,,,,,,,,,,,,,,KLGA 152120Z AUTO 27011G18KT 10SM CLR 01/M13 A2948 RMK T00101130 MADISHF,
LGA,2026-01-15 16:25,-73.8803,40.7794,9.0,,,,260.0,16.0,,29.49,,10.0,21.0,CLR,,,,,,,,,,,,,,,,KLGA 152125Z AUTO 26016G21KT 10SM CLR 01/M14 A2949 RMK T00101140 MADISHF,
LGA,2026-01-15 16:30,-73.8803,40.7794,9.0,,,,270.0,18.0,,29.49,,10.0,23.0,CLR,,,,,,,,,,,,,,,,KLGA 152130Z AUTO 27018G23KT 10SM CLR 01/M14 A2949 RMK T00101140 MADISHF,
LGA,2026-01-15 16:35,-73.8803,40.7794,9.0,,,,260.0,15.0,,29.49,,10.0,22.0,CLR,,,,,,,,,,,,,,,,KLGA 152135Z AUTO 26015G22KT 10SM CLR 01/M14 A2949 RMK T00101140 MADISHF,
LGA,2026-01-15 16:40,-73.8803,40.7794,9.0,,,,260.0,18.0,,29.49,,10.0,23.0,CLR,,,,,,,,,,,,,,,,KLGA 152140Z AUTO 26018G23KT 10SM CLR 01/M14 A2949 RMK T00101140 MADISHF,
LGA,2026-01-15 16:45,-73.8803,40.7794,9.0,,,,250.0,14.0,,29.49,,10.0,,CLR,,,,,,,,,,,,,,,,KLGA 152145Z AUTO 25014KT 10SM CLR 01/M14 A2949 RMK T00101140 MADISHF,
LGA,2026-01-15 16:50,-73.8803,40.7794,9.0,,,,260.0,15.0,,29.49,,10.0,,FEW,,,,5500.0,,,,,,,,,,,,KLGA 152150Z AUTO 26015KT 10SM FEW055 M00/M14 A2949 RMK T10001140 MADISHF,
LGA,2026-01-15 16:51,-73.8803,40.7794,9.0,32.0,6.0,32.78,270.0,13.0,0.00,29.49,998.7,10.0,23.0,FEW,FEW,,,5500.0,25000.0,,,,,,,,,,21.57,KLGA 152151Z 27013G23KT 10SM FEW055 FEW250 00/M14 A2949 RMK AO2 SLP987 T00001144,
LGA,2026-01-15 16:55,-73.8803,40.7794,9.0,,,,260.0,16.0,,29.5,,10.0,21.0,CLR,,,,,,,,,,,,,,,,KLGA 152155Z AUTO 26016G21KT 10SM CLR 01/M14 A2950 RMK T00101140 WND 23V29 MADISHF,
LGA,2026-01-15 17:00,-73.8803,40.7794,9.0,,,,250.0,15.0,,29.5,,10.0,,CLR,,,,,,,,,,,,,,,,KLGA 152200Z AUTO 25015KT 10SM CLR M00/M14 A2950 RMK T10001140 MADISHF,
LGA,2026-01-15 17:05,-73.8803,40.7794,9.0,,,,260.0,12.0,,29.5,,10.0,18.0,CLR,,,,,,,,,,,,,,,,KLGA 152205Z AUTO 26012G18KT 10SM CLR M00/M14 A2950 RMK T10001140 MADISHF,
LGA,2026-01-15 17:10,-73.8803,40.7794,9.0,,,,260.0,13.0,,29.5,,10.0,,CLR,,,,,,,,,,,,,,,,KLGA 152210Z AUTO 26013KT 10SM CLR M00/M14 A2950 RMK T10001140 MADISHF,
LGA,2026-01-15 17:15,-73.8803,40.7794,9.0,,,,260.0,14.0,,29.5,,10.0,23.0,CLR,,,,,,,,,,,,,,,,KLGA 152215Z AUTO 26014G23KT 10SM CLR M00/M14 A2950 RMK T10001140 MADISHF,
LGA,2026-01-15 17:20,-73.8803,40.7794,9.0,,,,260.0,21.0,,29.51,,10.0,26.0,CLR,,,,,,,,,,,,,,,,KLGA 152220Z AUTO 26021G26KT 10SM CLR M00/M14 A2951 RMK T10001140 MADISHF,
LGA,2026-01-15 17:25,-73.8803,40.7794,9.0,,,,270.0,18.0,,29.51,,10.0,23.0,CLR,,,,,,,,,,,,,,,,KLGA 152225Z AUTO 27018G23KT 10SM CLR M00/M15 A2951 RMK T10001150 MADISHF,
LGA,2026-01-15 17:30,-73.8803,40.7794,9.0,,,,260.0,14.0,,29.51,,10.0,,CLR,,,,,,,,,,,,,,,,KLGA 152230Z AUTO 26014KT 10SM CLR M00/M14 A2951 RMK T10001140 MADISHF,
LGA,2026-01-15 17:35,-73.8803,40.7794,9.0,,,,260.0,16.0,,29.51,,10.0,22.0,CLR,,,,,,,,,,,,,,,,KLGA 152235Z AUTO 26016G22KT 10SM CLR M01/M14 A2951 RMK T10101140 MADISHF,
LGA,2026-01-15 17:45,-73.8803,40.7794,9.0,,,,270.0,19.0,,29.52,,10.0,,CLR,,,,,,,,,,,,,,,,KLGA 152245Z AUTO 27019KT 10SM CLR M01/M15 A2952 RMK T10101150 MADISHF,
LGA,2026-01-15 17:50,-73.8803,40.7794,9.0,,,,260.0,16.0,,29.52,,10.0,23.0,FEW,,,,5500.0,,,,,,,,,,,,KLGA 152250Z AUTO 26016G23KT 10SM FEW055 M01/M14 A2952 RMK T10101140 MADISHF,
LGA,2026-01-15 17:51,-73.8803,40.7794,9.0,31.0,5.0,32.61,270.0,15.0,0.00,29.52,999.5,10.0,33.0,FEW,FEW,,,5500.0,25000.0,,,,,,,33.0,280.0,2026-01-15 17:48,19.48,KLGA 152251Z 27015G33KT 10SM FEW055 FEW250 M01/M15 A2952 RMK AO2 PK WND 28033/2248 SLP995 T10061150,
LGA,2026-01-15 17:55,-73.8803,40.7794,9.0,,,,270.0,19.0,,29.51,,10.0,,CLR,,,,,,,,,,,,,,,,KLGA 152255Z AUTO 27019KT 10SM CLR M01/M15 A2951 RMK T10101150 MADISHF,
LGA,2026-01-15 18:00,-73.8803,40.7794,9.0,,,,270.0,21.0,,29.51,,10.0,27.0,CLR,,,,,,,,,,,,,,,,KLGA 152300Z AUTO 27021G27KT 10SM CLR M01/M15 A2951 RMK T10101150 MADISHF,
LGA,2026-01-15 18:05,-73.8803,40.7794,9.0,,,,,,,29.52,,10.0,28.0,CLR,,,,,,,,,,,,,,,,KLGA 152305Z AUTO /////G28KT 10SM CLR M01/M15 A2952 RMK T10101150 MADISHF,
LGA,2026-01-15 18:10,-73.8803,40.7794,9.0,,,,260.0,20.0,,29.51,,10.0,,CLR,,,,,,,,,,,,,,,,KLGA 152310Z AUTO 26020KT 10SM CLR M01/M16 A2951 RMK T10101160 MADISHF,
LGA,2026-01-15 18:15,-73.8803,40.7794,9.0,,,,260.0,17.0,,29.52,,10.0,23.0,CLR,,,,,,,,,,,,,,,,KLGA 152315Z AUTO 26017G23KT 10SM CLR M01/M16 A2952 RMK T10101160 MADISHF,
LGA,2026-01-15 18:20,-73.8803,40.7794,9.0,,,,270.0,16.0,,29.52,,10.0,21.0,CLR,,,,,,,,,,,,,,,,KLGA 152320Z AUTO 27016G21KT 10SM CLR M01/M16 A2952 RMK T10101160 MADISHF,
LGA,2026-01-15 18:25,-73.8803,40.7794,9.0,,,,280.0,14.0,,29.52,,10.0,,CLR,,,,,,,,,,,,,,,,KLGA 152325Z AUTO 28014KT 10SM CLR M01/M15 A2952 RMK T10101150 MADISHF,
LGA,2026-01-15 18:30,-73.8803,40.7794,9.0,,,,270.0,17.0,,29.53,,10.0,,CLR,,,,,,,,,,,,,,,,KLGA 152330Z AUTO 27017KT 10SM CLR M01/M15 A2953 RMK T10101150 MADISHF,
LGA,2026-01-15 18:35,-73.8803,40.7794,9.0,,,,290.0,15.0,,29.54,,10.0,,CLR,,,,,,,,,,,,,,,,KLGA 152335Z AUTO 29015KT 10SM CLR M01/M15 A2954 RMK T10101150 MADISHF,
LGA,2026-01-15 18:40,-73.8803,40.7794,9.0,,,,,,,29.53,,10.0,23.0,CLR,,,,,,,,,,,,,,,,KLGA 152340Z AUTO /////G23KT 10SM CLR M01/M14 A2953 RMK T10101140 MADISHF,
LGA,2026-01-15 18:50,-73.8803,40.7794,9.0,,,,,,,29.54,,10.0,,FEW,,,,5500.0,,,,,,,,,,,,KLGA 152350Z AUTO /////KT 10SM FEW055 M02/M14 A2954 RMK T10201140 MADISHF,
LGA,2026-01-15 18:51,-73.8803,40.7794,9.0,29.0,7.0,38.75,300.0,15.0,0.00,29.54,1000.4,10.0,25.0,FEW,SCT,,,5500.0,25000.0,,,,,,,28.0,260.0,2026-01-15 18:05,16.89,KLGA 152351Z 30015G25KT 10SM FEW055 SCT250 M02/M14 A2954 RMK AO2 PK WND 26028/2305 SLP004 T10171139 10033 21017 53023,
LGA,2026-01-15 18:55,-73.8803,40.7794,9.0,,,,300.0,15.0,,29.54,,10.0,,FEW,,,,5000.0,,,,,,,,,,,,KLGA 152355Z AUTO 30015KT 10SM FEW050 M01/M14 A2954 RMK T10101140 MADISHF,
LGA,2026-01-15 19:00,-73.8803,40.7794,9.0,,,,300.0,17.0,,29.54,,10.0,22.0,SCT,,,,5000.0,,,,,,,,,,,,KLGA 160000Z AUTO 30017G22KT 10SM SCT050 M02/M14 A2954 RMK T10201140 MADISHF,
LGA,2026-01-15 19:05,-73.8803,40.7794,9.0,,,,300.0,16.0,,29.54,,10.0,21.0,SCT,,,,5000.0,,,,,,,,,,,,KLGA 160005Z AUTO 30016G21KT 10SM SCT050 M02/M14 A2954 RMK T10201140 MADISHF,
LGA,2026-01-15 19:10,-73.8803,40.7794,9.0,,,,300.0,15.0,,29.53,,10.0,21.0,SCT,,,,5000.0,,,,,,,,,,,,KLGA 160010Z AUTO 30015G21KT 10SM SCT050 M02/M14 A2953 RMK T10201140 MADISHF,
LGA,2026-01-15 19:15,-73.8803,40.7794,9.0,,,,,,,29.53,,10.0,28.0,SCT,,,,5000.0,,,,,,,,,,,,KLGA 160015Z AUTO /////G28KT 10SM SCT050 M02/M14 A2953 RMK T10201140 MADISHF,
LGA,2026-01-15 19:20,-73.8803,40.7794,9.0,,,,,,,29.53,,10.0,27.0,SCT,,,,5000.0,,,,,,,,,,,,KLGA 160020Z AUTO /////G27KT 10SM SCT050 M02/M15 A2953 RMK T10201150 MADISHF,
LGA,2026-01-15 19:25,-73.8803,40.7794,9.0,,,,,,,29.53,,10.0,25.0,SCT,,,,5000.0,,,,,,,,,,,,KLGA 160025Z AUTO /////G25KT 10SM SCT050 M02/M15 A2953 RMK T10201150 MADISHF,
LGA,2026-01-15 19:30,-73.8803,40.7794,9.0,,,,,,,29.53,,10.0,27.0,FEW,,,,5000.0,,,,,,,,,,,,KLGA 160030Z AUTO /////G27KT 10SM FEW050 M02/M14 A2953 RMK T10201140 MADISHF,
LGA,2026-01-15 19:35,-73.8803,40.7794,9.0,,,,310.0,19.0,,29.54,,10.0,,FEW,,,,5000.0,,,,,,,,,,,,KLGA 160035Z AUTO 31019KT 10SM FEW050 M02/M14 A2954 RMK T10201140 MADISHF,
LGA,2026-01-15 19:40,-73.8803,40.7794,9.0,,,,300.0,17.0,,29.54,,10.0,22.0,FEW,,,,5000.0,,,,,,,,,,,,KLGA 160040Z AUTO 30017G22KT 10SM FEW050 M02/M14 A2954 RMK T10201140 MADISHF,
LGA,2026-01-15 19:50,-73.8803,40.7794,9.0,,,,270.0,17.0,,29.54,,10.0,28.0,FEW,,,,5500.0,,,,,,,,,,,,KLGA 160050Z AUTO 27017G28KT 10SM FEW055 M02/M15 A2954 RMK T10201150 MADISHF,
LGA,2026-01-15 19:51,-73.8803,40.7794,9.0,29.0,4.0,33.79,280.0,22.0,0.00,29.54,1000.2,10.0,31.0,FEW,FEW,,,5500.0,25000.0,,,,,,,31.0,290.0,2026-01-15 19:51,14.56,KLGA 160051Z 28022G31KT 10SM FEW055 FEW250 M02/M16 A2954 RMK AO2 PK WND 29031/0051 SLP002 T10171156,
LGA,2026-01-15 19:55,-73.8803,40.7794,9.0,,,,,,,29.54,,10.0,26.0,CLR,,,,,,,,,,,,,,,,KLGA 160055Z AUTO /////G26KT 10SM CLR M02/M16 A2954 RMK T10201160 MADISHF,
LGA,2026-01-15 20:00,-73.8803,40.7794,9.0,,,,290.0,15.0,,29.54,,10.0,,CLR,,,,,,,,,,,,,,,,KLGA 160100Z AUTO 29015KT 10SM CLR M02/M16 A2954 RMK T10201160 MADISHF,
LGA,2026-01-15 20:05,-73.8803,40.7794,9.0,,,,270.0,16.0,,29.54,,10.0,,CLR,,,,,,,,,,,,,,,,KLGA 160105Z AUTO 27016KT 10SM CLR M02/M16 A2954 RMK T10201160 MADISHF,
LGA,2026-01-15 20:10,-73.8803,40.7794,9.0,,,,,,,29.53,,10.0,25.0,CLR,,,,,,,,,,,,,,,,KLGA 160110Z AUTO /////G25KT 10SM CLR M02/M17 A2953 RMK T10201170 MADISHF,
LGA,2026-01-15 20:15,-73.8803,40.7794,9.0,,,,270.0,14.0,,29.53,,10.0,,CLR,,,,,,,,,,,,,,,,KLGA 160115Z AUTO 27014KT 10SM CLR M02/M16 A2953 RMK T10201160 MADISHF,
LGA,2026-01-15 20:20,-73.8803,40.7794,9.0,,,,,,,29.53,,10.0,25.0,CLR,,,,,,,,,,,,,,,,KLGA 160120Z AUTO /////G25KT 10SM CLR M02/M16 A2953 RMK T10201160 MADISHF,
LGA,2026-01-15 20:30,-73.8803,40.7794,9.0,,,,,19.0,,29.52,,10.0,,CLR,,,,,,,,,,,,,,,,KLGA 160130Z AUTO ///19KT 10SM CLR M02/M16 A2952 RMK T10201160 MADISHF,
LGA,2026-01-15 20:40,-73.8803,40.7794,9.0,,,,300.0,15.0,,29.52,,10.0,28.0,CLR,,,,,,,,,,,,,,,,KLGA 160140Z AUTO 30015G28KT 10SM CLR M02/M16 A2952 RMK T10201160 MADISHF,
LGA,2026-01-15 20:45,-73.8803,40.7794,9.0,,,,290.0,14.0,,29.52,,10.0,19.0,CLR,,,,,,,,,,,,,,,,KLGA 160145Z AUTO 29014G19KT 10SM CLR M02/M16 A2952 RMK T10201160 MADISHF,
LGA,2026-01-15 20:50,-73.8803,40.7794,9.0,,,,260.0,18.0,,29.53,,10.0,,FEW,,,,5000.0,,,,,,,,,,,,KLGA 160150Z AUTO 26018KT 10SM FEW050 M02/M17 A2953 RMK T10201170 MADISHF,
LGA,2026-01-15 20:51,-73.8803,40.7794,9.0,28.0,2.0,32.09,260.0,15.0,0.00,29.52,999.7,10.0,26.0,FEW,FEW,,,5000.0,25000.0,,,,,,,30.0,270.0,2026-01-15 19:53,15.59,KLGA 160151Z 26015G26KT 10SM FEW050 FEW250 M02/M17 A2952 RMK AO2 PK WND 27030/0053 SLP997 T10221167,
LGA,2026-01-15 20:55,-73.8803,40.7794,9.0,,,,290.0,17.0,,29.53,,10.0,23.0,CLR,,,,,,,,,,,,,,,,KLGA 160155Z AUTO 29017G23KT 10SM CLR M02/M16 A2953 RMK T10201160 MADISHF,
LGA,2026-01-15 21:05,-73.8803,40.7794,9.0,,,,290.0,16.0,,29.53,,10.0,26.0,CLR,,,,,,,,,,,,,,,,KLGA 160205Z AUTO 29016G26KT 10SM CLR M03/M16 A2953 RMK T10301160 MADISHF,
LGA,2026-01-15 21:10,-73.8803,40.7794,9.0,,,,300.0,16.0,,29.53,,10.0,21.0,CLR,,,,,,,,,,,,,,,,KLGA 160210Z AUTO 30016G21KT 10SM CLR M03/M16 A2953 RMK T10301160 MADISHF,
LGA,2026-01-15 21:15,-73.8803,40.7794,9.0,,,,280.0,15.0,,29.55,,10.0,,CLR,,,,,,,,,,,,,,,,KLGA 160215Z AUTO 28015KT 10SM CLR M02/M16 A2955 RMK T10201160 MADISHF,
LGA,2026-01-15 21:20,-73.8803,40.7794,9.0,,,,270.0,17.0,,29.55,,10.0,,CLR,,,,,,,,,,,,,,,,KLGA 160220Z AUTO 27017KT 10SM CLR M03/M17 A2955 RMK T10301170 MADISHF,
LGA,2026-01-15 21:25,-73.8803,40.7794,9.0,,,,260.0,13.0,,29.56,,10.0,18.0,CLR,,,,,,,,,,,,,,,,KLGA 160225Z AUTO 26013G18KT 10SM CLR M03/M17 A2956 RMK T10301170 MADISHF,
LGA,2026-01-15 21:30,-73.8803,40.7794,9.0,,,,270.0,14.0,,29.57,,10.0,,CLR,,,,,,,,,,,,,,,,KLGA 160230Z AUTO 27014KT 10SM CLR M03/M17 A2957 RMK T10301170 MADISHF,
LGA,2026-01-15 21:40,-73.8803,40.7794,9.0,,,,270.0,14.0,,29.57,,10.0,,CLR,,,,,,,,,,,,,,,,KLGA 160240Z AUTO 27014KT 10SM CLR M03/M17 A2957 RMK T10301170 MADISHF,
LGA,2026-01-15 21:50,-73.8803,40.7794,9.0,,,,260.0,16.0,,29.56,,10.0,21.0,FEW,,,,5500.0,,,,,,,,,,,,KLGA 160250Z AUTO 26016G21KT 10SM FEW055 M03/M17 A2956 RMK T10301170 MADISHF,
LGA,2026-01-15 21:51,-73.8803,40.7794,9.0,26.0,1.0,33.27,270.0,14.0,0.00,29.56,1001.0,10.0,25.0,FEW,SCT,,,5500.0,25000.0,,,,,,,32.0,280.0,2026-01-15 20:56,13.43,KLGA 160251Z 27014G25KT 10SM FEW055 SCT250 M03/M17 A2956 RMK AO2 PK WND 28032/0156 SLP010 T10331172 53006,
LGA,2026-01-15 21:55,-73.8803,40.7794,9.0,,,,280.0,12.0,,29.56,,10.0,17.0,CLR,,,,,,,,,,,,,,,,KLGA 160255Z AUTO 28012G17KT 10SM CLR M03/M17 A2956 RMK T10301170 MADISHF,
LGA,2026-01-15 22:00,-73.8803,40.7794,9.0,,,,280.0,15.0,,29.56,,10.0,,CLR,,,,,,,,,,,,,,,,KLGA 160300Z AUTO 28015KT 10SM CLR M03/M16 A2956 RMK T10301160 MADISHF,
LGA,2026-01-15 22:05,-73.8803,40.7794,9.0,,,,280.0,13.0,,29.55,,10.0,,CLR,,,,,,,,,,,,,,,,KLGA 160305Z AUTO 28013KT 10SM CLR M03/M17 A2955 RMK T10301170 MADISHF,
LGA,2026-01-15 22:15,-73.8803,40.7794,9.0,,,,260.0,15.0,,29.56,,10.0,23.0,CLR,,,,,,,,,,,,,,,,KLGA 160315Z AUTO 26015G23KT 10SM CLR M03/M17 A2956 RMK T10301170 MADISHF,
LGA,2026-01-15 22:20,-73.8803,40.7794,9.0,,,,260.0,16.0,,29.56,,10.0,,CLR,,,,,,,,,,,,,,,,KLGA 160320Z AUTO 26016KT 10SM CLR M03/M17 A2956 RMK T10301170 MADISHF,
LGA,2026-01-15 22:25,-73.8803,40.7794,9.0,,,,260.0,15.0,,29.56,,10.0,24.0,CLR,,,,,,,,,,,,,,,,KLGA 160325Z AUTO 26015G24KT 10SM CLR M03/M17 A2956 RMK T10301170 MADISHF,
LGA,2026-01-15 22:30,-73.8803,40.7794,9.0,,,,260.0,16.0,,29.56,,10.0,,CLR,,,,,,,,,,,,,,,,KLGA 160330Z AUTO 26016KT 10SM CLR M03/M17 A2956 RMK T10301170 MADISHF,
LGA,2026-01-15 22:35,-73.8803,40.7794,9.0,,,,260.0,17.0,,29.56,,10.0,24.0,CLR,,,,,,,,,,,,,,,,KLGA 160335Z AUTO 26017G24KT 10SM CLR M03/M17 A2956 RMK T10301170 MADISHF,
LGA,2026-01-15 22:40,-73.8803,40.7794,9.0,,,,270.0,13.0,,29.56,,10.0,,CLR,,,,,,,,,,,,,,,,KLGA 160340Z AUTO 27013KT 10SM CLR M03/M17 A2956 RMK T10301170 MADISHF,
LGA,2026-01-15 22:50,-73.8803,40.7794,9.0,,,,260.0,19.0,,29.56,,10.0,26.0,FEW,,,,5500.0,,,,,,,,,,,,KLGA 160350Z AUTO 26019G26KT 10SM FEW055 M04/M16 A2956 RMK T10401160 MADISHF,
LGA,2026-01-15 22:51,-73.8803,40.7794,9.0,26.0,2.0,34.85,260.0,20.0,0.00,29.56,1001.0,10.0,27.0,FEW,FEW,,,5500.0,25000.0,,,,,,,30.0,260.0,2026-01-15 22:22,11.17,KLGA 160351Z 26020G27KT 10SM FEW055 FEW250 M03/M17 A2956 RMK AO2 PK WND 26030/0322 SLP010 T10331167,
LGA,2026-01-15 23:00,-73.8803,40.7794,9.0,,,,270.0,13.0,,29.57,,10.0,19.0,FEW,,,,5500.0,,,,,,,,,,,,KLGA 160400Z AUTO 27013G19KT 10SM FEW055 M03/M17 A2957 RMK T10301170 MADISHF,
LGA,2026-01-15 23:05,-73.8803,40.7794,9.0,,,,290.0,16.0,,29.57,,10.0,,FEW,,,,5500.0,,,,,,,,,,,,KLGA 160405Z AUTO 29016KT 10SM FEW055 M03/M17 A2957 RMK T10301170 MADISHF,
LGA,2026-01-15 23:10,-73.8803,40.7794,9.0,,,,270.0,19.0,,29.56,,10.0,27.0,FEW,,,,5500.0,,,,,,,,,,,,KLGA 160410Z AUTO 27019G27KT 10SM FEW055 M03/M16 A2956 RMK T10301160 MADISHF,
LGA,2026-01-15 23:15,-73.8803,40.7794,9.0,,,,280.0,16.0,,29.56,,10.0,,FEW,,,,5500.0,,,,,,,,,,,,KLGA 160415Z AUTO 28016KT 10SM FEW055 M03/M17 A2956 RMK T10301170 MADISHF,
LGA,2026-01-15 23:20,-73.8803,40.7794,9.0,,,,270.0,18.0,,29.56,,10.0,,FEW,,,,5500.0,,,,,,,,,,,,KLGA 160420Z AUTO 27018KT 10SM FEW055 M04/M17 A2956 RMK T10401170 MADISHF,
LGA,2026-01-15 23:25,-73.8803,40.7794,9.0,,,,,,,29.57,,10.0,23.0,FEW,,,,5500.0,,,,,,,,,,,,KLGA 160425Z AUTO /////G23KT 10SM FEW055 M04/M17 A2957 RMK T10401170 MADISHF,
LGA,2026-01-15 23:35,-73.8803,40.7794,9.0,,,,,,,29.56,,10.0,34.0,FEW,,,,5500.0,,,,,,,,,,,,KLGA 160435Z AUTO /////G34KT 10SM FEW055 M04/M17 A2956 RMK T10401170 MADISHF,
LGA,2026-01-15 23:40,-73.8803,40.7794,9.0,,,,,,,29.56,,10.0,32.0,FEW,,,,5500.0,,,,,,,,,,,,KLGA 160440Z AUTO /////G32KT 10SM FEW055 M04/M17 A2956 RMK T10401170 MADISHF,
LGA,2026-01-15 23:45,-73.8803,40.7794,9.0,,,,280.0,17.0,,29.56,,10.0,24.0,FEW,,,,5500.0,,,,,,,,,,,,KLGA 160445Z AUTO 28017G24KT 10SM FEW055 M04/M18 A2956 RMK T10401180 MADISHF,
LGA,2026-01-15 23:50,-73.8803,40.7794,9.0,,,,,,,29.56,,10.0,29.0,FEW,,,,5500.0,,,,,,,,,,,,KLGA 160450Z AUTO /////G29KT 10SM FEW055 M04/M18 A2956 RMK T10401180 MADISHF,
LGA,2026-01-15 23:51,-73.8803,40.7794,9.0,25.0,0.0,33.09,290.0,22.0,0.00,29.56,1000.9,10.0,30.0,FEW,FEW,,,5500.0,25000.0,,,,,,,34.0,300.0,2026-01-15 23:35,9.21,KLGA 160451Z 29022G30KT 10SM FEW055 FEW250 M04/M18 A2956 RMK AO2 PK WND 30034/0435 SLP009 T10391178 400781039,
